id,name,post_code,country,lat,lon
1,Berlin,10178,Germany,52.52468,13.40535
2,Berlin,12059,Germany,52.52468,13.40535
3,Berlin,12057,Germany,52.52468,13.40535
4,Berlin,12055,Germany,52.52468,13.40535
5,Berlin,12053,Germany,52.52468,13.40535
6,Berlin,12051,Germany,52.52468,13.40535
7,Berlin,12049,Germany,52.52468,13.40535
8,Berlin,12047,Germany,52.52468,13.40535
9,Berlin,12045,Germany,52.52468,13.40535
10,Berlin,12043,Germany,52.52468,13.40535
11,Berlin,13357,Germany,52.52468,13.40535
12,Berlin,13359,Germany,52.52468,13.40535
13,Berlin,13351,Germany,52.52468,13.40535
14,Berlin,13353,Germany,52.52468,13.40535
15,Berlin,13355,Germany,52.52468,13.40535
16,Berlin,13347,Germany,52.52468,13.40535
17,Berlin,13349,Germany,52.52468,13.40535
18,Berlin,12099,Germany,52.44763,13.38535
19,Berlin,12109,Germany,52.44763,13.38535
20,Berlin,12107,Germany,52.44763,13.38535
21,Berlin,12105,Germany,52.44763,13.38535
22,Berlin,12103,Germany,52.44763,13.38535
23,Berlin,13435,Germany,52.56755,13.33165
24,Berlin,13437,Germany,52.56755,13.33165
25,Berlin,13439,Germany,52.56755,13.33165
26,Berlin,12101,Germany,52.44763,13.38535
27,Berlin,13409,Germany,52.56755,13.33165
28,Berlin,13403,Germany,52.56755,13.33165
29,Berlin,13405,Germany,52.56755,13.33165
30,Berlin,13407,Germany,52.56755,13.33165
31,Berlin,12169,Germany,52.44364,13.22908
32,Berlin,12167,Germany,52.44364,13.22908
33,Berlin,12165,Germany,52.44364,13.22908
34,Berlin,12163,Germany,52.44364,13.22908
35,Berlin,12161,Germany,52.44364,13.22908
36,Berlin,12159,Germany,52.44763,13.38535
37,Berlin,12157,Germany,52.44364,13.22908
38,Berlin,13467,Germany,52.56755,13.33165
39,Berlin,13469,Germany,52.56755,13.33165
40,Berlin,13465,Germany,52.56755,13.33165
41,Berlin,13158,Germany,52.52468,13.40535
42,Berlin,13159,Germany,52.52468,13.40535
43,Berlin,13156,Germany,52.52468,13.40535
44,Berlin,13125,Germany,52.52468,13.40535
45,Berlin,13127,Germany,52.52468,13.40535
46,Berlin,13129,Germany,52.52468,13.40535
47,Berlin,13187,Germany,52.52468,13.40535
48,Berlin,13189,Germany,52.52468,13.40535
49,Berlin,13059,Germany,52.514581,13.498392
50,Berlin,13051,Germany,52.514581,13.498392
51,Berlin,13053,Germany,52.514581,13.498392
52,Berlin,13055,Germany,52.514581,13.498392
53,Berlin,13057,Germany,52.514581,13.498392
54,Berlin,13086,Germany,52.52468,13.40535
55,Berlin,13088,Germany,52.52468,13.40535
56,Berlin,13089,Germany,52.52468,13.40535
57,Berlin,14089,Germany,52.5500945822244,13.2003562380982
58,Berlin,14052,Germany,52.497058,13.29649
59,Berlin,14053,Germany,52.497058,13.29649
60,Berlin,14055,Germany,52.497058,13.29649
61,Berlin,14057,Germany,52.497058,13.29649
62,Berlin,14059,Germany,52.497058,13.29649
63,Berlin,14050,Germany,52.497058,13.29649
64,Berlin,14129,Germany,52.44364,13.22908
65,Berlin,14109,Germany,52.44364,13.22908
66,Berlin,14195,Germany,52.44364,13.22908
67,Berlin,14197,Germany,52.497058,13.29649
68,Berlin,14199,Germany,52.497058,13.29649
69,Berlin,14193,Germany,52.44364,13.22908
70,Berlin,14163,Germany,52.44364,13.22908
71,Berlin,14165,Germany,52.44364,13.22908
72,Berlin,14167,Germany,52.44364,13.22908
73,Berlin,14169,Germany,52.44364,13.22908
74,Berlin,10249,Germany,52.5015,13.43512
75,Berlin,10247,Germany,52.5015,13.43512
76,Berlin,10245,Germany,52.5015,13.43512
77,Berlin,10243,Germany,52.5015,13.43512
78,Berlin,10315,Germany,52.514581,13.498392
79,Berlin,10319,Germany,52.514581,13.498392
80,Berlin,10317,Germany,52.514581,13.498392
81,Berlin,10318,Germany,52.514581,13.498392
82,Berlin,10369,Germany,52.514581,13.498392
83,Berlin,10367,Germany,52.514581,13.498392
84,Berlin,10365,Germany,52.514581,13.498392
85,Berlin,10437,Germany,52.52468,13.40535
86,Berlin,10435,Germany,52.52468,13.40535
87,Berlin,10439,Germany,52.52468,13.40535
88,Berlin,10409,Germany,52.52468,13.40535
89,Berlin,10407,Germany,52.52468,13.40535
90,Berlin,10405,Germany,52.52468,13.40535
91,Berlin,12689,Germany,52.52468,13.40535
92,Berlin,12687,Germany,52.52468,13.40535
93,Berlin,12685,Germany,52.52468,13.40535
94,Berlin,12683,Germany,52.52468,13.40535
95,Berlin,12681,Germany,52.52468,13.40535
96,Berlin,12679,Germany,52.52468,13.40535
97,Berlin,10179,Germany,52.52468,13.40535
98,Berlin,10117,Germany,52.52468,13.40535
99,Berlin,10115,Germany,52.52468,13.40535
100,Berlin,10119,Germany,52.52468,13.40535
101,Berlin,12489,Germany,52.445817,13.574588
102,Berlin,12487,Germany,52.445817,13.574588
103,Berlin,12459,Germany,52.445817,13.574588
104,Berlin,12439,Germany,52.445817,13.574588
105,Berlin,12437,Germany,52.445817,13.574588
106,Berlin,12435,Germany,52.445817,13.574588
107,Berlin,12527,Germany,52.445817,13.574588
108,Berlin,12526,Germany,52.445817,13.574588
109,Berlin,12524,Germany,52.445817,13.574588
110,Berlin,12589,Germany,52.445817,13.574588
111,Berlin,12587,Germany,52.445817,13.574588
112,Berlin,12559,Germany,52.445817,13.574588
113,Berlin,12557,Germany,52.445817,13.574588
114,Berlin,12555,Germany,52.445817,13.574588
115,Berlin,12623,Germany,52.52468,13.40535
116,Berlin,12621,Germany,52.52468,13.40535
117,Berlin,12629,Germany,52.52468,13.40535
118,Berlin,12627,Germany,52.52468,13.40535
119,Berlin,12619,Germany,52.52468,13.40535
120,Berlin,12249,Germany,52.44364,13.22908
121,Berlin,12247,Germany,52.44364,13.22908
122,Berlin,12207,Germany,52.44364,13.22908
123,Berlin,12205,Germany,52.44364,13.22908
124,Berlin,12203,Germany,52.44364,13.22908
125,Berlin,12209,Germany,52.44364,13.22908
126,Berlin,13507,Germany,52.56755,13.33165
127,Berlin,13509,Germany,52.56755,13.33165
128,Berlin,13503,Germany,52.56755,13.33165
129,Berlin,13505,Germany,52.56755,13.33165
130,Berlin,12279,Germany,52.44763,13.38535
131,Berlin,12277,Germany,52.44763,13.38535
132,Berlin,13599,Germany,52.5500945822244,13.2003562380982
133,Berlin,13591,Germany,52.5500945822244,13.2003562380982
134,Berlin,13593,Germany,52.52468,13.40535
135,Berlin,13595,Germany,52.52468,13.40535
136,Berlin,13597,Germany,52.5500945822244,13.2003562380982
137,Berlin,13587,Germany,52.5500945822244,13.2003562380982
138,Berlin,13589,Germany,52.52468,13.40535
139,Berlin,13581,Germany,52.5500945822244,13.2003562380982
140,Berlin,13583,Germany,52.52468,13.40535
141,Berlin,13585,Germany,52.5500945822244,13.2003562380982
142,Berlin,12359,Germany,52.52468,13.40535
143,Berlin,12357,Germany,52.52468,13.40535
144,Berlin,12355,Germany,52.52468,13.40535
145,Berlin,12353,Germany,52.52468,13.40535
146,Berlin,12351,Germany,52.52468,13.40535
147,Berlin,12349,Germany,52.52468,13.40535
148,Berlin,12347,Germany,52.52468,13.40535
149,Berlin,12307,Germany,52.44763,13.38535
150,Berlin,12305,Germany,52.44763,13.38535
151,Berlin,12309,Germany,52.44763,13.38535
152,Berlin,13629,Germany,52.5500945822244,13.2003562380982
153,Berlin,13627,Germany,52.497058,13.29649
154,Berlin,10965,Germany,52.5015,13.43512
155,Berlin,10963,Germany,52.5015,13.43512
156,Berlin,10961,Germany,52.5015,13.43512
157,Berlin,10969,Germany,52.5015,13.43512
158,Berlin,10967,Germany,52.5015,13.43512
159,Berlin,10997,Germany,52.5015,13.43512
160,Berlin,10999,Germany,52.5015,13.43512
161,Berlin,10711,Germany,52.497058,13.29649
162,Berlin,10719,Germany,52.497058,13.29649
163,Berlin,10717,Germany,52.497058,13.29649
164,Berlin,10715,Germany,52.497058,13.29649
165,Berlin,10713,Germany,52.497058,13.29649
166,Berlin,10709,Germany,52.497058,13.29649
167,Berlin,10707,Germany,52.497058,13.29649
168,Berlin,10789,Germany,52.44763,13.38535
169,Berlin,10787,Germany,52.44763,13.38535
170,Berlin,10785,Germany,52.52468,13.40535
171,Berlin,10783,Germany,52.44763,13.38535
172,Berlin,10781,Germany,52.44763,13.38535
173,Berlin,10777,Germany,52.44763,13.38535
174,Berlin,10779,Germany,52.44763,13.38535
175,Berlin,10829,Germany,52.44763,13.38535
176,Berlin,10827,Germany,52.44763,13.38535
177,Berlin,10825,Germany,52.44763,13.38535
178,Berlin,10823,Germany,52.44763,13.38535
179,Berlin,10589,Germany,52.497058,13.29649
180,Berlin,10587,Germany,52.497058,13.29649
181,Berlin,10585,Germany,52.497058,13.29649
182,Berlin,10557,Germany,52.52468,13.40535
183,Berlin,10555,Germany,52.52468,13.40535
184,Berlin,10553,Germany,52.52468,13.40535
185,Berlin,10551,Germany,52.52468,13.40535
186,Berlin,10559,Germany,52.52468,13.40535
187,Berlin,10623,Germany,52.497058,13.29649
188,Berlin,10629,Germany,52.497058,13.29649
189,Berlin,10627,Germany,52.497058,13.29649
190,Berlin,10625,Germany,52.497058,13.29649
191,Hamburg,20038,Germany,53.554423,9.994583
192,Hamburg,22111,Germany,53.554423,9.994583
193,Hamburg,22113,Germany,53.54221,10.16569
194,Hamburg,22119,Germany,53.554423,9.994583
195,Hamburg,22115,Germany,53.554423,9.994583
196,Hamburg,22117,Germany,53.554423,9.994583
197,Hamburg,22143,Germany,53.581944,10.084167
198,Hamburg,22145,Germany,53.60558,10.21993
199,Hamburg,22147,Germany,53.581944,10.084167
200,Hamburg,22149,Germany,53.581944,10.084167
201,Hamburg,22159,Germany,53.581944,10.084167
202,Hamburg,22177,Germany,53.581944,10.084167
203,Hamburg,22179,Germany,53.581944,10.084167
204,Hamburg,22175,Germany,53.581944,10.084167
205,Hamburg,22045,Germany,53.581944,10.084167
206,Hamburg,22047,Germany,53.581944,10.084167
207,Hamburg,22041,Germany,53.581944,10.084167
208,Hamburg,22043,Germany,53.581944,10.084167
209,Hamburg,22049,Germany,53.581944,10.084167
210,Hamburg,22081,Germany,53.6153,9.99269
211,Hamburg,22083,Germany,53.6153,9.99269
212,Hamburg,22089,Germany,53.581944,10.084167
213,Hamburg,22085,Germany,53.6153,9.99269
214,Hamburg,22087,Germany,53.581944,10.084167
215,Hamburg,21029,Germany,53.554423,9.994583
216,Hamburg,22359,Germany,53.581944,10.084167
217,Hamburg,21033,Germany,53.554423,9.994583
218,Hamburg,21035,Germany,53.554423,9.994583
219,Hamburg,21031,Germany,53.554423,9.994583
220,Hamburg,21037,Germany,53.554423,9.994583
221,Hamburg,21039,Germany,53.554423,9.994583
222,Hamburg,22391,Germany,53.581944,10.084167
223,Hamburg,22397,Germany,53.581944,10.084167
224,Hamburg,22399,Germany,53.581944,10.084167
225,Hamburg,22393,Germany,53.581944,10.084167
226,Hamburg,22395,Germany,53.581944,10.084167
227,Hamburg,21077,Germany,53.46058,9.98139
228,Hamburg,21079,Germany,53.46058,9.98139
229,Hamburg,21073,Germany,53.46058,9.98139
230,Hamburg,21075,Germany,53.46058,9.98139
231,Hamburg,22305,Germany,53.6153,9.99269
232,Hamburg,22307,Germany,53.6153,9.99269
233,Hamburg,22301,Germany,53.6153,9.99269
234,Hamburg,22303,Germany,53.6153,9.99269
235,Hamburg,22309,Germany,53.581944,10.084167
236,Hamburg,22339,Germany,53.581944,10.084167
237,Hamburg,22335,Germany,53.6153,9.99269
238,Hamburg,22337,Germany,53.6153,9.99269
239,Hamburg,22297,Germany,53.6153,9.99269
240,Hamburg,22299,Germany,53.6153,9.99269
241,Hamburg,22525,Germany,53.55506,9.94196
242,Hamburg,22527,Germany,53.574444,9.959444
243,Hamburg,22523,Germany,53.574444,9.959444
244,Hamburg,22529,Germany,53.574444,9.959444
245,Hamburg,22547,Germany,53.55506,9.94196
246,Hamburg,22549,Germany,53.55506,9.94196
247,Hamburg,22559,Germany,53.55506,9.94196
248,Hamburg,22587,Germany,53.55506,9.94196
249,Hamburg,22589,Germany,53.55506,9.94196
250,Hamburg,22605,Germany,53.55506,9.94196
251,Hamburg,22607,Germany,53.55506,9.94196
252,Hamburg,22609,Germany,53.55506,9.94196
253,Hamburg,21147,Germany,53.46058,9.98139
254,Hamburg,21149,Germany,53.46058,9.98139
255,Hamburg,22415,Germany,53.581944,10.084167
256,Hamburg,22417,Germany,53.581944,10.084167
257,Hamburg,22419,Germany,53.6153,9.99269
258,Hamburg,21107,Germany,53.554423,9.994583
259,Hamburg,21109,Germany,53.554423,9.994583
260,Hamburg,22453,Germany,53.574444,9.959444
261,Hamburg,21129,Germany,53.46058,9.98139
262,Hamburg,22459,Germany,53.574444,9.959444
263,Hamburg,22455,Germany,53.574444,9.959444
264,Hamburg,22457,Germany,53.574444,9.959444
265,Hamburg,22761,Germany,53.55506,9.94196
266,Hamburg,22767,Germany,53.55506,9.94196
267,Hamburg,22769,Germany,53.55506,9.94196
268,Hamburg,22763,Germany,53.55506,9.94196
269,Hamburg,22765,Germany,53.55506,9.94196
270,Hamburg,20144,Germany,53.574444,9.959444
271,Hamburg,20149,Germany,53.574444,9.959444
272,Hamburg,20146,Germany,53.574444,9.959444
273,Hamburg,20148,Germany,53.574444,9.959444
274,Hamburg,20097,Germany,53.554423,9.994583
275,Hamburg,20099,Germany,53.554423,9.994583
276,Hamburg,20095,Germany,53.554423,9.994583
277,Hamburg,20359,Germany,53.55506,9.94196
278,Hamburg,20354,Germany,53.574444,9.959444
279,Hamburg,20355,Germany,53.554423,9.994583
280,Hamburg,20357,Germany,53.55506,9.94196
281,Hamburg,20249,Germany,53.574444,9.959444
282,Hamburg,20251,Germany,53.6153,9.99269
283,Hamburg,20253,Germany,53.574444,9.959444
284,Hamburg,20259,Germany,53.574444,9.959444
285,Hamburg,20255,Germany,53.574444,9.959444
286,Hamburg,20257,Germany,53.55506,9.94196
287,Hamburg,20457,Germany,53.554423,9.994583
288,Hamburg,20459,Germany,53.554423,9.994583
289,Hamburg,20535,Germany,53.554423,9.994583
290,Hamburg,20537,Germany,53.554423,9.994583
291,Hamburg,20539,Germany,53.554423,9.994583
292,München,80313,Germany,48.1374,11.5755
293,München,80686,Germany,48.1374,11.5755
294,München,80687,Germany,48.1374,11.5755
295,München,80689,Germany,48.1374,11.5755
296,München,80634,Germany,48.1374,11.5755
297,München,80637,Germany,48.1374,11.5755
298,München,80636,Germany,48.1374,11.5755
299,München,80639,Germany,48.1374,11.5755
300,München,80638,Germany,48.1374,11.5755
301,München,80538,Germany,48.1374,11.5755
302,München,80539,Germany,48.1374,11.5755
303,München,81827,Germany,48.1374,11.5755
304,München,81825,Germany,48.1374,11.5755
305,München,81829,Germany,48.1374,11.5755
306,München,81925,Germany,48.1374,11.5755
307,München,81929,Germany,48.1374,11.5755
308,München,81927,Germany,48.1374,11.5755
309,München,80933,Germany,48.1374,11.5755
310,München,80935,Germany,48.1374,11.5755
311,München,80937,Germany,48.1374,11.5755
312,München,80939,Germany,48.1374,11.5755
313,München,80796,Germany,48.1374,11.5755
314,München,80798,Germany,48.1374,11.5755
315,München,80797,Germany,48.1374,11.5755
316,München,80799,Germany,48.1374,11.5755
317,München,80802,Germany,48.1374,11.5755
318,München,80801,Germany,48.1374,11.5755
319,München,80804,Germany,48.1374,11.5755
320,München,80803,Germany,48.1374,11.5755
321,München,80805,Germany,48.1374,11.5755
322,München,80807,Germany,48.1374,11.5755
323,München,80809,Germany,48.1374,11.5755
324,München,81543,Germany,48.1374,11.5755
325,München,81541,Germany,48.1374,11.5755
326,München,81547,Germany,48.1374,11.5755
327,München,81545,Germany,48.1374,11.5755
328,München,81549,Germany,48.1374,11.5755
329,München,81539,Germany,48.1374,11.5755
330,München,81477,Germany,48.1374,11.5755
331,München,81475,Germany,48.1374,11.5755
332,München,81476,Germany,48.1374,11.5755
333,München,81479,Germany,48.1374,11.5755
334,München,80469,Germany,48.1374,11.5755
335,München,81735,Germany,48.1374,11.5755
336,München,81739,Germany,48.1374,11.5755
337,München,81737,Germany,48.1374,11.5755
338,München,81671,Germany,48.1374,11.5755
339,München,81675,Germany,48.1374,11.5755
340,München,81673,Germany,48.1374,11.5755
341,München,81679,Germany,48.1374,11.5755
342,München,81677,Germany,48.1374,11.5755
343,München,80331,Germany,48.1374,11.5755
344,München,80333,Germany,48.1374,11.5755
345,München,80336,Germany,48.1374,11.5755
346,München,80335,Germany,48.1374,11.5755
347,München,81669,Germany,48.1374,11.5755
348,München,80337,Germany,48.1374,11.5755
349,München,81667,Germany,48.1374,11.5755
350,München,80339,Germany,48.1374,11.5755
351,München,80992,Germany,48.1374,11.5755
352,München,80993,Germany,48.1374,11.5755
353,München,80995,Germany,48.1374,11.5755
354,München,80997,Germany,48.1374,11.5755
355,München,80999,Germany,48.1374,11.5755
356,München,81369,Germany,48.1374,11.5755
357,München,81371,Germany,48.1374,11.5755
358,München,81373,Germany,48.1374,11.5755
359,München,81375,Germany,48.1374,11.5755
360,München,81377,Germany,48.1374,11.5755
361,München,81379,Germany,48.1374,11.5755
362,München,81241,Germany,48.1374,11.5755
363,München,81243,Germany,48.1374,11.5755
364,München,81245,Germany,48.1374,11.5755
365,München,81247,Germany,48.1374,11.5755
366,München,81249,Germany,48.1333,11.3667
367,Köln,50667,Germany,50.9333,6.95
368,Köln,51063,Germany,50.9333,6.95
369,Köln,51065,Germany,50.9333,6.95
370,Köln,51061,Germany,50.9333,6.95
371,Köln,01067,Germany,51.05,13.75
372,Köln,51069,Germany,50.9333,6.95
373,Köln,51143,Germany,50.9333,6.95
374,Köln,51149,Germany,50.9333,6.95
375,Köln,51145,Germany,50.9333,6.95
376,Köln,51147,Germany,50.9333,6.95
377,Köln,51109,Germany,50.9333,6.95
378,Köln,51105,Germany,50.9333,6.95
379,Köln,51107,Germany,50.9333,6.95
380,Köln,51103,Germany,50.9333,6.95
381,Köln,51467,Germany,50.9833,7.13333
382,Köln,50769,Germany,50.9333,6.95
383,Köln,50767,Germany,50.9333,6.95
384,Köln,50765,Germany,50.9333,6.95
385,Köln,50737,Germany,50.9333,6.95
386,Köln,50735,Germany,50.9333,6.95
387,Köln,50739,Germany,50.9333,6.95
388,Köln,50733,Germany,50.9333,6.95
389,Köln,50668,Germany,50.9333,6.95
390,Köln,50679,Germany,50.9333,6.95
391,Köln,50670,Germany,50.9333,6.95
392,Köln,50674,Germany,50.9333,6.95
393,Köln,50672,Germany,50.9333,6.95
394,Köln,50678,Germany,50.9333,6.95
395,Köln,50677,Germany,50.9333,6.95
396,Köln,50676,Germany,50.9333,6.95
397,Köln,50968,Germany,50.9333,6.95
398,Köln,50969,Germany,50.9333,6.95
399,Köln,50999,Germany,50.9333,6.95
400,Köln,50997,Germany,50.9333,6.95
401,Köln,50996,Germany,50.9333,6.95
402,Köln,50935,Germany,50.9333,6.95
403,Köln,50933,Germany,50.9333,6.95
404,Köln,50939,Germany,50.9333,6.95
405,Köln,50937,Germany,50.9333,6.95
406,Köln,50931,Germany,50.9333,6.95
407,Köln,50858,Germany,50.9333,6.95
408,Köln,50859,Germany,50.9333,6.95
409,Köln,50825,Germany,50.9333,6.95
410,Köln,50823,Germany,50.9333,6.95
411,Köln,50829,Germany,50.9333,6.95
412,Köln,50827,Germany,50.9333,6.95
413,Stuttgart,70173,Germany,48.7823,9.177
414,Stuttgart,70197,Germany,48.7823,9.177
415,Stuttgart,70195,Germany,48.7787,9.1288
416,Stuttgart,70193,Germany,48.7823,9.177
417,Stuttgart,70192,Germany,48.7823,9.177
418,Stuttgart,70191,Germany,48.7823,9.177
419,Stuttgart,70199,Germany,48.7823,9.177
420,Stuttgart,70190,Germany,48.7823,9.177
421,Stuttgart,70186,Germany,48.7823,9.177
422,Stuttgart,70184,Germany,48.7823,9.177
423,Stuttgart,70182,Germany,48.7823,9.177
424,Stuttgart,70180,Germany,48.7823,9.177
425,Stuttgart,70188,Germany,48.7823,9.177
426,Stuttgart,70176,Germany,48.7823,9.177
427,Stuttgart,70174,Germany,48.7823,9.177
428,Stuttgart,70178,Germany,48.7823,9.177
429,Stuttgart,70439,Germany,48.7823,9.177
430,Stuttgart,70437,Germany,48.7823,9.177
431,Stuttgart,70435,Germany,48.7823,9.177
432,Stuttgart,70374,Germany,48.7823,9.177
433,Stuttgart,70372,Germany,48.7823,9.177
434,Stuttgart,70378,Germany,48.7823,9.177
435,Stuttgart,70376,Germany,48.8213,9.22
436,Stuttgart,70329,Germany,48.7586,9.2557
437,Stuttgart,70327,Germany,48.7586,9.2557
438,Stuttgart,70499,Germany,48.8143,9.1123
439,Stuttgart,70469,Germany,48.7823,9.177
440,Stuttgart,70629,Germany,48.7823,9.177
441,Stuttgart,70619,Germany,48.7823,9.177
442,Stuttgart,70599,Germany,48.701,9.2107
443,Stuttgart,70597,Germany,48.7823,9.177
444,Stuttgart,70569,Germany,48.7301,9.1097
445,Stuttgart,70567,Germany,48.7823,9.177
446,Stuttgart,70565,Germany,48.7301,9.1097
447,Stuttgart,70563,Germany,48.7301,9.1097
448,Düsseldorf,40213,Germany,51.220507741497,6.81216996826174
449,Düsseldorf,40597,Germany,51.220507741497,6.81216996826174
450,Düsseldorf,40599,Germany,51.220507741497,6.81216996826174
451,Düsseldorf,40591,Germany,51.220507741497,6.81216996826174
452,Düsseldorf,40593,Germany,51.220507741497,6.81216996826174
453,Düsseldorf,40595,Germany,51.220507741497,6.81216996826174
454,Düsseldorf,40549,Germany,51.220507741497,6.81216996826174
455,Düsseldorf,40589,Germany,51.220507741497,6.81216996826174
456,Düsseldorf,40545,Germany,51.220507741497,6.81216996826174
457,Düsseldorf,40547,Germany,51.220507741497,6.81216996826174
458,Düsseldorf,40625,Germany,51.220507741497,6.81216996826174
459,Düsseldorf,40627,Germany,51.220507741497,6.81216996826174
460,Düsseldorf,40629,Germany,51.220507741497,6.81216996826174
461,Düsseldorf,40721,Germany,51.16819,6.93640000000005
462,Düsseldorf,40489,Germany,51.220507741497,6.81216996826174
463,Düsseldorf,40476,Germany,51.220507741497,6.81216996826174
464,Düsseldorf,40477,Germany,51.220507741497,6.81216996826174
465,Düsseldorf,40479,Germany,51.220507741497,6.81216996826174
466,Düsseldorf,40470,Germany,51.220507741497,6.81216996826174
467,Düsseldorf,40472,Germany,51.220507741497,6.81216996826174
468,Düsseldorf,40474,Germany,51.220507741497,6.81216996826174
469,Düsseldorf,40468,Germany,51.220507741497,6.81216996826174
470,Düsseldorf,40233,Germany,51.220507741497,6.81216996826174
471,Düsseldorf,40235,Germany,51.220507741497,6.81216996826174
472,Düsseldorf,40237,Germany,51.220507741497,6.81216996826174
473,Düsseldorf,40239,Germany,51.220507741497,6.81216996826174
474,Düsseldorf,40231,Germany,51.220507741497,6.81216996826174
475,Düsseldorf,40223,Germany,51.220507741497,6.81216996826174
476,Düsseldorf,40225,Germany,51.220507741497,6.81216996826174
477,Düsseldorf,40227,Germany,51.220507741497,6.81216996826174
478,Düsseldorf,40229,Germany,51.220507741497,6.81216996826174
479,Düsseldorf,40221,Germany,51.220507741497,6.81216996826174
480,Düsseldorf,40219,Germany,51.220507741497,6.81216996826174
481,Düsseldorf,40212,Germany,51.220507741497,6.81216996826174
482,Düsseldorf,40211,Germany,51.220507741497,6.81216996826174
483,Düsseldorf,40215,Germany,51.220507741497,6.81216996826174
484,Düsseldorf,40217,Germany,51.220507741497,6.81216996826174
485,Düsseldorf,40210,Germany,51.220507741497,6.81216996826174
486,Leipzig,04109,Germany,51.3396,12.3713
487,Leipzig,04319,Germany,51.3396,12.3713
488,Leipzig,04318,Germany,51.3396,12.3713
489,Leipzig,04317,Germany,51.3396,12.3713
490,Leipzig,04316,Germany,51.3396,12.3713
491,Leipzig,04315,Germany,51.3396,12.3713
492,Leipzig,04329,Germany,51.3396,12.3713
493,Leipzig,04328,Germany,51.3396,12.3713
494,Leipzig,04357,Germany,51.3396,12.3713
495,Leipzig,04356,Germany,51.3396,12.3713
496,Leipzig,04349,Germany,51.3396,12.3713
497,Leipzig,04347,Germany,51.3396,12.3713
498,Leipzig,04277,Germany,51.3396,12.3713
499,Leipzig,04275,Germany,51.3396,12.3713
500,Leipzig,04279,Germany,51.3396,12.3713
501,Leipzig,04289,Germany,51.3396,12.3713
502,Leipzig,04288,Germany,51.3396,12.3713
503,Leipzig,04299,Germany,51.3396,12.3713
504,Leipzig,04209,Germany,51.3396,12.3713
505,Leipzig,04207,Germany,51.3396,12.3713
506,Leipzig,04205,Germany,51.3396,12.3713
507,Leipzig,04249,Germany,51.3396,12.3713
508,Leipzig,04229,Germany,51.3396,12.3713
509,Leipzig,04157,Germany,51.3396,12.3713
510,Leipzig,04155,Germany,51.3396,12.3713
511,Leipzig,04159,Germany,51.3396,12.3713
512,Leipzig,04158,Germany,51.3396,12.3713
513,Leipzig,04179,Germany,51.3396,12.3713
514,Leipzig,04178,Germany,51.3396,12.3713
515,Leipzig,04177,Germany,51.3396,12.3713
516,Leipzig,04129,Germany,51.3396,12.3713
517,Leipzig,04107,Germany,51.3396,12.3713
518,Leipzig,04105,Germany,51.3396,12.3713
519,Leipzig,04103,Germany,51.3396,12.3713
520,Dortmund,44135,Germany,51.504225397481,7.48365411122495
521,Dortmund,44143,Germany,51.504225397481,7.48365411122495
522,Dortmund,44145,Germany,51.504225397481,7.48365411122495
523,Dortmund,44141,Germany,51.504225397481,7.48365411122495
524,Dortmund,44147,Germany,51.504225397481,7.48365411122495
525,Dortmund,44149,Germany,51.504225397481,7.48365411122495
526,Dortmund,44139,Germany,51.504225397481,7.48365411122495
527,Dortmund,44137,Germany,51.504225397481,7.48365411122495
528,Dortmund,44263,Germany,51.504225397481,7.48365411122495
529,Dortmund,44265,Germany,51.504225397481,7.48365411122495
530,Dortmund,44267,Germany,51.504225397481,7.48365411122495
531,Dortmund,44269,Germany,51.504225397481,7.48365411122495
532,Dortmund,44287,Germany,51.504225397481,7.48365411122495
533,Dortmund,44289,Germany,51.504225397481,7.48365411122495
534,Dortmund,44227,Germany,51.504225397481,7.48365411122495
535,Dortmund,44229,Germany,51.504225397481,7.48365411122495
536,Dortmund,44225,Germany,51.504225397481,7.48365411122495
537,Dortmund,44388,Germany,51.504225397481,7.48365411122495
538,Dortmund,44379,Germany,51.504225397481,7.48365411122495
539,Dortmund,44369,Germany,51.504225397481,7.48365411122495
540,Dortmund,44319,Germany,51.504225397481,7.48365411122495
541,Dortmund,44309,Germany,51.504225397481,7.48365411122495
542,Dortmund,44359,Germany,51.504225397481,7.48365411122495
543,Dortmund,44357,Germany,51.504225397481,7.48365411122495
544,Dortmund,44339,Germany,51.504225397481,7.48365411122495
545,Dortmund,44328,Germany,51.504225397481,7.48365411122495
546,Dortmund,44329,Germany,51.504225397481,7.48365411122495
547,Essen,45121,Germany,51.4624880801468,7.00864483062742
548,Essen,45309,Germany,51.4624880801468,7.00864483062742
549,Essen,45307,Germany,51.4624880801468,7.00864483062742
550,Essen,45329,Germany,51.4624880801468,7.00864483062742
551,Essen,45326,Germany,51.4624880801468,7.00864483062742
552,Essen,45327,Germany,51.4624880801468,7.00864483062742
553,Essen,45359,Germany,51.4624880801468,7.00864483062742
554,Essen,45357,Germany,51.4624880801468,7.00864483062742
555,Essen,45355,Germany,51.4624880801468,7.00864483062742
556,Essen,45356,Germany,51.4624880801468,7.00864483062742
557,Essen,45259,Germany,51.4624880801468,7.00864483062742
558,Essen,45257,Germany,51.4624880801468,7.00864483062742
559,Essen,45279,Germany,51.4624880801468,7.00864483062742
560,Essen,45276,Germany,51.4624880801468,7.00864483062742
561,Essen,45277,Germany,51.4624880801468,7.00864483062742
562,Essen,45289,Germany,51.4624880801468,7.00864483062742
563,Essen,45219,Germany,51.4624880801468,7.00864483062742
564,Essen,45239,Germany,51.4624880801468,7.00864483062742
565,Essen,45141,Germany,51.4624880801468,7.00864483062742
566,Essen,45139,Germany,51.4624880801468,7.00864483062742
567,Essen,45138,Germany,51.4624880801468,7.00864483062742
568,Essen,45136,Germany,51.4624880801468,7.00864483062742
569,Essen,45133,Germany,51.4624880801468,7.00864483062742
570,Essen,45134,Germany,51.4624880801468,7.00864483062742
571,Essen,45131,Germany,51.4624880801468,7.00864483062742
572,Essen,45130,Germany,51.4624880801468,7.00864483062742
573,Essen,45128,Germany,51.4624880801468,7.00864483062742
574,Essen,45127,Germany,51.4624880801468,7.00864483062742
575,Essen,45149,Germany,51.4624880801468,7.00864483062742
576,Essen,45147,Germany,51.4624880801468,7.00864483062742
577,Essen,45144,Germany,51.4624880801468,7.00864483062742
578,Essen,45145,Germany,51.4624880801468,7.00864483062742
579,Essen,45143,Germany,51.4624880801468,7.00864483062742
580,Essen,49632,Germany,52.72192,7.93668000000002
581,Bremen,28195,Germany,53.07516,8.80777
582,Bremen,28325,Germany,53.07516,8.80777
583,Bremen,28327,Germany,53.07516,8.80777
584,Bremen,28329,Germany,53.07516,8.80777
585,Bremen,28355,Germany,53.07516,8.80777
586,Bremen,28357,Germany,53.07516,8.80777
587,Bremen,28359,Germany,53.07516,8.80777
588,Bremen,28307,Germany,53.07516,8.80777
589,Bremen,28309,Germany,53.07516,8.80777
590,Bremen,28259,Germany,53.07516,8.80777
591,Bremen,28277,Germany,53.07516,8.80777
592,Bremen,28279,Germany,53.07516,8.80777
593,Bremen,28201,Germany,53.07516,8.80777
594,Bremen,28203,Germany,53.07516,8.80777
595,Bremen,28205,Germany,53.07516,8.80777
596,Bremen,28207,Germany,53.07516,8.80777
597,Bremen,28209,Germany,53.07516,8.80777
598,Bremen,28211,Germany,53.07516,8.80777
599,Bremen,28213,Germany,53.07516,8.80777
600,Bremen,28215,Germany,53.07516,8.80777
601,Bremen,28217,Germany,53.07516,8.80777
602,Bremen,28219,Germany,53.07516,8.80777
603,Bremen,28237,Germany,53.07516,8.80777
604,Bremen,28239,Germany,53.07516,8.80777
605,Bremen,28197,Germany,53.07516,8.80777
606,Bremen,28199,Germany,53.07516,8.80777
607,Bremen,28717,Germany,53.07516,8.80777
608,Bremen,28719,Germany,53.07516,8.80777
609,Bremen,28777,Germany,53.07516,8.80777
610,Bremen,28779,Germany,53.07516,8.80777
611,Bremen,28755,Germany,53.07516,8.80777
612,Bremen,28757,Germany,53.07516,8.80777
613,Bremen,28759,Germany,53.07516,8.80777
614,Bremen,36419,Germany,50.7,9.96667
615,Dresden,01219,Germany,51.05,13.75
616,Dresden,01217,Germany,51.05,13.75
617,Dresden,01257,Germany,51.05,13.75
618,Dresden,01259,Germany,51.05,13.75
619,Dresden,01239,Germany,51.05,13.75
620,Dresden,01237,Germany,51.05,13.75
621,Dresden,01279,Germany,51.05,13.75
622,Dresden,01277,Germany,51.05,13.75
623,Dresden,01324,Germany,51.05,13.75
624,Dresden,01328,Germany,51.05,13.75
625,Dresden,01326,Germany,51.05,13.75
626,Dresden,01309,Germany,51.05,13.75
627,Dresden,01307,Germany,51.05,13.75
628,Dresden,01099,Germany,51.05,13.75
629,Dresden,01097,Germany,51.05,13.75
630,Dresden,01069,Germany,51.05,13.75
631,Dresden,01129,Germany,51.05,13.75
632,Dresden,01127,Germany,51.05,13.75
633,Dresden,01139,Germany,51.05,13.75
634,Dresden,01109,Germany,51.05,13.75
635,Dresden,01108,Germany,51.05,13.75
636,Dresden,01169,Germany,51.05,13.75
637,Dresden,01159,Germany,51.05,13.75
638,Dresden,01156,Germany,51.0882395539565,13.6393642425537
639,Dresden,01157,Germany,51.05,13.75
640,Dresden,01187,Germany,51.05,13.75
641,Dresden,01189,Germany,51.05,13.75
642,Hannover,30159,Germany,52.38447,9.72693000000004
643,Hannover,30167,Germany,52.38447,9.72693000000004
644,Hannover,30169,Germany,52.38447,9.72693000000004
645,Hannover,30163,Germany,52.38447,9.72693000000004
646,Hannover,30165,Germany,52.38447,9.72693000000004
647,Hannover,30161,Germany,52.38447,9.72693000000004
648,Hannover,30521,Germany,52.38447,9.72693000000004
649,Hannover,30519,Germany,52.38447,9.72693000000004
650,Hannover,30559,Germany,52.38447,9.72693000000004
651,Hannover,30539,Germany,52.38447,9.72693000000004
652,Hannover,30457,Germany,52.38447,9.72693000000004
653,Hannover,30459,Germany,52.38447,9.72693000000004
654,Hannover,30453,Germany,52.38447,9.72693000000004
655,Hannover,30455,Germany,52.38447,9.72693000000004
656,Hannover,30451,Germany,52.38447,9.72693000000004
657,Hannover,30449,Germany,52.38447,9.72693000000004
658,Hannover,30419,Germany,52.38447,9.72693000000004
659,Hannover,30179,Germany,52.38447,9.72693000000004
660,Hannover,30175,Germany,52.38447,9.72693000000004
661,Hannover,30177,Germany,52.38447,9.72693000000004
662,Hannover,30171,Germany,52.38447,9.72693000000004
663,Hannover,30173,Germany,52.38447,9.72693000000004
664,Hannover,30625,Germany,52.38447,9.72693000000004
665,Hannover,30627,Germany,52.38447,9.72693000000004
666,Hannover,30629,Germany,52.38447,9.72693000000004
667,Hannover,30669,Germany,52.38447,9.72693000000004
668,Hannover,30655,Germany,52.38447,9.72693000000004
669,Hannover,30657,Germany,52.38447,9.72693000000004
670,Hannover,30659,Germany,52.38447,9.72693000000004
671,Nürnberg,90403,Germany,49.4478,11.0683
672,Nürnberg,90439,Germany,49.4478,11.0683
673,Nürnberg,90443,Germany,49.4478,11.0683
674,Nürnberg,90441,Germany,49.4478,11.0683
675,Nürnberg,90449,Germany,49.4478,11.0683
676,Nürnberg,90455,Germany,49.4478,11.0683
677,Nürnberg,90453,Germany,49.4478,11.0683
678,Nürnberg,90459,Germany,49.4478,11.0683
679,Nürnberg,90451,Germany,49.4478,11.0683
680,Nürnberg,90469,Germany,49.4478,11.0683
681,Nürnberg,90461,Germany,49.4478,11.0683
682,Nürnberg,90475,Germany,49.4478,11.0683
683,Nürnberg,90478,Germany,49.4478,11.0683
684,Nürnberg,90473,Germany,49.4478,11.0683
685,Nürnberg,90471,Germany,49.4478,11.0683
686,Nürnberg,90402,Germany,49.4478,11.0683
687,Nürnberg,90408,Germany,49.4478,11.0683
688,Nürnberg,90409,Germany,49.4478,11.0683
689,Nürnberg,90411,Germany,49.4478,11.0683
690,Nürnberg,90419,Germany,49.4478,11.0683
691,Nürnberg,90425,Germany,49.4478,11.0683
692,Nürnberg,90429,Germany,49.4478,11.0683
693,Nürnberg,90427,Germany,49.4478,11.0683
694,Nürnberg,90431,Germany,49.4478,11.0683
695,Nürnberg,90489,Germany,49.4478,11.0683
696,Nürnberg,90480,Germany,49.4478,11.0683
697,Nürnberg,90482,Germany,49.4478,11.0683
698,Nürnberg,90491,Germany,49.4478,11.0683
699,Duisburg,47051,Germany,51.43511,6.76301000000001
700,Duisburg,47249,Germany,51.43511,6.76301000000001
701,Duisburg,47259,Germany,51.43511,6.76301000000001
702,Duisburg,47226,Germany,51.43511,6.76301000000001
703,Duisburg,47229,Germany,51.43511,6.76301000000001
704,Duisburg,47228,Germany,51.43511,6.76301000000001
705,Duisburg,47239,Germany,51.43511,6.76301000000001
706,Duisburg,47269,Germany,51.43511,6.76301000000001
707,Duisburg,47279,Germany,51.43511,6.76301000000001
708,Duisburg,47199,Germany,51.43511,6.76301000000001
709,Duisburg,47198,Germany,51.43511,6.76301000000001
710,Duisburg,47058,Germany,51.43511,6.76301000000001
711,Duisburg,47057,Germany,51.43511,6.76301000000001
712,Duisburg,47059,Germany,51.43511,6.76301000000001
713,Duisburg,47053,Germany,51.43511,6.76301000000001
714,Duisburg,47055,Germany,51.43511,6.76301000000001
715,Duisburg,47139,Germany,51.43511,6.76301000000001
716,Duisburg,47138,Germany,51.43511,6.76301000000001
717,Duisburg,47137,Germany,51.43511,6.76301000000001
718,Duisburg,47119,Germany,51.43511,6.76301000000001
719,Duisburg,47167,Germany,51.43511,6.76301000000001
720,Duisburg,47169,Germany,51.43511,6.76301000000001
721,Duisburg,47166,Germany,51.43511,6.76301000000001
722,Duisburg,47179,Germany,51.43511,6.76301000000001
723,Duisburg,47178,Germany,51.43511,6.76301000000001
724,Bochum,44787,Germany,51.46785,7.19654000000003
725,Bochum,44894,Germany,51.46785,7.19654000000003
726,Bochum,44892,Germany,51.46785,7.19654000000003
727,Bochum,44869,Germany,51.46785,7.19654000000003
728,Bochum,44866,Germany,51.46785,7.19654000000003
729,Bochum,44867,Germany,51.46785,7.19654000000003
730,Bochum,44879,Germany,51.46785,7.19654000000003
731,Bochum,44789,Germany,51.46785,7.19654000000003
732,Bochum,44799,Germany,51.46785,7.19654000000003
733,Bochum,44797,Germany,51.46785,7.19654000000003
734,Bochum,44795,Germany,51.46785,7.19654000000003
735,Bochum,44793,Germany,51.46785,7.19654000000003
736,Bochum,44791,Germany,51.46785,7.19654000000003
737,Bochum,44809,Germany,51.46785,7.19654000000003
738,Bochum,44807,Germany,51.46785,7.19654000000003
739,Bochum,44805,Germany,51.46785,7.19654000000003
740,Bochum,44803,Germany,51.46785,7.19654000000003
741,Bochum,44801,Germany,51.46785,7.19654000000003
742,Wuppertal,42275,Germany,51.26136,7.16302999999994
743,Wuppertal,42117,Germany,51.26136,7.16302999999994
744,Wuppertal,42119,Germany,51.26136,7.16302999999994
745,Wuppertal,42113,Germany,51.26136,7.16302999999994
746,Wuppertal,42115,Germany,51.26136,7.16302999999994
747,Wuppertal,42105,Germany,51.26136,7.16302999999994
748,Wuppertal,42107,Germany,51.26136,7.16302999999994
749,Wuppertal,42103,Germany,51.26136,7.16302999999994
750,Wuppertal,42109,Germany,51.26136,7.16302999999994
751,Wuppertal,42111,Germany,51.26136,7.16302999999994
752,Wuppertal,42369,Germany,51.2656124825536,7.18208545501716
753,Wuppertal,42349,Germany,51.26136,7.16302999999994
754,Wuppertal,42399,Germany,51.26136,7.16302999999994
755,Wuppertal,42389,Germany,51.26136,7.16302999999994
756,Wuppertal,42277,Germany,51.26136,7.16302999999994
757,Wuppertal,42279,Germany,51.36415,7.24662000000001
758,Wuppertal,42285,Germany,51.26136,7.16302999999994
759,Wuppertal,42287,Germany,51.26136,7.16302999999994
760,Wuppertal,42281,Germany,51.26136,7.16302999999994
761,Wuppertal,42283,Germany,51.26136,7.16302999999994
762,Wuppertal,42289,Germany,51.26136,7.16302999999994
763,Wuppertal,42327,Germany,51.26136,7.16302999999994
764,Wuppertal,42329,Germany,51.26136,7.16302999999994
765,Bielefeld,33602,Germany,52.02126,8.54576999999995
766,Bielefeld,33719,Germany,52.02126,8.54576999999995
767,Bielefeld,33729,Germany,52.02126,8.54576999999995
768,Bielefeld,33739,Germany,52.02126,8.54576999999995
769,Bielefeld,33689,Germany,52.02126,8.54576999999995
770,Bielefeld,33699,Germany,52.02126,8.54576999999995
771,Bielefeld,33605,Germany,52.02126,8.54576999999995
772,Bielefeld,33604,Germany,52.02126,8.54576999999995
773,Bielefeld,33607,Germany,52.02126,8.54576999999995
774,Bielefeld,33609,Germany,52.02126,8.54576999999995
775,Bielefeld,33615,Germany,52.02126,8.54576999999995
776,Bielefeld,33617,Germany,52.02126,8.54576999999995
777,Bielefeld,33611,Germany,52.02126,8.54576999999995
778,Bielefeld,33613,Germany,52.02126,8.54576999999995
779,Bielefeld,33619,Germany,52.02126,8.54576999999995
780,Bielefeld,33649,Germany,52.02126,8.54576999999995
781,Bielefeld,33647,Germany,52.02126,8.54576999999995
782,Bielefeld,33659,Germany,52.02126,8.54576999999995
783,Bonn,53111,Germany,50.7333,7.1
784,Bonn,53225,Germany,50.7333,7.1
785,Bonn,53227,Germany,50.7333,7.1
786,Bonn,53229,Germany,50.7333,7.1
787,Bonn,53179,Germany,50.7333,7.1
788,Bonn,53173,Germany,50.7333,7.1
789,Bonn,53175,Germany,50.7333,7.1
790,Bonn,53177,Germany,50.7333,7.1
791,Bonn,53125,Germany,50.7333,7.1
792,Bonn,53127,Germany,50.7333,7.1
793,Bonn,53129,Germany,50.7333,7.1
794,Bonn,53121,Germany,50.7333,7.1
795,Bonn,53123,Germany,50.7333,7.1
796,Bonn,53113,Germany,50.7333,7.1
797,Bonn,53115,Germany,50.7333,7.1
798,Bonn,53117,Germany,50.7333,7.1
799,Bonn,53119,Germany,50.7333,7.1
800,Münster,48143,Germany,51.95172,7.62522999999999
801,Münster,48167,Germany,51.95172,7.62522999999999
802,Münster,48153,Germany,51.95172,7.62522999999999
803,Münster,48151,Germany,51.95172,7.62522999999999
804,Münster,48147,Germany,51.95172,7.62522999999999
805,Münster,48145,Germany,51.95172,7.62522999999999
806,Münster,48149,Germany,51.95172,7.62522999999999
807,Münster,48161,Germany,51.95172,7.62522999999999
808,Münster,48165,Germany,51.95172,7.62522999999999
809,Münster,48163,Germany,51.95172,7.62522999999999
810,Münster,48157,Germany,51.95172,7.62522999999999
811,Münster,48155,Germany,51.95172,7.62522999999999
812,Münster,48159,Germany,51.95172,7.62522999999999
813,Münster,86692,Germany,48.6333,10.9
814,Münster,64839,Germany,49.9228,8.86778
815,Mannheim,68159,Germany,49.4883,8.46472
816,Mannheim,68199,Germany,49.4252778,8.53
817,Mannheim,68259,Germany,49.4883,8.46472
818,Mannheim,68219,Germany,49.4252778,8.53
819,Mannheim,68229,Germany,49.4883,8.46472
820,Mannheim,68239,Germany,49.4883,8.46472
821,Mannheim,68163,Germany,49.4883,8.46472
822,Mannheim,68161,Germany,49.4883,8.46472
823,Mannheim,68169,Germany,49.4883,8.46472
824,Mannheim,68167,Germany,49.4883,8.46472
825,Mannheim,68165,Germany,49.4883,8.46472
826,Mannheim,68309,Germany,49.4883,8.46472
827,Mannheim,68307,Germany,49.4883,8.46472
828,Mannheim,68305,Germany,49.4883,8.46472
829,Karlsruhe,76133,Germany,49.0047,8.38583
830,Karlsruhe,76199,Germany,49.0047,8.38583
831,Karlsruhe,76189,Germany,49.0047,8.38583
832,Karlsruhe,76185,Germany,49.0047,8.38583
833,Karlsruhe,76187,Germany,49.0047,8.38583
834,Karlsruhe,76139,Germany,49.0047,8.38583
835,Karlsruhe,76135,Germany,49.0047,8.38583
836,Karlsruhe,76137,Germany,49.0047,8.38583
837,Karlsruhe,76131,Germany,49.0047,8.38583
838,Karlsruhe,76149,Germany,49.0047,8.38583
839,Karlsruhe,76227,Germany,49.0047,8.38583
840,Karlsruhe,76228,Germany,49.0047,8.38583
841,Karlsruhe,76229,Germany,49.0111111,8.4963889
842,Karlsruhe,19322,Germany,52.955972554258,11.8442995071412
843,Augsburg,86150,Germany,48.3667,10.8833
844,Augsburg,86161,Germany,48.3667,10.8833
845,Augsburg,86165,Germany,48.3667,10.8833
846,Augsburg,86163,Germany,48.3667,10.8833
847,Augsburg,86169,Germany,48.3667,10.8833
848,Augsburg,86167,Germany,48.3667,10.8833
849,Augsburg,86154,Germany,48.3667,10.8833
850,Augsburg,86153,Germany,48.3667,10.8833
851,Augsburg,86152,Germany,48.3667,10.8833
852,Augsburg,86159,Germany,48.3667,10.8833
853,Augsburg,86157,Germany,48.3667,10.8833
854,Augsburg,86156,Germany,48.3667,10.8833
855,Augsburg,86199,Germany,48.3667,10.8833
856,Augsburg,86179,Germany,48.3667,10.8833
857,Wiesbaden,65183,Germany,50.0833,8.25
858,Wiesbaden,65207,Germany,50.0833,8.25
859,Wiesbaden,65203,Germany,50.0833,8.25
860,Wiesbaden,65205,Germany,50.0833,8.25
861,Wiesbaden,65201,Germany,50.0833,8.25
862,Wiesbaden,65191,Germany,50.0833,8.25
863,Wiesbaden,65193,Germany,50.0833,8.25
864,Wiesbaden,65189,Germany,50.0833,8.25
865,Wiesbaden,65185,Germany,50.0833,8.25
866,Wiesbaden,65187,Germany,50.0833,8.25
867,Wiesbaden,65199,Germany,50.0833,8.25
868,Wiesbaden,65195,Germany,50.0833,8.25
869,Wiesbaden,65197,Germany,50.0833,8.25
870,Mönchengladbach,41061,Germany,51.1801,6.44234000000006
871,Mönchengladbach,41169,Germany,51.206108,6.340897
872,Mönchengladbach,41179,Germany,51.1801,6.44234000000006
873,Mönchengladbach,41189,Germany,51.1801,6.44234000000006
874,Mönchengladbach,41199,Germany,51.2,6.43333
875,Mönchengladbach,41238,Germany,51.1801,6.44234000000006
876,Mönchengladbach,41236,Germany,51.1801,6.44234000000006
877,Mönchengladbach,41239,Germany,51.1801,6.44234000000006
878,Mönchengladbach,41065,Germany,51.1801,6.44234000000006
879,Mönchengladbach,41063,Germany,51.1801,6.44234000000006
880,Mönchengladbach,41069,Germany,51.1801,6.44234000000006
881,Mönchengladbach,41068,Germany,51.1801,6.44234000000006
882,Mönchengladbach,41066,Germany,51.2232252427128,6.47593641435537
883,Gelsenkirchen,45879,Germany,51.5175,7.08574999999996
884,Gelsenkirchen,45899,Germany,51.5175,7.08574999999996
885,Gelsenkirchen,45896,Germany,51.5175,7.08574999999996
886,Gelsenkirchen,45897,Germany,51.5175,7.08574999999996
887,Gelsenkirchen,45891,Germany,51.5175,7.08574999999996
888,Gelsenkirchen,45894,Germany,51.5175,7.08574999999996
889,Gelsenkirchen,45892,Germany,51.5175,7.08574999999996
890,Gelsenkirchen,45888,Germany,51.5175,7.08574999999996
891,Gelsenkirchen,45886,Germany,51.5175,7.08574999999996
892,Gelsenkirchen,45889,Germany,51.5175,7.08574999999996
893,Gelsenkirchen,45883,Germany,51.5175,7.08574999999996
894,Gelsenkirchen,45884,Germany,51.5175,7.08574999999996
895,Gelsenkirchen,45881,Germany,51.5175,7.08574999999996
896,Aachen,52058,Germany,50.7667,6.1
897,Aachen,52062,Germany,50.7667,6.1
898,Aachen,52064,Germany,50.7667,6.1
899,Aachen,52066,Germany,50.7667,6.1
900,Aachen,52068,Germany,50.7667,6.1
901,Aachen,52070,Germany,50.7667,6.1
902,Aachen,52072,Germany,50.7667,6.1
903,Aachen,52074,Germany,50.7667,6.1
904,Aachen,52076,Germany,50.7667,6.1
905,Aachen,52078,Germany,50.7667,6.1
906,Aachen,52080,Germany,50.7667,6.1
907,Braunschweig,38100,Germany,52.26902,10.5259599999999
908,Braunschweig,38110,Germany,52.26902,10.5259599999999
909,Braunschweig,38112,Germany,52.26902,10.5259599999999
910,Braunschweig,38114,Germany,52.26902,10.5259599999999
911,Braunschweig,38116,Germany,52.26902,10.5259599999999
912,Braunschweig,38118,Germany,52.26902,10.5259599999999
913,Braunschweig,38120,Germany,52.26902,10.5259599999999
914,Braunschweig,38122,Germany,52.26902,10.5259599999999
915,Braunschweig,38124,Germany,52.26902,10.5259599999999
916,Braunschweig,38126,Germany,52.26902,10.5259599999999
917,Braunschweig,38102,Germany,52.26902,10.5259599999999
918,Braunschweig,38104,Germany,52.26902,10.5259599999999
919,Braunschweig,38106,Germany,52.26902,10.5259599999999
920,Braunschweig,38108,Germany,52.26902,10.5259599999999
921,Kiel,24103,Germany,54.3226843669499,10.1358638465405
922,Kiel,24159,Germany,54.4168702366492,10.1695141702891
923,Kiel,24105,Germany,54.3226843669499,10.1358638465405
924,Kiel,24109,Germany,54.3163100635459,10.0489528983832
925,Kiel,24107,Germany,54.3402480875188,10.0444160610438
926,Kiel,24106,Germany,54.3554955280066,10.1351243466139
927,Kiel,24111,Germany,54.3226843669499,10.1358638465405
928,Kiel,24116,Germany,54.3226843669499,10.1358638465405
929,Kiel,24114,Germany,54.3226843669499,10.1358638465405
930,Kiel,24113,Germany,54.2645626120845,10.0659111648799
931,Kiel,24118,Germany,54.3226843669499,10.1358638465405
932,Kiel,24145,Germany,54.2621477409145,10.1496262609959
933,Kiel,24143,Germany,54.3226843669499,10.1358638465405
934,Kiel,24149,Germany,54.3226843669499,10.1358638465405
935,Kiel,24148,Germany,54.3226843669499,10.1358638465405
936,Kiel,24147,Germany,54.3226843669499,10.1358638465405
937,Kiel,24146,Germany,54.3226843669499,10.1358638465405
938,Chemnitz,09111,Germany,50.8333,12.9167
939,Chemnitz,09119,Germany,50.8333,12.9167
940,Chemnitz,09117,Germany,50.8333,12.9167
941,Chemnitz,09112,Germany,50.8333,12.9167
942,Chemnitz,09116,Germany,50.8333,12.9167
943,Chemnitz,09114,Germany,50.8333,12.9167
944,Chemnitz,09113,Germany,50.8333,12.9167
945,Chemnitz,09128,Germany,50.8333,12.9167
946,Chemnitz,09123,Germany,50.8333,12.9167
947,Chemnitz,09122,Germany,50.8333,12.9167
948,Chemnitz,09120,Germany,50.8333,12.9167
949,Chemnitz,09127,Germany,50.8333,12.9167
950,Chemnitz,09126,Germany,50.8333,12.9167
951,Chemnitz,09125,Germany,50.8333,12.9167
952,Chemnitz,09130,Germany,50.8333,12.9167
953,Chemnitz,09131,Germany,50.8333,12.9167
954,Magdeburg,39104,Germany,52.13196,11.62658
955,Magdeburg,39130,Germany,52.13196,11.62658
956,Magdeburg,39122,Germany,52.13196,11.62658
957,Magdeburg,39120,Germany,52.13196,11.62658
958,Magdeburg,39126,Germany,52.13196,11.62658
959,Magdeburg,39124,Germany,52.13196,11.62658
960,Magdeburg,39128,Germany,52.13196,11.62658
961,Magdeburg,39110,Germany,52.13196,11.62658
962,Magdeburg,39114,Germany,52.13196,11.62658
963,Magdeburg,39112,Germany,52.13196,11.62658
964,Magdeburg,39118,Germany,52.13196,11.62658
965,Magdeburg,39116,Germany,52.13196,11.62658
966,Magdeburg,39108,Germany,52.13196,11.62658
967,Magdeburg,39106,Germany,52.13196,11.62658
968,Krefeld,47798,Germany,51.3389572010443,6.58528489430751
969,Krefeld,47799,Germany,51.3389572010443,6.58528489430751
970,Krefeld,47829,Germany,51.3389572010443,6.58528489430751
971,Krefeld,47839,Germany,51.3389572010443,6.58528489430751
972,Krefeld,47809,Germany,51.3050710630849,6.60032777631841
973,Krefeld,47803,Germany,51.3389572010443,6.58528489430751
974,Krefeld,47802,Germany,51.3389572010443,6.58528489430751
975,Krefeld,47800,Germany,51.3389572010443,6.58528489430751
976,Krefeld,47807,Germany,51.3050710630849,6.60032777631841
977,Krefeld,47805,Germany,51.3050710630849,6.60032777631841
978,Krefeld,47804,Germany,51.3050710630849,6.60032777631841
979,Mainz,55116,Germany,50.0,8.27111
980,Mainz,55130,Germany,50.0,8.27111
981,Mainz,55131,Germany,50.0,8.27111
982,Mainz,55122,Germany,50.0,8.27111
983,Mainz,55124,Germany,50.0,8.27111
984,Mainz,55127,Germany,50.0,8.27111
985,Mainz,55126,Germany,50.0,8.27111
986,Mainz,55129,Germany,50.0,8.27111
987,Mainz,55128,Germany,50.0,8.27111
988,Mainz,55120,Germany,50.0,8.27111
989,Mainz,55118,Germany,50.0,8.27111
990,Erfurt,99084,Germany,50.9833,11.0333
991,Erfurt,99085,Germany,50.9833,11.0333
992,Erfurt,99086,Germany,50.9833,11.0333
993,Erfurt,99087,Germany,50.9833,11.0333
994,Erfurt,99089,Germany,50.9833,11.0333
995,Erfurt,99091,Germany,50.9833,11.0333
996,Erfurt,99092,Germany,50.9833,11.0333
997,Erfurt,99094,Germany,50.9833,11.0333
998,Erfurt,99096,Germany,50.9833,11.0333
999,Erfurt,99097,Germany,50.9833,11.0333
1000,Erfurt,99098,Germany,50.9833,11.0333
1001,Erfurt,99099,Germany,50.9833,11.0333
1002,Oberhausen,46045,Germany,51.4966333148967,6.85141620635989
1003,Oberhausen,76887,Germany,49.11,7.99
1004,Oberhausen,86697,Germany,48.7167,11.1
1005,Oberhausen,46047,Germany,51.4966333148967,6.85141620635989
1006,Oberhausen,46049,Germany,51.4966333148967,6.85141620635989
1007,Oberhausen,55585,Germany,49.8,7.81667
1008,Oberhausen,55606,Germany,49.85,7.48333
1009,Oberhausen,67822,Germany,49.7333,7.88333
1010,Oberhausen,46145,Germany,51.4966333148967,6.85141620635989
1011,Oberhausen,46147,Germany,51.4966333148967,6.85141620635989
1012,Oberhausen,46149,Germany,51.4966333148967,6.85141620635989
1013,Oberhausen,46117,Germany,51.4966333148967,6.85141620635989
1014,Oberhausen,46119,Germany,51.4966333148967,6.85141620635989
1015,Oberhausen,82386,Germany,47.7667,11.1667
1016,Rostock,18055,Germany,54.07529,12.17764
1017,Rostock,18059,Germany,53.9844,12.11161
1018,Rostock,18057,Germany,54.08369,12.10063
1019,Rostock,18069,Germany,54.10206,12.01595
1020,Rostock,18182,Germany,54.17642,12.23382
1021,Rostock,18147,Germany,54.11695,12.13897
1022,Rostock,18146,Germany,54.11695,12.13897
1023,Rostock,18106,Germany,54.11616,12.05916
1024,Rostock,18107,Germany,54.08369,12.10063
1025,Rostock,18109,Germany,54.08369,12.10063
1026,Rostock,18119,Germany,54.08369,12.10063
1027,Kassel,34117,Germany,51.316944,9.4925
1028,Kassel,34355,Germany,51.34984,9.59798999999998
1029,Kassel,34233,Germany,51.3778,9.54444
1030,Kassel,34132,Germany,51.316944,9.4925
1031,Kassel,34130,Germany,51.316944,9.4925
1032,Kassel,34131,Germany,51.316944,9.4925
1033,Kassel,34134,Germany,51.316944,9.4925
1034,Kassel,34127,Germany,51.316944,9.4925
1035,Kassel,34128,Germany,51.316944,9.4925
1036,Kassel,34121,Germany,51.316944,9.4925
1037,Kassel,34125,Germany,51.316944,9.4925
1038,Kassel,34123,Germany,51.316944,9.4925
1039,Kassel,34119,Germany,51.316944,9.4925
1040,Hagen,58095,Germany,51.3606,7.4785
1041,Hagen,27628,Germany,53.3164308079339,8.66941658203132
1042,Hagen,49170,Germany,52.19727,7.97757999999999
1043,Hagen,24576,Germany,53.8893855875667,9.78687602336885
1044,Hagen,58119,Germany,51.3606,7.4785
1045,Hagen,58091,Germany,51.3606,7.4785
1046,Hagen,58093,Germany,51.3606,7.4785
1047,Hagen,58097,Germany,51.3606,7.4785
1048,Hagen,58099,Germany,51.3606,7.4785
1049,Hagen,58089,Germany,51.3606,7.4785
1050,Hagen,58135,Germany,51.3606,7.4785
1051,Potsdam,14469,Germany,52.39384,13.07368
1052,Potsdam,14480,Germany,52.39384,13.07368
1053,Potsdam,14482,Germany,52.39384,13.07368
1054,Potsdam,14478,Germany,52.39384,13.07368
1055,Potsdam,14473,Germany,52.39384,13.07368
1056,Potsdam,14471,Germany,52.39384,13.07368
1057,Potsdam,14467,Germany,52.39384,13.07368
1058,Saarbrücken,66111,Germany,49.2333,7.0
1059,Saarbrücken,66115,Germany,49.2333,7.0
1060,Saarbrücken,66113,Germany,49.2333,7.0
1061,Saarbrücken,66119,Germany,49.2333,7.0
1062,Saarbrücken,66117,Germany,49.2333,7.0
1063,Saarbrücken,66121,Germany,49.2333,7.0
1064,Saarbrücken,66126,Germany,49.2333,7.0
1065,Saarbrücken,66125,Germany,49.2333,7.0
1066,Saarbrücken,66123,Germany,49.2333,7.0
1067,Saarbrücken,66129,Germany,49.2333,7.0
1068,Saarbrücken,66128,Germany,49.2333,7.0
1069,Saarbrücken,66127,Germany,49.2333,7.0
1070,Saarbrücken,66133,Germany,49.2333,7.0
1071,Saarbrücken,66132,Germany,49.2333,7.0
1072,Saarbrücken,66131,Germany,49.2333,7.0
1073,Saarbrücken,66130,Germany,49.2333,7.0
1074,Hamm,59065,Germany,51.67423,7.81597999999997
1075,Hamm,57577,Germany,50.5,7.5833333
1076,Hamm,67580,Germany,49.7294,8.43056
1077,Hamm,54636,Germany,49.9167,6.46667
1078,Hamm,59063,Germany,51.62989,7.85409000000004
1079,Hamm,59067,Germany,51.67423,7.81597999999997
1080,Hamm,59069,Germany,51.62989,7.85409000000004
1081,Hamm,59071,Germany,51.67423,7.81597999999997
1082,Hamm,59073,Germany,51.67423,7.81597999999997
1083,Hamm,59075,Germany,51.67423,7.81597999999997
1084,Hamm,59077,Germany,51.64015,7.75505999999996
1085,Osnabrück,49074,Germany,52.28201,8.04326000000003
1086,Osnabrück,49078,Germany,52.28201,8.04326000000003
1087,Osnabrück,49076,Germany,52.28201,8.04326000000003
1088,Osnabrück,49080,Germany,52.28201,8.04326000000003
1089,Osnabrück,49084,Germany,52.28201,8.04326000000003
1090,Osnabrück,49082,Germany,52.28201,8.04326000000003
1091,Osnabrück,49088,Germany,52.28201,8.04326000000003
1092,Osnabrück,49086,Germany,52.28201,8.04326000000003
1093,Osnabrück,49090,Germany,52.28201,8.04326000000003
1094,Leverkusen,51373,Germany,51.05,7.01667
1095,Leverkusen,51375,Germany,51.05,7.01667
1096,Leverkusen,51377,Germany,51.05,7.01667
1097,Leverkusen,51371,Germany,51.05,7.01667
1098,Leverkusen,51379,Germany,51.05,7.01667
1099,Leverkusen,51381,Germany,51.05,7.01667
1100,Darmstadt,64283,Germany,49.8706,8.64944
1101,Darmstadt,64289,Germany,49.8706,8.64944
1102,Darmstadt,64285,Germany,49.8706,8.64944
1103,Darmstadt,64287,Germany,49.8706,8.64944
1104,Darmstadt,64295,Germany,49.8706,8.64944
1105,Darmstadt,64297,Germany,49.8706,8.64944
1106,Darmstadt,64291,Germany,49.8706,8.64944
1107,Darmstadt,64293,Germany,49.8706,8.64944
1108,Heidelberg,69117,Germany,49.4077,8.6908
1109,Heidelberg,16928,Germany,53.15046,12.17707
1110,Heidelberg,69115,Germany,49.4077,8.6908
1111,Heidelberg,69118,Germany,49.4077,8.6908
1112,Heidelberg,69126,Germany,49.4077,8.6908
1113,Heidelberg,69124,Germany,49.4077,8.6908
1114,Heidelberg,69123,Germany,49.4077,8.6908
1115,Heidelberg,69121,Germany,49.4077,8.6908
1116,Heidelberg,69120,Germany,49.4077,8.6908
1117,Solingen,42651,Germany,51.17038,7.05448000000001
1118,Solingen,42653,Germany,51.17038,7.05448000000001
1119,Solingen,42657,Germany,51.17038,7.05448000000001
1120,Solingen,42655,Germany,51.17038,7.05448000000001
1121,Solingen,42659,Germany,51.17038,7.05448000000001
1122,Solingen,42697,Germany,51.17038,7.05448000000001
1123,Solingen,42699,Germany,51.17038,7.05448000000001
1124,Solingen,42719,Germany,51.17038,7.05448000000001
1125,Herne,44623,Germany,51.53717,7.20108000000005
1126,Herne,44628,Germany,51.53717,7.20108000000005
1127,Herne,44629,Germany,51.53717,7.20108000000005
1128,Herne,44627,Germany,51.53717,7.20108000000005
1129,Herne,44625,Germany,51.53717,7.20108000000005
1130,Herne,44649,Germany,51.53717,7.20108000000005
1131,Herne,44651,Germany,51.53717,7.20108000000005
1132,Herne,44652,Germany,51.53717,7.20108000000005
1133,Herne,44653,Germany,51.53717,7.20108000000005
1134,Regensburg,93019,Germany,49.015,12.0956
1135,Regensburg,93049,Germany,49.015,12.0956
1136,Regensburg,93047,Germany,49.015,12.0956
1137,Regensburg,93059,Germany,49.0333333,12.1166667
1138,Regensburg,93055,Germany,49.015,12.0956
1139,Regensburg,93057,Germany,49.0333333,12.1166667
1140,Regensburg,93051,Germany,49.015,12.0956
1141,Regensburg,93053,Germany,49.015,12.0956
1142,Neuss,41460,Germany,51.2038721294835,6.68800777252204
1143,Neuss,41472,Germany,51.2038721294835,6.68800777252204
1144,Neuss,41470,Germany,51.2038721294835,6.68800777252204
1145,Neuss,41462,Germany,51.2038721294835,6.68800777252204
1146,Neuss,41464,Germany,51.2038721294835,6.68800777252204
1147,Neuss,41469,Germany,51.2038721294835,6.68800777252204
1148,Neuss,41466,Germany,51.2038721294835,6.68800777252204
1149,Neuss,41468,Germany,51.2038721294835,6.68800777252204
1150,Paderborn,33104,Germany,51.71891,8.75752
1151,Paderborn,33098,Germany,51.71891,8.75752
1152,Paderborn,33154,Germany,51.6670460274789,8.60068664550784
1153,Paderborn,33161,Germany,51.8238093124293,8.65617980957029
1154,Paderborn,33106,Germany,51.71891,8.75752
1155,Paderborn,33100,Germany,51.71891,8.75752
1156,Paderborn,33102,Germany,51.71891,8.75752
1157,Ingolstadt,85049,Germany,48.7667,11.4333
1158,Ingolstadt,85051,Germany,48.7667,11.4333
1159,Ingolstadt,85057,Germany,48.7667,11.4333
1160,Ingolstadt,85053,Germany,48.7667,11.4333
1161,Ingolstadt,85055,Germany,48.7666667,11.4833333
1162,Fürth,90744,Germany,49.6508,8.78472
1163,Fürth,64658,Germany,49.6508,8.78472
1164,Fürth,90763,Germany,49.4667,10.9667
1165,Fürth,90762,Germany,49.4667,10.9667
1166,Fürth,90765,Germany,49.4667,10.9667
1167,Fürth,90766,Germany,49.4667,10.9667
1168,Fürth,90768,Germany,49.4667,10.9667
1169,Ulm,89073,Germany,48.4,10.0
1170,Ulm,89077,Germany,48.4,10.0
1171,Ulm,89079,Germany,48.4,10.0
1172,Ulm,89075,Germany,48.4,10.0
1173,Ulm,89081,Germany,48.4,10.0
1174,Würzburg,97070,Germany,49.7878,9.93611
1175,Würzburg,97072,Germany,49.7878,9.93611
1176,Würzburg,97074,Germany,49.7878,9.93611
1177,Würzburg,97076,Germany,49.7878,9.93611
1178,Würzburg,97078,Germany,49.7878,9.93611
1179,Würzburg,97084,Germany,49.7878,9.93611
1180,Würzburg,97080,Germany,49.7878,9.93611
1181,Würzburg,97082,Germany,49.7878,9.93611
1182,Heilbronn,74072,Germany,49.1403,9.22
1183,Heilbronn,74080,Germany,49.1403,9.22
1184,Heilbronn,74081,Germany,49.1403,9.22
1185,Heilbronn,74074,Germany,49.1403,9.22
1186,Heilbronn,74076,Germany,49.1403,9.22
1187,Heilbronn,74078,Germany,49.1403,9.22
1188,Pforzheim,75175,Germany,48.8833,8.7
1189,Pforzheim,75180,Germany,48.8833,8.7
1190,Pforzheim,75181,Germany,48.8833,8.7
1191,Pforzheim,75177,Germany,48.8833,8.7
1192,Pforzheim,75179,Germany,48.8833,8.7
1193,Pforzheim,75172,Germany,48.8833,8.7
1194,Pforzheim,75173,Germany,48.8833,8.7
1195,Wolfsburg,38440,Germany,52.43788,10.7663700000001
1196,Wolfsburg,38448,Germany,52.43788,10.7663700000001
1197,Wolfsburg,38446,Germany,52.43788,10.7663700000001
1198,Wolfsburg,38444,Germany,52.43788,10.7663700000001
1199,Wolfsburg,38442,Germany,52.43788,10.7663700000001
1200,Bottrop,46236,Germany,51.52904,6.94335000000001
1201,Bottrop,46240,Germany,51.52904,6.94335000000001
1202,Bottrop,46242,Germany,51.52904,6.94335000000001
1203,Bottrop,46244,Germany,51.52904,6.94335000000001
1204,Bottrop,46238,Germany,51.52904,6.94335000000001
1205,Göttingen,37083,Germany,51.53738,9.92923999999994
1206,Göttingen,37075,Germany,51.53738,9.92923999999994
1207,Göttingen,37073,Germany,51.53738,9.92923999999994
1208,Göttingen,37079,Germany,51.53738,9.92923999999994
1209,Göttingen,37077,Germany,51.53738,9.92923999999994
1210,Göttingen,37085,Germany,51.53738,9.92923999999994
1211,Göttingen,37081,Germany,51.53738,9.92923999999994
1212,Reutlingen,72764,Germany,48.4833,9.21667
1213,Reutlingen,72770,Germany,48.4833,9.21667
1214,Reutlingen,72760,Germany,48.4833,9.21667
1215,Reutlingen,72762,Germany,48.4833,9.21667
1216,Reutlingen,72768,Germany,48.4833,9.21667
1217,Reutlingen,72766,Germany,48.4833,9.21667
1218,Koblenz,56068,Germany,50.35,7.6
1219,Koblenz,56077,Germany,50.35,7.6
1220,Koblenz,56073,Germany,50.35,7.6
1221,Koblenz,56075,Germany,50.35,7.6
1222,Koblenz,56076,Germany,50.35,7.6
1223,Koblenz,56070,Germany,50.35,7.6
1224,Koblenz,56072,Germany,50.35,7.6
1225,Bremerhaven,27576,Germany,53.55017,8.58236999999997
1226,Bremerhaven,27580,Germany,53.55017,8.58236999999997
1227,Bremerhaven,27578,Germany,53.55017,8.58236999999997
1228,Bremerhaven,27574,Germany,53.55017,8.58236999999997
1229,Bremerhaven,27572,Germany,53.55017,8.58236999999997
1230,Bremerhaven,27570,Germany,53.55017,8.58236999999997
1231,Bremerhaven,27568,Germany,53.55017,8.58236999999997
1232,Remscheid,42853,Germany,51.1833,7.2
1233,Remscheid,42899,Germany,51.1833,7.2
1234,Remscheid,42897,Germany,51.1833,7.2
1235,Remscheid,42859,Germany,51.1833,7.2
1236,Remscheid,42857,Germany,51.1833,7.2
1237,Remscheid,42855,Germany,51.1833,7.2
1238,Bergisch Gladbach,51465,Germany,50.9833,7.13333
1239,Bergisch Gladbach,51469,Germany,50.9833,7.13333
1240,Bergisch Gladbach,51429,Germany,50.9833,7.13333
1241,Bergisch Gladbach,51427,Germany,50.9833,7.13333
1242,Recklinghausen,45657,Germany,51.5930736180821,7.20776373016361
1243,Recklinghausen,45665,Germany,51.5930736180821,7.20776373016361
1244,Recklinghausen,45663,Germany,51.5930736180821,7.20776373016361
1245,Recklinghausen,45661,Germany,51.5930736180821,7.20776373016361
1246,Recklinghausen,45659,Germany,51.5930736180821,7.20776373016361
1247,Trier,54290,Germany,49.75,6.63333
1248,Trier,54294,Germany,49.75,6.63333
1249,Trier,54295,Germany,49.75,6.63333
1250,Trier,54292,Germany,49.75,6.63333
1251,Trier,54293,Germany,49.75,6.63333
1252,Trier,54296,Germany,49.75,6.63333
1253,Jena,07743,Germany,50.9333,11.5833
1254,Jena,07747,Germany,50.9333,11.5833
1255,Jena,07749,Germany,50.9333,11.5833
1256,Jena,07745,Germany,50.9333,11.5833
1257,Moers,47441,Germany,51.4517651179909,6.64085903167722
1258,Moers,47445,Germany,51.4517651179909,6.64085903167722
1259,Moers,47443,Germany,51.4517651179909,6.64085903167722
1260,Moers,47447,Germany,51.4517651179909,6.64085903167722
1261,Salzgitter,38226,Germany,52.14978,10.33673
1262,Salzgitter,38239,Germany,52.14978,10.33673
1263,Salzgitter,38228,Germany,52.14978,10.33673
1264,Salzgitter,38229,Germany,52.14978,10.33673
1265,Salzgitter,38259,Germany,52.14978,10.33673
1266,Siegen,57072,Germany,50.8667,8.03333
1267,Siegen,57078,Germany,50.8667,8.03333
1268,Siegen,57076,Germany,50.8667,8.03333
1269,Siegen,57074,Germany,50.8667,8.03333
1270,Siegen,57080,Germany,50.8667,8.03333
1271,Gütersloh,33330,Germany,51.90351,8.38571999999999
1272,Gütersloh,33335,Germany,51.90351,8.38571999999999
1273,Gütersloh,33334,Germany,51.90351,8.38571999999999
1274,Gütersloh,33332,Germany,51.90351,8.38571999999999
1275,Hildesheim,31134,Germany,52.14135,9.96602000000007
1276,Hildesheim,31141,Germany,52.14135,9.96602000000007
1277,Hildesheim,31137,Germany,52.14135,9.96602000000007
1278,Hildesheim,31135,Germany,52.14135,9.96602000000007
1279,Hildesheim,31139,Germany,52.14135,9.96602000000007
1280,Kaiserslautern,67657,Germany,49.45,7.75
1281,Kaiserslautern,67659,Germany,49.45,7.75
1282,Kaiserslautern,67655,Germany,49.45,7.75
1283,Kaiserslautern,67661,Germany,49.387295,7.700911
1284,Kaiserslautern,67663,Germany,49.45,7.75
1285,Hanau,63450,Germany,50.1333,8.91667
1286,Hanau,63457,Germany,50.1333,8.91667
1287,Hanau,63452,Germany,50.1333,8.91667
1288,Hanau,63454,Germany,50.1333,8.91667
1289,Hanau,63456,Germany,50.1333,8.91667
1290,Schwerin,19053,Germany,53.63281,11.41422
1291,Schwerin,15859,Germany,52.2238,13.8964
1292,Schwerin,15755,Germany,52.1326,13.6175
1293,Schwerin,19063,Germany,53.60716,11.46771
1294,Schwerin,19061,Germany,53.60716,11.46771
1295,Schwerin,19059,Germany,53.63281,11.41422
1296,Schwerin,19057,Germany,53.63281,11.41422
1297,Schwerin,19055,Germany,53.63281,11.41422
1298,Witten,58452,Germany,51.4181009105116,7.28084453399651
1299,Witten,58454,Germany,51.46789,7.36652000000004
1300,Witten,58453,Germany,51.4503394443128,7.40298160369866
1301,Witten,58456,Germany,51.4181009105116,7.28084453399651
1302,Witten,58455,Germany,51.44026,7.30673999999999
1303,Ludwigsburg,71638,Germany,48.9,9.18333
1304,Ludwigsburg,17291,Germany,53.34133,14.08544
1305,Ludwigsburg,71636,Germany,48.9,9.18333
1306,Ludwigsburg,71634,Germany,48.9,9.18333
1307,Ludwigsburg,71640,Germany,48.9,9.18333
1308,Ludwigsburg,71642,Germany,48.9,9.18333
1309,Tübingen,72070,Germany,48.5333,9.05
1310,Tübingen,72072,Germany,48.5333,9.05
1311,Tübingen,72074,Germany,48.5333,9.05
1312,Tübingen,72076,Germany,48.5333,9.05
1313,Iserlohn,58636,Germany,51.3733710945102,7.67429370880132
1314,Iserlohn,58644,Germany,51.3733710945102,7.67429370880132
1315,Iserlohn,58642,Germany,51.3733710945102,7.67429370880132
1316,Iserlohn,58640,Germany,51.3733710945102,7.67429370880132
1317,Iserlohn,58638,Germany,51.3733710945102,7.67429370880132
1318,Düren,52349,Germany,50.8,6.48333
1319,Düren,52351,Germany,50.8,6.48333
1320,Düren,52353,Germany,50.8,6.48333
1321,Düren,52355,Germany,50.8,6.48333
1322,Gera,07545,Germany,50.8667,12.0833
1323,Gera,07554,Germany,50.95,12.2
1324,Gera,07557,Germany,50.8167,11.9667
1325,Gera,07551,Germany,50.8667,12.0833
1326,Gera,07552,Germany,50.8667,12.0833
1327,Gera,07546,Germany,50.8667,12.0833
1328,Gera,07548,Germany,50.8667,12.0833
1329,Gera,07549,Germany,50.8667,12.0833
1330,Gießen,35390,Germany,50.5833,8.65
1331,Gießen,35392,Germany,50.5833,8.65
1332,Gießen,35394,Germany,50.5833,8.65
1333,Gießen,35396,Germany,50.5833,8.65
1334,Gießen,35398,Germany,50.5833,8.65
1335,Flensburg,24937,Germany,54.77148,9.40625
1336,Flensburg,24943,Germany,54.7650937115,9.4772163039
1337,Flensburg,24944,Germany,54.80992,9.46094
1338,Flensburg,24941,Germany,54.7433859239,9.38503158147
1339,Flensburg,24939,Germany,54.81037,9.42185
1340,Zwickau,08056,Germany,50.7333,12.5
1341,Zwickau,08058,Germany,50.7333,12.5
1342,Zwickau,08066,Germany,50.7333,12.5
1343,Zwickau,08060,Germany,50.7333,12.5
1344,Zwickau,08064,Germany,50.7333,12.5
1345,Zwickau,08062,Germany,50.7333,12.5
1346,Villingen-Schwenningen,78050,Germany,48.0667,8.45
1347,Villingen-Schwenningen,78048,Germany,48.0667,8.45
1348,Villingen-Schwenningen,78052,Germany,48.0667,8.45
1349,Villingen-Schwenningen,78054,Germany,48.0667,8.45
1350,Villingen-Schwenningen,78056,Germany,48.0667,8.45
1351,Ratingen,40878,Germany,51.2965653110169,6.84012947082522
1352,Ratingen,40880,Germany,51.2965653110169,6.84012947082522
1353,Ratingen,40885,Germany,51.2965653110169,6.84012947082522
1354,Ratingen,40883,Germany,51.2965653110169,6.84012947082522
1355,Ratingen,40882,Germany,51.2965653110169,6.84012947082522
1356,Lünen,44532,Germany,51.6106297597209,7.52842451324466
1357,Lünen,44536,Germany,51.6106297597209,7.52842451324466
1358,Lünen,44534,Germany,51.6106297597209,7.52842451324466
1359,Konstanz,78462,Germany,47.6603,9.1758
1360,Konstanz,78464,Germany,47.6603,9.1758
1361,Konstanz,78467,Germany,47.6603,9.1758
1362,Konstanz,78465,Germany,47.6603,9.1758
1363,Worms,67547,Germany,49.6356,8.35972
1364,Worms,67551,Germany,49.6356,8.35972
1365,Worms,67550,Germany,49.6356,8.35972
1366,Worms,67549,Germany,49.6356,8.35972
1367,Marl,45772,Germany,51.65911,7.10642000000007
1368,Marl,45770,Germany,51.65911,7.10642000000007
1369,Marl,45768,Germany,51.65911,7.10642000000007
1370,Marl,49448,Germany,52.46308,8.39467999999999
1371,Minden,32423,Germany,52.29666,8.89322000000004
1372,Minden,54310,Germany,49.8167,6.5
1373,Minden,32429,Germany,52.29666,8.89322000000004
1374,Minden,32427,Germany,52.29666,8.89322000000004
1375,Minden,32425,Germany,52.29666,8.89322000000004
1376,Velbert,42551,Germany,51.3405829,7.0475515
1377,Velbert,42555,Germany,51.3528048,7.1233017
1378,Velbert,42553,Germany,51.3098033,7.0878942
1379,Velbert,42549,Germany,51.3405829,7.0475515
1380,Norderstedt,22846,Germany,53.67359,9.9857
1381,Norderstedt,22851,Germany,53.67359,9.9857
1382,Norderstedt,22850,Germany,53.67359,9.9857
1383,Norderstedt,22848,Germany,53.67359,9.9857
1384,Norderstedt,22844,Germany,53.67359,9.9857
1385,Neumünster,24534,Germany,54.07402,9.984512
1386,Neumünster,24539,Germany,54.07402,9.984512
1387,Neumünster,24537,Germany,54.07402,9.984512
1388,Neumünster,24536,Germany,54.07402,9.984512
1389,Bamberg,96031,Germany,49.894263,10.88555
1390,Bamberg,96049,Germany,49.894263,10.88555
1391,Bamberg,96047,Germany,49.894263,10.88555
1392,Bamberg,96052,Germany,49.894263,10.88555
1393,Bamberg,96050,Germany,49.894263,10.88555
1394,Viersen,41747,Germany,51.25552,6.39652999999998
1395,Viersen,41751,Germany,51.25552,6.39652999999998
1396,Viersen,41748,Germany,51.25552,6.39652999999998
1397,Viersen,41749,Germany,51.25552,6.39652999999998
1398,Delmenhorst,27749,Germany,53.05227,8.63375999999994
1399,Delmenhorst,27755,Germany,53.05227,8.63375999999994
1400,Delmenhorst,27751,Germany,53.05227,8.63375999999994
1401,Delmenhorst,27753,Germany,53.05227,8.63375999999994
1402,Rheine,48431,Germany,52.28161,7.44484999999997
1403,Rheine,48429,Germany,52.28161,7.44484999999997
1404,Rheine,48432,Germany,52.28161,7.44484999999997
1405,Marburg,35037,Germany,50.8167,8.76667
1406,Marburg,35039,Germany,50.8167,8.76667
1407,Marburg,35043,Germany,50.8167,8.76667
1408,Marburg,35041,Germany,50.8167,8.76667
1409,Lüneburg,21335,Germany,53.24682,10.41178
1410,Lüneburg,21391,Germany,53.2499358066863,10.3497210502625
1411,Lüneburg,21339,Germany,53.24682,10.41178
1412,Lüneburg,21337,Germany,53.24682,10.41178
1413,Gladbeck,45964,Germany,51.57041,6.98602000000005
1414,Gladbeck,45966,Germany,51.57041,6.98602000000005
1415,Gladbeck,45968,Germany,51.57041,6.98602000000005
1416,Troisdorf,53840,Germany,50.8167,7.16667
1417,Troisdorf,53842,Germany,50.8167,7.16667
1418,Troisdorf,53844,Germany,50.8167,7.16667
1419,Wilhelmshaven,26382,Germany,53.53112,8.10604999999998
1420,Wilhelmshaven,26388,Germany,53.53112,8.10604999999998
1421,Wilhelmshaven,26389,Germany,53.53112,8.10604999999998
1422,Wilhelmshaven,26384,Germany,53.53112,8.10604999999998
1423,Wilhelmshaven,26386,Germany,53.53112,8.10604999999998
1424,Dorsten,46284,Germany,51.66687,6.96591999999998
1425,Dorsten,46286,Germany,51.66687,6.96591999999998
1426,Dorsten,46282,Germany,51.66687,6.96591999999998
1427,Detmold,32756,Germany,51.93842,8.86860000000001
1428,Detmold,32760,Germany,51.93842,8.86860000000001
1429,Detmold,32758,Germany,51.93842,8.86860000000001
1430,Bayreuth,95410,Germany,49.9481,11.5783
1431,Bayreuth,95448,Germany,49.9481,11.5783
1432,Bayreuth,95447,Germany,49.9481,11.5783
1433,Bayreuth,95445,Germany,49.9481,11.5783
1434,Bayreuth,95444,Germany,49.9481,11.5783
1435,Arnsberg,59759,Germany,51.40704,8.05282
1436,Arnsberg,59757,Germany,51.40704,8.05282
1437,Arnsberg,59755,Germany,51.40704,8.05282
1438,Arnsberg,59823,Germany,51.40704,8.05282
1439,Arnsberg,59821,Germany,51.40704,8.05282
1440,Landshut,84028,Germany,48.5361,12.1518
1441,Landshut,84036,Germany,48.5361,12.1518
1442,Landshut,84030,Germany,48.5361,12.1518
1443,Landshut,84032,Germany,48.5549,12.1084
1444,Landshut,84034,Germany,48.5361,12.1518
1445,Castrop-Rauxel,44575,Germany,51.56297,7.31496000000004
1446,Castrop-Rauxel,44577,Germany,51.56297,7.31496000000004
1447,Castrop-Rauxel,44579,Germany,51.56297,7.31496000000004
1448,Castrop-Rauxel,44581,Germany,51.56297,7.31496000000004
1449,Aschaffenburg,63701,Germany,49.9739,9.14917
1450,Aschaffenburg,63739,Germany,49.9739,9.14917
1451,Aschaffenburg,63743,Germany,49.9739,9.14917
1452,Aschaffenburg,63741,Germany,49.9739,9.14917
1453,Lüdenscheid,58507,Germany,51.21881,7.63066000000003
1454,Lüdenscheid,58509,Germany,51.21881,7.63066000000003
1455,Lüdenscheid,58515,Germany,51.21881,7.63066000000003
1456,Lüdenscheid,58511,Germany,51.21881,7.63066000000003
1457,Lüdenscheid,58513,Germany,51.21881,7.63066000000003
1458,Bocholt,46395,Germany,51.83819,6.61514
1459,Bocholt,46399,Germany,51.83819,6.61514
1460,Bocholt,46397,Germany,51.83819,6.61514
1461,Celle,29221,Germany,52.61709,10.0635
1462,Celle,29223,Germany,52.61709,10.0635
1463,Celle,29225,Germany,52.61709,10.0635
1464,Celle,29227,Germany,52.61709,10.0635
1465,Celle,29229,Germany,52.6929,10.0216
1466,Fulda,36037,Germany,50.55,9.66667
1467,Fulda,36039,Germany,50.55,9.66667
1468,Fulda,36043,Germany,50.55,9.66667
1469,Fulda,36041,Germany,50.55,9.66667
1470,Aalen,73430,Germany,48.8333,10.1
1471,Aalen,73433,Germany,48.8333,10.1
1472,Aalen,73432,Germany,48.8333,10.1
1473,Aalen,73431,Germany,48.8333,10.1
1474,Aalen,73434,Germany,48.8333,10.1
1475,Lippstadt,59555,Germany,51.67176,8.34129000000007
1476,Lippstadt,59558,Germany,51.67176,8.34129000000007
1477,Lippstadt,59557,Germany,51.67176,8.34129000000007
1478,Lippstadt,59556,Germany,51.67176,8.34129000000007
1479,Dinslaken,46535,Germany,51.56762,6.74745000000007
1480,Dinslaken,46539,Germany,51.56762,6.74745000000007
1481,Dinslaken,46537,Germany,51.56762,6.74745000000007
1482,Herford,32052,Germany,52.11783,8.67957999999999
1483,Herford,32049,Germany,52.11783,8.67957999999999
1484,Herford,32051,Germany,52.11783,8.67957999999999
1485,Kerpen,50171,Germany,50.8667,6.7
1486,Kerpen,50169,Germany,50.8667,6.7
1487,Kerpen,50170,Germany,50.8667,6.7
1488,Kerpen,54578,Germany,50.2833,6.76667
1489,Weimar,99423,Germany,50.9833,11.3167
1490,Weimar,99425,Germany,50.9833,11.3167
1491,Weimar,99427,Germany,50.9833,11.3167
1492,Weimar,35096,Germany,50.7542,8.69583
1493,Neuwied,56564,Germany,50.4333,7.46667
1494,Neuwied,56567,Germany,50.4333,7.46667
1495,Neuwied,56566,Germany,50.4333,7.46667
1496,Dormagen,41539,Germany,51.094444444444,6.841666666666
1497,Dormagen,41542,Germany,51.094444444444,6.841666666666
1498,Dormagen,41541,Germany,51.094444444444,6.841666666666
1499,Dormagen,41540,Germany,51.094444444444,6.841666666666
1500,Sindelfingen,71063,Germany,48.7,9.01667
1501,Sindelfingen,71065,Germany,48.7,9.01667
1502,Sindelfingen,71067,Germany,48.7,9.01667
1503,Sindelfingen,71069,Germany,48.7,9.01667
1504,Grevenbroich,41515,Germany,51.0833,6.58333
1505,Grevenbroich,41516,Germany,51.0833,6.58333
1506,Grevenbroich,41517,Germany,51.0833,6.58333
1507,Rosenheim,83013,Germany,47.85,12.1333
1508,Rosenheim,83026,Germany,47.85,12.1333
1509,Rosenheim,83024,Germany,47.85,12.1333
1510,Rosenheim,83022,Germany,47.85,12.1333
1511,Rosenheim,57520,Germany,50.7333,7.85
1512,Plauen,08523,Germany,50.5,12.1333
1513,Plauen,08525,Germany,50.5,12.1333
1514,Plauen,08527,Germany,50.5,12.1333
1515,Plauen,08529,Germany,50.5,12.1333
1516,Neubrandenburg,17033,Germany,53.5503852720596,13.2232696716309
1517,Neubrandenburg,17034,Germany,53.56603,13.26944
1518,Neubrandenburg,17036,Germany,53.56603,13.26944
1519,Herten,45699,Germany,51.60154,7.14029000000005
1520,Herten,45701,Germany,51.60154,7.14029000000005
1521,Bergheim,50126,Germany,50.9667,6.65
1522,Bergheim,86673,Germany,48.7667,11.2667
1523,Bergheim,50129,Germany,50.9667,6.65
1524,Bergheim,50127,Germany,50.9667,6.65
1525,Friedrichshafen,88045,Germany,47.65,9.48333
1526,Friedrichshafen,88048,Germany,47.65,9.48333
1527,Friedrichshafen,88046,Germany,47.65,9.48333
1528,Schwäbisch Gmünd,73525,Germany,48.8,9.78333
1529,Schwäbisch Gmünd,73529,Germany,48.8,9.78333
1530,Schwäbisch Gmünd,73527,Germany,48.8,9.78333
1531,Offenburg,77652,Germany,48.4833,7.93333
1532,Offenburg,77654,Germany,48.4833,7.93333
1533,Offenburg,77656,Germany,48.4833,7.93333
1534,Garbsen,30823,Germany,52.43648,9.60527999999999
1535,Garbsen,30826,Germany,52.43648,9.60527999999999
1536,Garbsen,30827,Germany,52.43648,9.60527999999999
1537,Wesel,46483,Germany,51.6643340981607,6.62966037567139
1538,Wesel,46485,Germany,51.6643340981607,6.62966037567139
1539,Wesel,46487,Germany,51.6643340981607,6.62966037567139
1540,Hürth,50354,Germany,50.8667,6.86667
1541,Neu-Ulm,89210,Germany,48.4,10.0167
1542,Neu-Ulm,89233,Germany,48.4,10.0167
1543,Neu-Ulm,89231,Germany,48.4,10.0167
1544,Greifswald,17489,Germany,54.0888132703675,13.3944205793762
1545,Greifswald,17491,Germany,54.0888132703675,13.3944205793762
1546,Greifswald,17493,Germany,54.0888132703675,13.3944205793762
1547,Stralsund,18439,Germany,54.267733,13.080098
1548,Stralsund,18437,Germany,54.2928935,13.0146056
1549,Stralsund,18435,Germany,54.333625,13.076427
1550,Unna,59423,Germany,51.54257,7.68533000000002
1551,Unna,59425,Germany,51.54257,7.68533000000002
1552,Unna,59427,Germany,51.54257,7.68533000000002
1553,Euskirchen,53879,Germany,50.6667,6.78333
1554,Euskirchen,53881,Germany,50.6667,6.78333
1555,Göppingen,73033,Germany,48.7,9.66667
1556,Göppingen,73035,Germany,48.7,9.66667
1557,Göppingen,73037,Germany,48.7,9.66667
1558,Hameln,31785,Germany,52.10887,9.36589000000004
1559,Hameln,31787,Germany,52.10887,9.36589000000004
1560,Hameln,31789,Germany,52.10887,9.36589000000004
1561,Meerbusch,40670,Germany,51.2505139003074,6.69065967742927
1562,Meerbusch,40667,Germany,51.2505139003074,6.69065967742927
1563,Meerbusch,40668,Germany,51.2505139003074,6.69065967742927
1564,Eschweiler,52249,Germany,50.8167,6.28333
1565,Sankt Augustin,53757,Germany,50.7667,7.18333
1566,Baden-Baden,76530,Germany,48.75,8.25
1567,Baden-Baden,76532,Germany,48.75,8.25
1568,Baden-Baden,76534,Germany,48.75,8.25
1569,Waiblingen,71332,Germany,48.8333,9.3
1570,Waiblingen,71336,Germany,48.8333,9.3
1571,Waiblingen,71334,Germany,48.8333,9.3
1572,Görlitz,02826,Germany,51.15268,14.97056
1573,Görlitz,02828,Germany,51.15268,14.97056
1574,Görlitz,02827,Germany,51.15268,14.97056
1575,Hilden,40724,Germany,51.16819,6.93640000000005
1576,Hilden,40723,Germany,51.16819,6.93640000000005
1577,Pulheim,50259,Germany,51.0,6.8
1578,Langenhagen,30853,Germany,52.4480121821382,9.74497890472412
1579,Langenhagen,30851,Germany,52.4480121821382,9.74497890472412
1580,Langenhagen,30855,Germany,52.4480121821382,9.74497890472412
1581,Langenhagen,19399,Germany,53.5680617546966,11.961674894104
1582,Nordhorn,48529,Germany,52.43002,7.06858999999997
1583,Nordhorn,48527,Germany,52.43002,7.06858999999997
1584,Nordhorn,48531,Germany,52.43002,7.06858999999997
1585,Bad Salzuflen,32105,Germany,52.07684,8.75292999999999
1586,Bad Salzuflen,32107,Germany,52.07684,8.75292999999999
1587,Bad Salzuflen,32108,Germany,52.07684,8.75292999999999
1588,Hattingen,45525,Germany,51.40209,7.19121999999993
1589,Hattingen,45527,Germany,51.40209,7.19121999999993
1590,Hattingen,45529,Germany,51.40209,7.19121999999993
1591,Schweinfurt,97420,Germany,50.05,10.2333
1592,Schweinfurt,97422,Germany,50.05,10.2333
1593,Schweinfurt,97421,Germany,50.05,10.2333
1594,Schweinfurt,97424,Germany,50.05,10.2333
1595,Passau,94030,Germany,48.5712,13.449
1596,Passau,94036,Germany,48.5712,13.449
1597,Passau,94034,Germany,48.5712,13.449
1598,Passau,94032,Germany,48.5712,13.449
1599,Wetzlar,35578,Germany,50.55,8.5
1600,Wetzlar,35579,Germany,50.55,8.5
1601,Wetzlar,35576,Germany,50.55,8.5
1602,Wetzlar,35586,Germany,50.55,8.5
1603,Wetzlar,35585,Germany,50.55,8.5
1604,Wetzlar,35584,Germany,50.55,8.5
1605,Wetzlar,35583,Germany,50.55,8.5
1606,Wetzlar,35582,Germany,50.55,8.5
1607,Wetzlar,35581,Germany,50.55,8.5
1608,Wetzlar,35580,Germany,50.55,8.5
1609,Ahlen,59227,Germany,51.75972,7.89693999999997
1610,Ahlen,59229,Germany,51.75972,7.89693999999997
1611,Kleve,47533,Germany,51.78708,6.13013999999998
1612,Kleve,25554,Germany,53.93769,9.423966
1613,Kleve,25779,Germany,54.24454,9.14641
1614,Frechen,50226,Germany,50.9167,6.81667
1615,Wolfenbüttel,38300,Germany,52.1641770399212,10.5403770846558
1616,Wolfenbüttel,38304,Germany,52.1641770399212,10.5403770846558
1617,Wolfenbüttel,38302,Germany,52.1641770399212,10.5403770846558
1618,Ibbenbüren,49477,Germany,52.27985,7.72014999999999
1619,Ibbenbüren,49479,Germany,52.27985,7.72014999999999
1620,Bad Kreuznach,55545,Germany,49.8333,7.86667
1621,Bad Kreuznach,55543,Germany,49.8333,7.86667
1622,Gummersbach,51643,Germany,51.0333,7.55
1623,Gummersbach,51647,Germany,51.0333,7.55
1624,Gummersbach,51645,Germany,51.0333,7.55
1625,Ravensburg,88212,Germany,47.7833,9.61667
1626,Ravensburg,88213,Germany,47.7833,9.61667
1627,Ravensburg,88214,Germany,47.7833,9.61667
1628,Speyer,67346,Germany,49.3297,8.42778
1629,Böblingen,71032,Germany,48.6851,9.00954
1630,Böblingen,71034,Germany,48.6851,9.00954
1631,Peine,31224,Germany,52.3203686955316,10.2434337619018
1632,Peine,31228,Germany,52.3203686955316,10.2434337619018
1633,Peine,31226,Germany,52.3203686955316,10.2434337619018
1634,Rastatt,76437,Germany,48.85,8.2
1635,Elmshorn,25335,Germany,53.7552973008561,9.65623957259651
1636,Elmshorn,25337,Germany,53.7552973008561,9.65623957259651
1637,Elmshorn,25336,Germany,53.7552973008561,9.65623957259651
1638,Willich,47877,Germany,51.2601699,6.5142186
1639,Goslar,38640,Germany,51.90839,10.4468091534424
1640,Goslar,38642,Germany,51.90839,10.4468091534424
1641,Goslar,38644,Germany,51.90839,10.4468091534424
1642,Erftstadt,50374,Germany,50.8167,6.76667
1643,Emden,26721,Germany,53.36034,7.20492000000002
1644,Emden,26723,Germany,53.36034,7.20492000000002
1645,Emden,26725,Germany,53.36034,7.20492000000002
1646,Emden,39343,Germany,52.28781,11.32401
1647,Lörrach,79539,Germany,47.6167,7.66667
1648,Lörrach,79541,Germany,47.6167,7.66667
1649,Lörrach,79540,Germany,47.6167,7.66667
1650,Leonberg,71229,Germany,48.8,9.01667
1651,Leonberg,95666,Germany,49.9486,12.2383
1652,Bad Oeynhausen,32545,Germany,52.20921,8.80086000000006
1653,Bad Oeynhausen,32549,Germany,52.20921,8.80086000000006
1654,Bad Oeynhausen,32547,Germany,52.20921,8.80086000000006
1655,Rheda-Wiedenbrück,33378,Germany,51.85092,8.29646000000002
1656,Bergkamen,59192,Germany,51.61429,7.64089999999999
1657,Freising,85350,Germany,48.4,11.7333
1658,Freising,85354,Germany,48.4,11.7333
1659,Freising,85356,Germany,48.4,11.7333
1660,Bornheim,53332,Germany,50.7667,7.0
1661,Bornheim,76879,Germany,49.1917,8.25139
1662,Bornheim,55237,Germany,49.7831,8.06028
1663,Cuxhaven,27472,Germany,53.8618,8.69359
1664,Cuxhaven,27478,Germany,53.8618,8.69359
1665,Cuxhaven,27476,Germany,53.8618,8.69359
1666,Cuxhaven,27474,Germany,53.8618,8.69359
1667,Soest,59494,Germany,51.56698,8.11062000000004
1668,Straubing,94315,Germany,48.8833,12.5667
1669,Dachau,85221,Germany,48.2667,11.4333
1670,Alsdorf,52477,Germany,50.8833,6.16667
1671,Alsdorf,54668,Germany,49.8667,6.43333
1672,Alsdorf,57518,Germany,50.7833,7.88333
1673,Stade,21682,Germany,53.5993,9.47433
1674,Stade,21680,Germany,53.5993,9.47433
1675,Stade,21684,Germany,53.5605,9.53145
1676,Stade,21683,Germany,53.5993,9.47433
1677,Dülmen,48249,Germany,51.83171,7.28346999999997
1678,Melle,49324,Germany,52.20358,8.33725000000004
1679,Melle,49328,Germany,52.20358,8.33725000000004
1680,Melle,49326,Germany,52.20358,8.33725000000004
1681,Oranienburg,16515,Germany,52.75275,13.23915
1682,Herzogenrath,52134,Germany,50.8667,6.1
1683,Schwerte,58239,Germany,51.44519,7.56659999999999
1684,Neunkirchen,66538,Germany,49.35,7.18333
1685,Neunkirchen,57290,Germany,50.8,8.0
1686,Neunkirchen,74867,Germany,49.3869,9.01056
1687,Neunkirchen,91233,Germany,49.5167,11.3167
1688,Neunkirchen,91077,Germany,49.6,11.1667
1689,Neunkirchen,56479,Germany,50.6667,8.06667
1690,Neunkirchen,66887,Germany,49.6167,7.53333
1691,Neunkirchen,66540,Germany,49.35,7.18333
1692,Neunkirchen,66539,Germany,49.35,7.18333
1693,Neunkirchen,54426,Germany,49.8,7.0
1694,Neunkirchen,63930,Germany,49.7072,9.4025
1695,Rodgau,63110,Germany,50.0167,8.88333
1696,Filderstadt,70794,Germany,48.6667,9.21667
1697,Albstadt,72458,Germany,48.192935,9.071375
1698,Albstadt,72459,Germany,48.2167,9.01667
1699,Albstadt,72461,Germany,48.2167,9.01667
1700,Bruchsal,76646,Germany,49.1281,8.58361
1701,Bünde,32257,Germany,52.19851,8.58329000000003
1702,Weinheim,69469,Germany,49.5483,8.66611
1703,Fellbach,70734,Germany,48.8091,9.277
1704,Fellbach,70736,Germany,48.8091,9.277
1705,Hof,95015,Germany,50.6167,7.93333
1706,Hof,56472,Germany,50.6167,7.93333
1707,Hof,04758,Germany,51.25,13.1167
1708,Hof,95028,Germany,50.3167,11.9167
1709,Hof,95032,Germany,50.3167,11.9167
1710,Hof,95030,Germany,50.3167,11.9167
1711,Kaufbeuren,87600,Germany,47.8833,10.6167
1712,Gotha,99867,Germany,50.95,10.7167
1713,Memmingen,87700,Germany,47.9833,10.1667
1714,Lehrte,31275,Germany,52.3751,9.97721999999999
1715,Falkensee,14612,Germany,52.5651522101702,13.0820191217041
1716,Brühl,50321,Germany,50.8333,6.9
1717,Brühl,68782,Germany,49.3972,8.53361
1718,Kaarst,41564,Germany,51.2243509285907,6.61731373016357
1719,Pinneberg,25421,Germany,53.66282,9.79665
1720,Erkelenz,41812,Germany,51.0833,6.31667
1721,Bietigheim-Bissingen,74321,Germany,48.9667,9.13333
1722,Gifhorn,38518,Germany,52.47827,10.54901
1723,Borken,46325,Germany,51.848372553829,6.85974260314947
1724,Borken,34582,Germany,51.05,9.28333
1725,Borken,04916,Germany,51.6560759834675,13.2232667407227
1726,Heinsberg,52525,Germany,51.0667,6.08333
1727,Wismar,23952,Germany,53.88842,11.46222
1728,Wismar,23970,Germany,53.92149,11.5788700000001
1729,Wismar,23966,Germany,53.82156,11.4854800000001
1730,Wismar,23968,Germany,53.92742,11.37768
1731,Aurich,26603,Germany,53.4839,7.51512
1732,Aurich,26607,Germany,53.4839,7.51512
1733,Aurich,26605,Germany,53.4839,7.51512
1734,Kamen,59174,Germany,51.58841,7.65925000000004
1735,Nettetal,41334,Germany,51.3122844578804,6.27630918518071
1736,Amberg,92224,Germany,49.4414,11.8622
1737,Amberg,86854,Germany,48.0667,10.6833
1738,Laatzen,30880,Germany,52.30854,9.80900999999994
1739,Dreieich,63303,Germany,50.0,8.7
1740,Eisenach,99817,Germany,50.9833,10.3167
1741,Eisenach,54298,Germany,49.5667,6.68333
1742,Ansbach,91522,Germany,49.3,10.5833
1743,Siegburg,53721,Germany,50.8,7.2
1744,Homburg,66424,Germany,49.3167,7.33333
1745,Wunstorf,31515,Germany,52.4213301,9.43474
1746,Schwabach,91126,Germany,49.3292,11.0256
1747,Schwäbisch Hall,74523,Germany,49.1992,9.79056
1748,Eberswalde,16225,Germany,52.83862,13.78643
1749,Eberswalde,16227,Germany,52.83862,13.78643
1750,Königswinter,53639,Germany,50.6833,7.18333
1751,Coburg,96450,Germany,50.2667,10.9667
1752,Nürtingen,72622,Germany,48.6333,9.35
1753,Hückelhoven,41836,Germany,51.05,6.21667
1754,Bensheim,64625,Germany,49.6803,8.61611
1755,Nordhausen,99734,Germany,51.49947,10.7909
1756,Germering,82110,Germany,48.1333,11.3667
1757,Lemgo,32657,Germany,52.02703,8.90178000000003
1758,Buxtehude,21614,Germany,53.47632,9.70545
1759,Leinfelden-Echterdingen,70771,Germany,48.7,9.15
1760,Pirmasens,66953,Germany,49.2,7.6
1761,Pirmasens,66954,Germany,49.2,7.6
1762,Pirmasens,66955,Germany,49.2,7.6
1763,Löhne,32584,Germany,52.19456,8.72212999999999
1764,Weißenfels,06667,Germany,51.15,11.9333
1765,Ahaus,48683,Germany,52.08047,7.01055999999994
1766,Schorndorf,73614,Germany,48.8167,9.58333
1767,Schorndorf,93489,Germany,49.1667,12.6
1768,Völklingen,66333,Germany,49.25,6.85
1769,Ostfildern,73760,Germany,48.7167,9.26667
1770,Freital,01705,Germany,51.0017,13.6488
1771,Maintal,63477,Germany,50.15,8.83333
1772,Ettlingen,76275,Germany,48.95,8.4
1773,Mettmann,40822,Germany,51.25097,6.97401000000002
1774,Niederkassel,53859,Germany,50.8167,7.03333
1775,Halberstadt,38820,Germany,51.89438,11.05369
1776,Neu-Isenburg,63263,Germany,50.05,8.7
1777,Ilmenau,98693,Germany,50.7167,10.8833
1778,Würselen,52146,Germany,50.8167,6.13333
1779,Pirna,01796,Germany,50.95326,13.93815
1780,Stendal,39576,Germany,52.60438,11.8536
1781,Königs Wusterhausen,15711,Germany,52.29592,13.6247
1782,Papenburg,26871,Germany,53.0535598637496,7.33230333173833
1783,Kamp-Lintfort,47475,Germany,51.496927622005,6.54225639160154
1784,Haltern am See,45721,Germany,51.744002557442,7.18218661376955
1785,Greven,48268,Germany,52.096678231453,7.61692749206543
1786,Greven,19258,Germany,53.38084,10.71892
1787,Wesseling,50389,Germany,50.8333,6.98333
1788,Backnang,71522,Germany,48.95,9.43333
1789,Kehl,77694,Germany,48.5717859,7.8185301
1790,Warendorf,48231,Germany,51.95397,7.99095
1791,Fürstenfeldbruck,82256,Germany,48.1833,11.25
1792,Beckum,59269,Germany,51.7562963264007,8.04234222229002
1793,Tuttlingen,78532,Germany,47.9833,8.81667
1794,Erding,85435,Germany,48.3,11.9127
1795,Coesfeld,48653,Germany,51.93807,7.16804999999999
1796,Cloppenburg,49661,Germany,52.84463,8.05208
1797,Suhl,98527,Germany,50.6,10.7
1798,Suhl,98529,Germany,50.6,10.7
1799,Suhl,98528,Germany,50.6,10.7
1800,Emsdetten,48282,Germany,52.1683489656064,7.53231025390619
1801,Sinsheim,74889,Germany,49.2553,8.87722
1802,Porta Westfalica,32457,Germany,52.2411534918421,8.92470156616207
1803,Meppen,49716,Germany,52.691715,7.287101
1804,St. Ingbert,66386,Germany,49.2833,7.11667
1805,Bad Vilbel,61118,Germany,50.1833,8.75
1806,Datteln,45711,Germany,51.64605,7.33497
1807,Crailsheim,74564,Germany,49.15,10.0833
1808,Lage,32791,Germany,51.99481,8.79953
1809,Lage,49828,Germany,52.4965452599612,6.96676655952456
1810,Steinfurt,48565,Germany,52.14781,7.34357
1811,Mörfelden-Walldorf,64546,Germany,49.9947,8.58361
1812,Balingen,72336,Germany,48.2833,8.85
1813,Goch,47574,Germany,51.67988,6.15647999999999
1814,Kempen,47906,Germany,51.3651,6.42042000000004
1815,Dietzenbach,63128,Germany,50.0167,8.78333
1816,Wermelskirchen,42929,Germany,51.14068,7.22122000000002
1817,Deggendorf,94469,Germany,48.8333,12.9667
1818,Saarlouis,66740,Germany,49.3167,6.75
1819,Barsinghausen,30890,Germany,52.2966,9.48058000000003
1820,Seelze,30926,Germany,52.39501,9.59397000000001
1821,Ahrensburg,22926,Germany,53.67579,10.23845
1822,Viernheim,68519,Germany,49.5417,8.57861
1823,Wedel,22880,Germany,53.58367,9.69817
1824,Zweibrücken,66482,Germany,49.25,7.36667
1825,Korschenbroich,41352,Germany,51.18949,6.51571000000001
1826,Radebeul,01445,Germany,51.1117214378571,13.649485015869
1827,Geldern,47608,Germany,51.52064,6.32633999999996
1828,Hemer,58675,Germany,51.38282,7.77457000000004
1829,Kornwestheim,70806,Germany,48.8667,9.18333
1830,Merseburg,06217,Germany,51.32362,11.95907
1831,Uelzen,29525,Germany,52.96601,10.55776
1832,Vechta,49377,Germany,52.72955,8.28384000000005
1833,Bad Nauheim,61231,Germany,50.3667,8.75
1834,Lampertheim,68623,Germany,49.6019,8.47194
1835,Jülich,52428,Germany,50.9333,6.36667
1836,Forchheim,91301,Germany,49.7231,11.0669
1837,Forchheim,79362,Germany,48.1667,7.7
1838,Achim,28832,Germany,53.010945,9.037355
1839,Achim,38312,Germany,52.06005,10.61132
1840,Delbrück,33129,Germany,51.76562,8.56114000000002
1841,Bramsche,49565,Germany,52.4078023178029,8.00126861389163
1842,Wernigerode,38855,Germany,51.89179,10.76611
1843,Herrenberg,71083,Germany,48.59556,8.86746
1844,Itzehoe,25524,Germany,53.899874,9.468966
1845,Georgsmarienhütte,49124,Germany,52.20181,8.04848000000004
1846,Geesthacht,21502,Germany,53.45298,10.42135
1847,Oer-Erkenschwick,45739,Germany,51.64322,7.25964999999997
1848,Burgdorf,31303,Germany,52.44724,10.00535
1849,Burgdorf,38272,Germany,52.1440458793642,10.2175295608521
1850,Neuruppin,16816,Germany,52.91911,12.70671
1851,Rheinberg,47495,Germany,51.5462467533736,6.58990206878661
1852,Kreuztal,57223,Germany,50.9667,7.98333
1853,Werl,59457,Germany,51.558439913325,7.91184789947511
1854,Altenburg,04600,Germany,50.9884,12.4447
1855,Gevelsberg,58285,Germany,51.32234,7.33979999999997
1856,Lohmar,53797,Germany,50.8333,7.21667
1857,Osterholz-Scharmbeck,27711,Germany,53.22769,8.78381999999999
1858,Einbeck,37574,Germany,51.82072,9.86814000000004
1859,Walsrode,29664,Germany,52.86191,9.59280999999999
1860,Ennepetal,58256,Germany,51.3004,7.36131
1861,Haan,42781,Germany,51.19238,7.00689
1862,Weil am Rhein,79576,Germany,47.5833,7.63333
1863,Taunusstein,65232,Germany,50.15,8.15
1864,Andernach,56626,Germany,50.4333,7.4
1865,Bad Hersfeld,36251,Germany,50.9,9.76667
1866,Gaggenau,76571,Germany,48.8,8.33333
1867,Friedberg,86316,Germany,48.35,10.9833
1868,Friedberg,61169,Germany,50.35,8.76667
1869,Bretten,75015,Germany,49.0392,8.70278
1870,Merzig,66663,Germany,49.45,6.63333
1871,Meschede,59872,Germany,51.35146,8.28511000000003
1872,Rietberg,33397,Germany,51.81661,8.43436999999994
1873,Waltrop,45731,Germany,51.62197,7.40076999999997
1874,Werne,59368,Germany,51.6652093898764,7.63161338623047
1875,Tönisvorst,47918,Germany,51.32507,6.49053000000004
1876,Schwandorf,92421,Germany,49.3264,12.1097
1877,Oelde,59302,Germany,51.82987,8.14508999999998
1878,Güstrow,18273,Germany,53.80412,12.18655
1879,Northeim,37154,Germany,51.7005131180301,9.99606332275391
1880,Rendsburg,24768,Germany,54.271537135276,9.62824486339644
1881,Springe,31832,Germany,52.21091,9.55329000000006
1882,Unterschleißheim,85716,Germany,48.2833,11.5667
1883,Riesa,01589,Germany,51.3063320341141,13.2878978729248
1884,Riesa,01587,Germany,51.3063320341141,13.2878978729248
1885,Riesa,01591,Germany,51.3063320341141,13.2878978729248
1886,Bühl,77815,Germany,48.7,8.15
1887,Rösrath,51503,Germany,50.9,7.2
1888,Winnenden,71364,Germany,48.8833,9.4
1889,Schwelm,58332,Germany,51.287970316595,7.29247096832273
1890,Höxter,37671,Germany,51.7776209874954,9.37708581741344
1891,Idar-Oberstein,55743,Germany,49.7,7.3
1892,Rödermark,63322,Germany,49.9936,8.81667
1893,Mechernich,53894,Germany,50.591691,6.653047
1894,Reinbek,21465,Germany,53.51072,10.24831
1895,Wegberg,41844,Germany,51.15,6.26667
1896,Emmendingen,79312,Germany,48.1333,7.81667
1897,Meißen,01662,Germany,51.1633504354592,13.4812400634765
1898,Grimma,04668,Germany,51.2,12.6167
1899,Baunatal,34225,Germany,51.2539753629014,9.41478172485358
1900,Kevelaer,47623,Germany,51.58178,6.24601000000007
1901,Kevelaer,47624,Germany,51.58178,6.24601000000007
1902,Kevelaer,47625,Germany,51.58178,6.24601000000007
1903,Kevelaer,47626,Germany,51.58178,6.24601000000007
1904,Kevelaer,47627,Germany,51.58178,6.24601000000007
1905,Königsbrunn,86343,Germany,48.2667,10.8833
1906,Geilenkirchen,52511,Germany,50.9667,6.11667
1907,Ludwigsfelde,14974,Germany,52.18425,13.16646
1908,Olching,82140,Germany,48.2,11.3333
1909,Neukirchen-Vluyn,47506,Germany,51.4425108617499,6.55381946563716
1910,Teltow,14513,Germany,52.39584,13.27631
1911,Griesheim,64347,Germany,49.8628,8.57528
1912,Griesheim,99326,Germany,50.7333,11.0833
1913,Baesweiler,52499,Germany,50.9,6.18333
1914,Arnstadt,99310,Germany,50.7833,11.0
1915,Overath,51491,Germany,50.95,7.3
1916,Schloß Holte-Stukenbrock,33758,Germany,51.90306,8.61817999999994
1917,Strausberg,15344,Germany,52.56751,13.87698
1918,Leimen,69181,Germany,49.3511,8.68944
1919,Leimen,66978,Germany,49.25,7.73333
1920,Zeitz,06712,Germany,51.0833333333,12.21168
1921,Weinstadt,71384,Germany,48.8167,9.38333
1922,Hamminkeln,46499,Germany,51.73298,6.59524999999996
1923,Rheinbach,53359,Germany,50.6333,6.95
1924,Butzbach,35510,Germany,50.434,8.6712
1925,Hohen Neuendorf,16540,Germany,52.6733705,13.2814989
1926,Bad Neuenahr-Ahrweiler,53474,Germany,50.55,7.1
1927,Wiesloch,69168,Germany,49.2978,8.70139
1928,Zirndorf,90513,Germany,49.45,10.95
1929,Hennigsdorf,16761,Germany,52.63153,13.2319
1930,Heiligenhaus,42579,Germany,51.32748147456,6.96555420104983
1931,Aschersleben,06449,Germany,51.7015,11.54749
1932,Neckarsulm,74172,Germany,49.1928,9.22611
1933,Mühlacker,75417,Germany,48.95,8.83333
1934,Groß-Gerau,64521,Germany,49.9239,8.49361
1935,Selm,59379,Germany,51.69544,7.46762999999999
1936,Nordenham,26954,Germany,53.49922,8.48905000000002
1937,Weiterstadt,64331,Germany,49.9078,8.59528
1938,Achern,77855,Germany,48.6333,8.06667
1939,Bad Honnef,53604,Germany,50.6333,7.23333
1940,Kulmbach,95311,Germany,50.1,11.45
1941,Kulmbach,95326,Germany,50.1,11.45
1942,Lübbecke,32312,Germany,52.3097,8.62224
1943,Harsewinkel,33428,Germany,51.96348,8.22735999999998
1944,Schleswig,24837,Germany,54.51808,9.57038
1945,Friedrichsdorf,61381,Germany,50.2667,8.65
1946,Friedrichsdorf,06386,Germany,51.80925,11.97144
1947,Sangerhausen,06526,Germany,51.4727094979378,11.2998041750226
1948,Rinteln,31737,Germany,52.20205,9.07592
1949,St. Wendel,66606,Germany,49.4667,7.16667
1950,Helmstedt,38350,Germany,52.1765296384156,10.9478713174439
1951,Brilon,59929,Germany,51.39773,8.57463000000007
1952,Idstein,65510,Germany,50.2333,8.26667
1953,Geretsried,82538,Germany,47.8667,11.4667
1954,Verl,33415,Germany,51.87853,8.50189
1955,Lennestadt,57368,Germany,51.10395,8.07374000000004
1956,Weingarten,88250,Germany,47.8111,9.63986
1957,Weingarten,83546,Germany,47.9926501,12.2535753
1958,Weingarten,99869,Germany,50.9,10.85
1959,Weingarten,76356,Germany,49.0561,8.52472
1960,Weingarten,67366,Germany,49.2597,8.28667
1961,Roth,91154,Germany,49.245,11.0911
1962,Roth,54675,Germany,49.95,6.26667
1963,Roth,54597,Germany,50.15,6.38333
1964,Roth,56368,Germany,50.2667,8.0
1965,Roth,56288,Germany,50.0167,7.45
1966,Roth,57539,Germany,50.7833,7.76667
1967,Roth,55442,Germany,49.95,7.76667
1968,Wiehl,51674,Germany,50.95,7.53333
1969,Öhringen,74613,Germany,49.2017,9.50389
1970,Petershagen,32469,Germany,52.374825016683,8.96463915344225
1971,Petershagen,15370,Germany,52.53176,13.75567
1972,Rottweil,78628,Germany,48.1667,8.61667
1973,Obertshausen,63179,Germany,50.0833,8.85
1974,Stutensee,76297,Germany,49.0967,8.48958
1975,Pfungstadt,64319,Germany,49.8064,8.60694
1976,Delitzsch,04509,Germany,51.46221,12.45321
1977,Norden,26506,Germany,53.5961,7.18947
1978,Lüdinghausen,59348,Germany,51.7683200580734,7.44656677246098
1979,Bad Oldesloe,23843,Germany,53.78294,10.35188
1980,Ditzingen,71254,Germany,48.8333,9.06667
1981,Espelkamp,32339,Germany,52.38171,8.62179
1982,Plettenberg,58840,Germany,51.2097641360876,7.87028373535168
1983,Schmallenberg,57392,Germany,51.15,8.3
1984,Meckenheim,53340,Germany,50.6333,7.01667
1985,Meckenheim,67149,Germany,49.4044,8.23917
1986,Olpe,57462,Germany,51.0333,7.85
1987,Sprockhövel,45549,Germany,51.36415,7.24662000000001
1988,Markkleeberg,04416,Germany,51.2750049912737,12.3664402008056
1989,Meiningen,98617,Germany,50.5679,10.4152
1990,Zittau,02763,Germany,50.8990256257077,14.8053191955566
1991,Rudolstadt,07407,Germany,50.7644,11.25
1992,Syke,28857,Germany,52.91286,8.81781999999998
1993,Warstein,59581,Germany,51.4493581219927,8.35589824859619
1994,Staßfurt,39418,Germany,51.86084,11.58032
1995,Bad Mergentheim,97980,Germany,49.4,9.91944
1996,Ronnenberg,30952,Germany,52.3183264778189,9.65459194183347
1997,Waldshut-Tiengen,79761,Germany,47.6232,8.2172
1998,Attendorn,57439,Germany,51.13167,7.90499999999997
1999,Herzogenaurach,91074,Germany,49.55,10.8833
2000,Rathenow,14712,Germany,52.60495,12.33948
2001,Übach-Palenberg,52531,Germany,50.9333,6.11667
2002,Waldkraiburg,84478,Germany,48.2167,12.4
2003,Varel,26316,Germany,53.3857,8.11782
2004,Riedstadt,64560,Germany,49.8478,8.48389
2005,Bedburg,50181,Germany,51.0,6.58333
2006,Sehnde,31319,Germany,52.31756,9.96745999999996
2007,Calw,75365,Germany,48.7167,8.73333
2008,Freudenstadt,72250,Germany,48.4667,8.41667
2009,Limbach-Oberfrohna,09212,Germany,50.8667,12.75
2010,Jüchen,41363,Germany,51.1,6.5
2011,Husum,25813,Germany,54.4309769913578,9.07681420589033
2012,Husum,31632,Germany,52.56494,9.25058000000001
2013,Starnberg,82319,Germany,48.0,11.35
2014,Westerstede,26655,Germany,53.25531,7.92592000000002
2015,Quedlinburg,06484,Germany,51.79221,11.14154
2016,Mosbach,74821,Germany,49.3539,9.14278
2017,Hann. Münden,34346,Germany,51.4201,9.65547000000004
2018,Döbeln,04720,Germany,51.1167,13.1167
2019,Dillenburg,35683,Germany,50.7333,8.28333
2020,Dillenburg,35690,Germany,50.7333,8.28333
2021,Dillenburg,35684,Germany,50.7333,8.28333
2022,Dillenburg,35685,Germany,50.7333,8.28333
2023,Dillenburg,35688,Germany,50.7333,8.28333
2024,Dillenburg,35689,Germany,50.7333,8.28333
2025,Dillenburg,35686,Germany,50.7333,8.28333
2026,Dillenburg,35687,Germany,50.7333,8.28333
2027,Kaltenkirchen,24568,Germany,53.84017,9.99358
2028,Netphen,57250,Germany,50.9167,8.1
2029,Sonneberg,96515,Germany,50.4,11.2167
2030,Salzwedel,29410,Germany,52.85347,11.23353
2031,Bad Salzungen,36433,Germany,50.8167,10.2
2032,Warburg,34414,Germany,51.491424,9.146886
2033,Eisenhüttenstadt,15890,Germany,52.18197,14.66392
2034,Gersthofen,86368,Germany,48.4167,10.8833
2035,Karben,61184,Germany,50.2333,8.76667
2036,Büdingen,63654,Germany,50.3,9.11667
2037,Wertheim,97877,Germany,49.7575,9.50944
2038,Vreden,48691,Germany,52.03553,6.82460000000003
2039,Herdecke,58313,Germany,51.403301,7.43324000000007
2040,Überlingen,88662,Germany,47.7667,9.16667
2041,Neusäß,86356,Germany,48.4,10.8333
2042,Nagold,72202,Germany,48.55,8.71667
2043,Senden,89250,Germany,48.3167,10.0667
2044,Senden,48308,Germany,51.85855,7.48267999999996
2045,Bad Kissingen,97688,Germany,50.2,10.0833
2046,Friesoythe,26169,Germany,53.02458,7.85832000000005
2047,Laupheim,88471,Germany,48.2333,9.88333
2048,Lengerich,49525,Germany,52.18256,7.86176999999998
2049,Lengerich,49838,Germany,52.57296,7.49526000000003
2050,Kitzingen,97318,Germany,49.7333,10.1667
2051,Burg,39288,Germany,52.27101,11.85487
2052,Burg,02979,Germany,51.46779,14.2254399999999
2053,Burg,23769,Germany,54.45443,11.10231
2054,Burg,56843,Germany,50.0167,7.11667
2055,Burg,54646,Germany,49.9333,6.4
2056,Burg,03096,Germany,51.8167,14.25
2057,Burg,25712,Germany,54.000347,9.258527
2058,Apolda,99510,Germany,51.0833,11.4167
2059,Stadthagen,31655,Germany,52.3137,9.21318
2060,Donaueschingen,78166,Germany,47.95,8.5
2061,Metzingen,72555,Germany,48.5333,9.26667
2062,Quickborn,25451,Germany,53.73186,9.90396
2063,Eppingen,75031,Germany,49.1369,8.91028
2064,Gardelegen,39638,Germany,52.60278,11.39514
2065,Radevormwald,42477,Germany,51.2017153152049,7.35906498413078
2066,Glauchau,08371,Germany,50.8167,12.5333
2067,Waldkirch,79183,Germany,48.1,7.96667
2068,Bad Rappenau,74906,Germany,49.2406,9.1025
2069,Heide,25746,Germany,54.214810444152,9.137088806873
2070,Versmold,33775,Germany,52.04137,8.14765
2071,Bad Harzburg,38667,Germany,51.8019139405272,10.536938188916
2072,Elsdorf,50189,Germany,50.9333,6.56667
2073,Elsdorf,06369,Germany,51.81584,11.9052799999999
2074,Elsdorf,27404,Germany,53.21874,9.30966999999998
2075,Eschborn,65760,Germany,50.1333,8.55
2076,Hockenheim,68766,Germany,49.3228,8.54583
2077,Sonthofen,87527,Germany,47.5,10.2333
2078,Eckernförde,24340,Germany,54.462724215,9.81717886329
2079,Aichach,86551,Germany,48.4667,11.1333
2080,Xanten,46509,Germany,51.65776,6.44875000000002
2081,Schwetzingen,68723,Germany,49.3944,8.59611
2082,Geseke,59590,Germany,51.63961,8.50643000000002
2083,Seligenstadt,63500,Germany,50.05,8.98333
2084,Büren,33142,Germany,51.55123,8.55979000000002
2085,Soltau,29614,Germany,52.98414,9.84249
2086,Günzburg,89312,Germany,48.45,10.2667
2087,Puchheim,82178,Germany,48.15,11.35
2088,Waghäusel,68753,Germany,49.2431,8.52167
2089,Stadtallendorf,35260,Germany,50.8333,9.01667
2090,Rees,46459,Germany,51.76723,6.40179000000001
2091,Bad Krozingen,79189,Germany,47.9167,7.7
2092,Wülfrath,42489,Germany,51.2804277878726,7.03497962951656
2093,Groß-Umstadt,64823,Germany,49.8678,8.93389
2094,Schramberg,78713,Germany,48.2333,8.38333
2095,Sondershausen,99706,Germany,51.37268,11.0058
2096,Wipperfürth,51688,Germany,51.118154710907,7.3955368041992
2097,Traunstein,83278,Germany,47.8833,12.65
2098,Traunreut,83294,Germany,47.9667,12.6
2099,Traunreut,83301,Germany,47.9667,12.6
2100,Germersheim,76726,Germany,49.2231,8.36389
2101,Wildeshausen,27793,Germany,52.89192,8.42608999999993
2102,Nördlingen,86720,Germany,48.85,10.5
2103,Bruchköbel,63486,Germany,50.1833,8.91667
2104,Zülpich,53909,Germany,50.7,6.65
2105,Schortens,26419,Germany,53.5396,7.96113
2106,Mössingen,72116,Germany,48.4066666666667,9.05888888888889
2107,Nidderau,61130,Germany,50.25,8.9
2108,Meinerzhagen,58540,Germany,51.10563,7.65057999999999
2109,Luckenwalde,14943,Germany,52.09016,13.16291
2110,Herborn,35745,Germany,50.6833,8.31667
2111,Herborn,55758,Germany,49.8333,7.33333
2112,Hörstel,48477,Germany,52.2959177982178,7.58375915344232
2113,Enger,32130,Germany,52.1390423112082,8.55903106872552
2114,Coswig,01640,Germany,51.130660800737,13.5780643280029
2115,Coswig,06869,Germany,51.9591,12.53332
2116,Stadtlohn,48703,Germany,51.99237,6.91377999999997
2117,Wittmund,26409,Germany,53.5908,7.76473
2118,Schifferstadt,67105,Germany,49.3872,8.37472
2119,Werdau,08412,Germany,50.7333,12.3833
2120,Rheinstetten,76287,Germany,48.9722,8.29444
2121,Bad Schwartau,23611,Germany,53.92105,10.67955
2122,Dingolfing,84130,Germany,48.6333,12.5
2123,Bad Waldsee,88339,Germany,47.9167,9.76667
2124,Blieskastel,66440,Germany,49.2333,7.25
2125,Zossen,15806,Germany,52.19003,13.41839
2126,Burgwedel,30938,Germany,52.52975,9.79805999999996
2127,Neustrelitz,17235,Germany,53.36049,13.07302
2128,Duderstadt,37115,Germany,51.51214,10.25162
2129,Lichtenfels,96215,Germany,50.146272,11.06373
2130,Lichtenfels,35104,Germany,51.1583,8.79583
2131,Greiz,07973,Germany,50.6577,12.1905
2132,Telgte,48291,Germany,51.98287,7.78378999999995
2133,Oberkirch,77704,Germany,48.5333,8.08333
2134,Schopfheim,79650,Germany,47.65,7.81667
2135,Ochtrup,48607,Germany,52.20714,7.18970000000002
2136,Holzminden,37603,Germany,51.82612,9.46006
2137,Tettnang,88069,Germany,47.6667,9.6
2138,Gerlingen,70839,Germany,48.8,9.06667
2139,Donauwörth,86609,Germany,48.721179,10.782266
2140,Ennigerloh,59320,Germany,51.84053,8.03056000000004
2141,Torgau,04860,Germany,51.55746,12.9916000000001
2142,Waldbröl,51545,Germany,50.8833,7.61667
2143,Korntal-Münchingen,70825,Germany,48.8167,9.11667
2144,Bad Friedrichshall,74177,Germany,49.2292,9.20694
2145,Sarstedt,31157,Germany,52.23726,9.85436000000004
2146,Schenefeld,22869,Germany,53.60085,9.82257
2147,Schenefeld,25560,Germany,54.013794,9.481068
2148,Marsberg,34431,Germany,51.45744,8.84753999999998
2149,Wittlich,54516,Germany,50.0167,6.93333
2150,Bückeburg,31675,Germany,52.2845,9.04948
2151,Rhede,46414,Germany,51.83738,6.69876999999997
2152,Rhede,26899,Germany,53.0594789837626,7.26975990478513
2153,Mayen,56727,Germany,50.35,7.2
2154,Mölln,23879,Germany,53.63001,10.69269
2155,Mölln,17091,Germany,53.7242614901936,13.1414169311523
2156,Haiger,35708,Germany,50.75,8.21667
2157,Bad Pyrmont,31812,Germany,51.98679,9.25214000000005
2158,Eschwege,37269,Germany,51.1879103276537,10.0398614126586
2159,Sachsenheim,74343,Germany,48.95,9.06667
2160,Müllheim,79379,Germany,47.8,7.63333
2161,Bad Aibling,83043,Germany,47.8667,12.0
2162,Heusenstamm,63150,Germany,50.0667,8.8
2163,Weil der Stadt,71263,Germany,48.75,8.86667
2164,Hechingen,72379,Germany,48.35,8.98333
2165,Seesen,38723,Germany,51.8894,10.17725
2166,Annaberg-Buchholz,09456,Germany,50.5667,13.0
2167,Sulzbach-Rosenberg,92237,Germany,49.4983,11.7517
2168,Alzey,55232,Germany,49.7517,8.11611
2169,Bad Tölz,83646,Germany,47.7333,11.55
2170,Borna,04552,Germany,51.1333,12.45
2171,Haldensleben,39340,Germany,52.28513,11.41844
2172,Bad Driburg,33014,Germany,51.73294,9.02169000000004
2173,Wolfratshausen,82515,Germany,47.9167,11.4167
2174,Schneverdingen,29640,Germany,53.11642,9.79201
2175,Wassenberg,41849,Germany,51.1,6.15
2176,Burghausen,84489,Germany,48.1667,12.8333
2177,Nauen,14641,Germany,52.67656,12.96785
2178,Hemmingen,30966,Germany,52.3220822491819,9.72986203704841
2179,Hemmingen,71282,Germany,48.8667,9.03333
2180,Marktoberdorf,87616,Germany,47.7167,10.55
2181,Pfullingen,72793,Germany,48.45,9.23333
2182,Sömmerda,99610,Germany,51.1167,11.2
2183,Bad Berleburg,57319,Germany,51.0386,8.41661
2184,Lebach,66822,Germany,49.4,6.91667
2185,Burscheid,51399,Germany,51.1,7.11667
2186,Burscheid,54673,Germany,50.0667,6.33333
2187,Radeberg,01454,Germany,51.11392,13.91364
2188,Bremervörde,27432,Germany,53.48011,9.05368999999996
2189,Kolbermoor,83059,Germany,47.85,12.0667
2190,Bad Dürkheim,67098,Germany,49.4686,8.16639
2191,Schkeuditz,04435,Germany,51.3945595453453,12.2241874920654
2192,Alzenau,63755,Germany,50.0833,9.06667
2193,Uetersen,25436,Germany,53.6677402529403,9.65997231347566
2194,Bad Reichenhall,83435,Germany,47.7333,12.8833
2195,Renningen,71272,Germany,48.7557,8.902799
2196,Bergneustadt,51702,Germany,51.0333,7.65
2197,Glinde,21509,Germany,53.540731,10.211394
2198,Glinde,39249,Germany,51.97592,11.78002
2199,Vlotho,32602,Germany,52.16162,8.85589000000004
2200,Konz,54329,Germany,49.7,6.58333
2201,Püttlingen,66346,Germany,49.2833,6.88333
2202,Hessisch Oldendorf,31840,Germany,52.17203,9.24576000000002
2203,Crimmitschau,08451,Germany,50.8167,12.3833
2204,Schwalmstadt,34613,Germany,50.9333,9.21667
2205,Vellmar,34246,Germany,51.3579866770933,9.46538253967287
2206,Lahnstein,56112,Germany,50.3,7.61667
2207,Großenhain,01558,Germany,51.2914459048752,13.5314713001251
2208,Pohlheim,35415,Germany,50.5167,8.7
2209,Illertissen,89257,Germany,48.2167,10.1
2210,Bobingen,86399,Germany,48.2667,10.8333
2211,Oberasbach,90522,Germany,49.4333,10.95
2212,Werdohl,58791,Germany,51.2563,7.7562
2213,Freudenberg,57258,Germany,50.9,7.86667
2214,Freudenberg,24816,Germany,54.1705305119486,9.66192799384879
2215,Freudenberg,97896,Germany,49.745,9.32917
2216,Freudenberg,92272,Germany,49.4833,11.9833
2217,Freudenberg,16259,Germany,52.78585,14.03853
2218,Bad Saulgau,88348,Germany,48.0333,9.6
2219,Bad Säckingen,79713,Germany,47.55,7.95
2220,Bad Segeberg,23795,Germany,53.97226,10.31196
2221,Schrobenhausen,86529,Germany,48.55,11.2667
2222,Bexbach,66450,Germany,49.3333,7.26667
2223,Freilassing,83395,Germany,47.85,12.9833
2224,Parchim,19370,Germany,53.3972861804682,11.780648803711
2225,Remagen,53424,Germany,50.5667,7.23333
2226,Sinzig,53489,Germany,50.55,7.25
2227,Damme,49401,Germany,52.52354,8.19652999999994
2228,Damme,14715,Germany,52.67825,12.24645
2229,Nidda,63667,Germany,50.4167,9.0
2230,Sigmaringen,72488,Germany,48.0833,9.21667
2231,Bad Wildungen,34537,Germany,51.1167,9.11667
2232,Diepholz,49356,Germany,52.60584,8.37071000000003
2233,Gescher,48712,Germany,51.95361,7.00285
2234,Bad Langensalza,99947,Germany,51.2,10.65
2235,Bad Münstereifel,53902,Germany,50.55,6.76667
2236,Horn-Bad Meinberg,32805,Germany,51.87565,8.94798000000003
2237,Stockach,78333,Germany,47.85,9.01667
2238,Trossingen,78647,Germany,48.0667,8.65
2239,Cham,93413,Germany,49.2256,12.6636
2240,Marktredwitz,95615,Germany,50.005,12.0811
2241,Kelsterbach,65451,Germany,50.0667,8.53333
2242,Oerlinghausen,33813,Germany,51.95201,8.66334000000006
2243,Thale,06502,Germany,51.75081,11.08448
2244,Bendorf,56170,Germany,50.4333,7.56667
2245,Bendorf,25557,Germany,54.1035640901133,9.42251460552217
2246,Eutin,23701,Germany,54.07735,10.71555
2247,Schwarzenbek,21493,Germany,53.52475,10.53289
2248,Babenhausen,64832,Germany,49.9667,8.95778
2249,Babenhausen,87727,Germany,48.15,10.25
2250,Heilbad Heiligenstadt,37308,Germany,51.250129351182,10.1499570846557
2251,Gunzenhausen,91710,Germany,49.1,10.75
2252,Kronach,96317,Germany,50.2333,11.3167
2253,Kelheim,93309,Germany,48.9167,11.8667
2254,Ginsheim-Gustavsburg,65462,Germany,49.9858,8.3425
2255,Hünfeld,36088,Germany,50.6667,9.76667
2256,Bad Wörishofen,86825,Germany,48.0167,10.6
2257,Penzberg,82377,Germany,47.75,11.3833
2258,Heidenau,01809,Germany,50.95673,13.85815
2259,Heidenau,21258,Germany,53.31464,9.65092000000004
2260,Marienberg,09496,Germany,50.65,13.1667
2261,Bürstadt,68642,Germany,49.6436,8.46
2262,Bad Lippspringe,33175,Germany,51.78336,8.81636000000003
2263,Altena,58762,Germany,51.29865,7.67517999999995
2264,Reinheim,64354,Germany,49.8269,8.83611
2265,Guben,03172,Germany,51.95079,14.70258
2266,Blaustein,89134,Germany,48.4167,9.91667
2267,Bassum,27211,Germany,52.85034,8.7287
2268,Kirchhain,35274,Germany,50.8167,8.93333
2269,Wurzen,04808,Germany,51.41241,12.80066
2270,Straelen,47638,Germany,51.4428318500105,6.26589752380369
2271,Pocking,94060,Germany,48.4,13.3167
2272,Brackenheim,74336,Germany,49.0797,9.065
2273,Brakel,33034,Germany,51.71747,9.18249000000003
2274,Raunheim,65479,Germany,50.0167,8.45
2275,Halver,58553,Germany,51.18872,7.49942999999996
2276,Michelstadt,64720,Germany,49.6736,9.0025
2277,Erwitte,59597,Germany,51.60619,8.33988999999997
2278,Kierspe,58566,Germany,51.1320073498196,7.59603294189446
2279,Preetz,24211,Germany,54.2104961349701,10.2126353740693
2280,Preetz,18445,Germany,54.34933,13.01439
2281,Bargteheide,22941,Germany,53.74119,10.2218
2282,Markranstädt,04420,Germany,51.3,12.2333
2283,Bad Bentheim,48455,Germany,52.30127,7.15761999999995
2284,Alsfeld,36304,Germany,50.75,9.26667
2285,Schlüchtern,36381,Germany,50.35,9.51667
2286,Weener,26826,Germany,53.16421,7.34636
2287,Bad Arolsen,34454,Germany,51.37968,9.01217999999994
2288,Füssen,87629,Germany,47.5667,10.7
2289,Finsterwalde,03238,Germany,51.53565,13.62918
2290,Taucha,04425,Germany,51.3799371431262,12.4935853915406
2291,Taucha,06679,Germany,51.1936533061473,12.1196182434082
2292,Eilenburg,04838,Germany,51.46602,12.72063
2293,Bitburg,54634,Germany,49.9667,6.53333
2294,Wadern,66687,Germany,49.5333,6.88333
2295,Künzelsau,74653,Germany,49.2819,9.68889
2296,Drensteinfurt,48317,Germany,51.7943,7.73406
2297,Erlensee,63526,Germany,50.1667,8.99167
2298,Templin,17268,Germany,53.11579,13.68327
2299,Rahden,32369,Germany,52.4357332614461,8.61632667724609
2300,Langenau,89129,Germany,48.5333,10.1333
2301,Langenau,09636,Germany,48.5333,10.1333
2302,Dieburg,64807,Germany,49.8989,8.84444
2303,Walldorf,69190,Germany,49.3064,8.64528
2304,Walldorf,98639,Germany,50.6,10.35
2305,Ribnitz-Damgarten,18311,Germany,54.25877,12.4719700000001
2306,Boppard,56154,Germany,50.2333,7.6
2307,Mindelheim,87719,Germany,48.05,10.4833
2308,Eppelheim,69214,Germany,49.4025,8.63306
2309,Hofgeismar,34369,Germany,51.4972,9.38594000000001
2310,Stadtbergen,86391,Germany,48.3667,10.85
2311,Gehrden,30989,Germany,52.31227,9.60063000000002
2312,Gehrden,39264,Germany,52.03813,11.9182499999999
2313,Mainburg,84048,Germany,48.65,11.7833
2314,Blomberg,32825,Germany,51.9433,9.0907
2315,Blomberg,26487,Germany,53.5718,7.50781
2316,Munster,29633,Germany,52.98887,10.0891300000001
2317,Ober-Ramstadt,64372,Germany,49.8336,8.75194
2318,Dorfen,84405,Germany,48.24358,12.222853
2319,Langelsheim,38685,Germany,51.93581,10.3324700000001
2320,Landsberg,06188,Germany,51.51966,12.0979
2321,Landsberg,86899,Germany,48.05,10.8667
2322,Witzenhausen,37213,Germany,51.3401636227961,9.85542617980957
2323,Witzenhausen,37217,Germany,51.3401636227961,9.85542617980957
2324,Witzenhausen,37216,Germany,51.3401636227961,9.85542617980957
2325,Witzenhausen,37215,Germany,51.3401636227961,9.85542617980957
2326,Witzenhausen,37214,Germany,51.3401636227961,9.85542617980957
2327,Witzenhausen,37218,Germany,51.3401636227961,9.85542617980957
2328,Schriesheim,69198,Germany,49.4778,8.67278
2329,Markgröningen,71706,Germany,48.9,9.06667
2330,Karlstadt,97753,Germany,49.9603,9.77222
2331,Bad Wurzach,88410,Germany,47.9,9.9
2332,Clausthal-Zellerfeld,38678,Germany,51.8093939012619,10.3399089630127
2333,Fritzlar,34560,Germany,51.1333,9.28333
2334,Usingen,61250,Germany,50.3333,8.53333
2335,Hückeswagen,42499,Germany,51.1485193710361,7.33274803161623
2336,Kraichtal,76703,Germany,49.1303,8.74365
2337,Selb,95100,Germany,50.1667,12.1333
2338,Hilchenbach,57271,Germany,50.9833,8.1
2339,Schwabmünchen,86830,Germany,48.1833,10.75
2340,Jever,26441,Germany,53.57114,7.89654999999993
2341,Pattensen,30982,Germany,52.26528,9.76134999999999
2342,Münsingen,72525,Germany,48.4167,9.5
2343,Wilsdruff,01723,Germany,51.0505125865027,13.5364757354737
2344,Lauda-Königshofen,97922,Germany,49.5653,9.70417
2345,Neu-Anspach,61267,Germany,50.29,8.515
2346,Uhingen,73066,Germany,48.7048,9.5857
2347,Plochingen,73207,Germany,48.7107,9.4195
2348,Langenselbold,63505,Germany,50.1833,9.03333
2349,Ratzeburg,23909,Germany,53.68851,10.71397
2350,Olsberg,59939,Germany,51.3559499386875,8.48043060302734
2351,Ottweiler,66564,Germany,49.3833,7.16667
2352,Montabaur,56410,Germany,50.4333,7.83333
2353,Stein,90547,Germany,49.4167,11.0167
2354,Stein,24235,Germany,54.4147079747742,10.2691422611476
2355,Stein,83371,Germany,48.0,12.55
2356,Eberbach,69412,Germany,49.46,8.98
2357,Spenge,32139,Germany,52.13709,8.48680999999999
2358,Abensberg,93326,Germany,48.8167,11.85
2359,Markdorf,88677,Germany,47.7167,9.4
2360,Löbau,02708,Germany,51.07387,14.6481699999999
2361,Sassenberg,48336,Germany,51.9934186491873,8.04419332275393
2362,Gernsbach,76593,Germany,48.7667,8.33333
2363,Bad Camberg,65520,Germany,50.3,8.26667
2364,Hohenstein-Ernstthal,09337,Germany,50.8,12.7167
2365,Dippoldiswalde,01744,Germany,50.8957530080532,13.6677299682617
2366,Burglengenfeld,93133,Germany,49.2056,12.0414
2367,Uslar,37170,Germany,51.66051,9.63797999999997
2368,Neutraubling,93073,Germany,48.9833,12.2
2369,Bebra,36179,Germany,50.9667,9.8
2370,Kalkar,47546,Germany,51.73793,6.29086000000007
2371,Lich,35423,Germany,50.5167,8.83333
2372,Lauchhammer,01979,Germany,51.51427,13.70088
2373,Lorsch,64653,Germany,49.6547,8.56861
2374,Murrhardt,71540,Germany,48.9819,9.5705
2375,Leuna,06237,Germany,51.32354,12.02457
2376,Eggenfelden,84307,Germany,48.4,12.7667
2377,Hilpoltstein,91161,Germany,49.19,11.1886
2378,Grünstadt,67269,Germany,49.5692,8.16806
2379,Erbach,64711,Germany,49.6561,8.99639
2380,Erbach,55494,Germany,50.0,7.7
2381,Erbach,89155,Germany,48.3333,9.88333
2382,Vöhringen,89269,Germany,48.2833,10.0833
2383,Vöhringen,72189,Germany,48.3333,8.66667
2384,Meerane,08393,Germany,50.85,12.4667
2385,Weißenhorn,89264,Germany,48.3,10.1667
2386,Aßlar,35614,Germany,50.5916,8.4627
2387,Philippsburg,76661,Germany,49.2358,8.45639
2388,Angermünde,16278,Germany,53.1111,14.0917
2389,Melsungen,34212,Germany,51.1333,9.55
2390,Grünberg,35305,Germany,50.6,8.95
2391,Grünberg,17326,Germany,53.35485,14.14942
2392,Schneeberg,08289,Germany,50.6,12.6333
2393,Schneeberg,63936,Germany,49.6397,9.24722
2394,Schneeberg,15848,Germany,52.22904,14.17372
2395,Eppstein,65817,Germany,50.1333,8.4
2396,Solms,35606,Germany,50.5167,8.41667
2397,Buchloe,86807,Germany,48.0333,10.7333
2398,Hettstedt,06333,Germany,51.6856701,11.40233
2399,Schmölln,04626,Germany,50.9646,12.3217
2400,Schmölln,01877,Germany,51.12557,14.1762
2401,Quakenbrück,49610,Germany,52.6757026235215,7.95025749206548
2402,Ettenheim,77955,Germany,48.25,7.81667
2403,Haßfurt,97437,Germany,50.0333,10.5
2404,Löningen,49624,Germany,52.73588,7.75874999999996
2405,Bad Soden-Salmünster,63628,Germany,50.2833,9.36667
2406,Pfullendorf,88630,Germany,47.92485504146581,9.257183074951172
2407,Asperg,71679,Germany,48.9,9.11667
2408,Eichstätt,85072,Germany,48.8975,11.1717
2409,Holzgerlingen,71088,Germany,48.64001,9.01159
2410,Spaichingen,78549,Germany,48.0833,8.71667
2411,Genthin,39307,Germany,52.37946,12.26669
2412,Bad Dürrheim,78073,Germany,48.0167,8.53333
2413,Wiesmoor,26639,Germany,53.4129,7.71717
2414,Bergen,29303,Germany,52.80974,9.96279000000004
2415,Bergen,29468,Germany,52.8897,10.9418
2416,Bergen,18528,Germany,54.395833,13.503478
2417,Bergen,55608,Germany,49.85,7.41667
2418,Bergen,08239,Germany,50.476388888888,12.279166666666
2419,Bergen,91790,Germany,49.0167,11.1333
2420,Bergen,03246,Germany,51.73899,13.7646
2421,Bergen,83346,Germany,47.8167,12.6
2422,Biedenkopf,35216,Germany,50.9168,8.5198
2423,Bad Laasphe,57334,Germany,50.9333,8.4
2424,Linden,35440,Germany,50.5167,8.65
2425,Linden,66851,Germany,49.3833,7.58333
2426,Linden,94518,Germany,48.9167,13.3667
2427,Linden,57629,Germany,50.6167,7.86667
2428,Linden,98646,Germany,50.43950110601,10.723922177567
2429,Linden,25791,Germany,54.25236,9.18142
2430,Pegnitz,91257,Germany,49.7564,11.545
2431,Dinklage,49413,Germany,52.66299,8.12405999999999
2432,Sendenhorst,48324,Germany,51.84416,7.83204999999998
2433,Bad Salzdetfurth,31162,Germany,52.05813,10.0106900000001
2434,Neckargemünd,69151,Germany,49.3922,8.79417
2435,Tauberbischofsheim,97941,Germany,49.6247,9.66278
2436,Zehdenick,16792,Germany,53.04847,13.2517800000001
2437,Wolfhagen,34466,Germany,51.32592,9.16596000000004
2438,Velen,46342,Germany,51.89452,6.98766999999998
2439,Haselünne,49740,Germany,52.67603,7.48146999999994
2440,Wehr,79664,Germany,47.6333,7.9
2441,Wehr,56653,Germany,50.4333,7.28333
2442,Beverungen,37688,Germany,51.6685,9.37233000000003
2443,Pfarrkirchen,84347,Germany,48.4333,12.9333
2444,Herbrechtingen,89542,Germany,48.6167,10.1833
2445,Rödental,96472,Germany,50.2833,11.0667
2446,Olfen,59399,Germany,51.7086,7.37828000000002
2447,Östringen,76684,Germany,49.22,8.71222
2448,Sulingen,27232,Germany,52.68331,8.81092999999998
2449,Plattling,94447,Germany,48.7833,12.8667
2450,Altötting,84503,Germany,48.2333,12.6833
2451,Schleiden,53937,Germany,50.5333,6.46667
2452,Treuchtlingen,91757,Germany,48.95,10.9167
2453,Weilburg,35781,Germany,50.4833,8.25
2454,Schüttorf,48465,Germany,52.39126,7.17966999999999
2455,Beelitz,14547,Germany,52.20898,12.8997
2456,Beelitz,39596,Germany,52.7402,12.02574
2457,Hadamar,65589,Germany,50.45,8.05
2458,Linnich,52441,Germany,50.9833,6.26667
2459,Wächtersbach,63607,Germany,50.2667,9.3
2460,Möckern,39291,Germany,52.15239,11.95359
2461,Möckern,07646,Germany,50.9167,11.7833
2462,Besigheim,74354,Germany,48.9833,9.13333
2463,Hungen,35410,Germany,50.4667,8.9
2464,Weinsberg,74189,Germany,49.1503,9.28833
2465,Bad Doberan,18209,Germany,54.10021,11.83327
2466,Waltershausen,99880,Germany,50.95,10.6
2467,Feuchtwangen,91555,Germany,49.1667,10.3333
2468,Roding,93426,Germany,49.1964,12.5186
2469,Steinheim,32839,Germany,51.8698,9.08692999999994
2470,Steinheim,71711,Germany,48.9667,9.26667
2471,Steinheim,89555,Germany,48.6833,10.0667
2472,Bad Urach,72574,Germany,48.5,9.4
2473,Hersbruck,91217,Germany,49.5125,11.4339
2474,Zella-Mehlis,98544,Germany,50.65,10.65
2475,Twistringen,27239,Germany,52.79709,8.63827000000003
2476,Blaubeuren,89143,Germany,48.4122,9.7843
2477,Winterberg,59955,Germany,51.1936802007624,8.52787975128172
2478,Velten,16727,Germany,52.68944,13.17579
2479,Schongau,86956,Germany,47.8167,10.9
2480,Jüterbog,14913,Germany,51.9630722081012,13.0431054550172
2481,Brunsbüttel,25541,Germany,53.897863,9.128617
2482,Preußisch Oldendorf,32361,Germany,52.30552,8.48951999999997
2483,Bad Windsheim,91438,Germany,49.5,10.4167
2484,Hessisch Lichtenau,37235,Germany,51.19863,9.71974
2485,Vilsbiburg,84137,Germany,48.45,12.35
2486,Frohburg,04654,Germany,51.05,12.55
2487,Gladenbach,35075,Germany,50.7667,8.56667
2488,Gaildorf,74405,Germany,49.0039,9.77111
2489,Ebersberg,85560,Germany,48.0833,11.9667
2490,Bad Wünnenberg,33181,Germany,51.51728,8.69938999999999
2491,Titisee-Neustadt,79822,Germany,47.9012,8.1517
2492,Anklam,17389,Germany,53.82344,13.7007100000001
2493,Burladingen,72393,Germany,48.2833,9.11667
2494,Hagenow,19230,Germany,53.3782,11.14941
2495,Laichingen,89150,Germany,48.4905,9.68756
2496,Ladenburg,68526,Germany,49.475,8.60694
2497,Ludwigslust,19288,Germany,53.41869,11.4969599999999
2498,Dinkelsbühl,91550,Germany,49.0667,10.3167
2499,Maxhütte-Haidhof,93142,Germany,49.2025,12.0981
2500,Perleberg,19348,Germany,53.23746,11.87077
2501,Osterhofen,94486,Germany,48.7,13.0167
2502,Wolgast,17438,Germany,54.06113,13.80099
2503,Erkner,15537,Germany,52.4111,13.8889
2504,Zwönitz,08297,Germany,50.6333,12.8
2505,Leingarten,74211,Germany,49.1464,9.11694
2506,Hemsbach,69502,Germany,49.5917,8.64639
2507,Oestrich-Winkel,65375,Germany,50.0,8.0
2508,Hauzenberg,94051,Germany,48.65,13.6333
2509,Neuenrade,58809,Germany,51.28289,7.79061999999999
2510,Pößneck,07381,Germany,50.7,11.6667
2511,Monschau,52156,Germany,50.55,6.25
2512,Bopfingen,73441,Germany,48.8166667,10.2833333
2513,Drolshagen,57489,Germany,51.0245828090975,7.77061867193606
2514,Walldürn,74731,Germany,49.5833,9.36667
2515,Geisenfeld,85290,Germany,48.6833,11.6167
2516,Billerbeck,48727,Germany,51.97791,7.29079000000002
2517,Geisenheim,65366,Germany,49.9833,7.96667
2518,Miesbach,83714,Germany,47.7833,11.8333
2519,Schwaigern,74193,Germany,49.1439,9.055
2520,Gräfenhainichen,06773,Germany,51.72994,12.45368
2521,Wittingen,29378,Germany,52.72888,10.7352100000001
2522,Wittingen,29379,Germany,52.72888,10.7352100000001
2523,Bad Dürrenberg,06231,Germany,51.2944990071286,12.0692320053099
2524,Wolmirstedt,39326,Germany,52.31922,11.60554
2525,Trostberg,83308,Germany,48.0333,12.55
2526,Marktheidenfeld,97828,Germany,49.8442,9.60389
2527,Bad Schwalbach,65307,Germany,50.1333,8.06667
2528,Ochsenfurt,97199,Germany,49.65,10.0833
2529,Rheinau,77866,Germany,48.6667,7.93333
2530,Mülheim-Kärlich,56218,Germany,50.3833,7.5
2531,Welzheim,73642,Germany,48.8833,9.65
2532,Bad Nenndorf,31542,Germany,52.3407,9.36717
2533,Herbolzheim,79336,Germany,48.2217,7.7718
2534,Schöningen,38364,Germany,52.13791,10.96572
2535,Engen,78234,Germany,47.85,8.76667
2536,Balve,58802,Germany,51.33106,7.86437000000001
2537,Diez,65582,Germany,50.4,7.98333
2538,Osterwieck,38835,Germany,51.9811325908121,10.5984550476073
2539,Braunfels,35619,Germany,50.5009,8.39557
2540,Gengenbach,77723,Germany,48.4,8.01667
2541,Lorch,73547,Germany,48.8,9.68333
2542,Lorch,65391,Germany,50.0833,7.81667
2543,Isselburg,46419,Germany,51.83301,6.46408
2544,Waldkirchen,94065,Germany,48.7333,13.6
2545,Waldkirchen,09437,Germany,50.7667,13.1167
2546,Waldkirchen,08485,Germany,50.5667,12.3667
2547,Regen,94209,Germany,48.9667,13.1333
2548,Hammelburg,97762,Germany,50.11817,9.89184
2549,Wildau,15745,Germany,52.32653,13.62662
2550,Haigerloch,72401,Germany,48.3667,8.8
2551,Rutesheim,71277,Germany,48.8,8.95
2552,Altensteig,72213,Germany,48.5833,8.6
2553,Donzdorf,73072,Germany,48.6833,9.81667
2554,Gernsheim,64579,Germany,49.76,8.49583
2555,Meßstetten,72469,Germany,48.1833,8.96667
2556,Rüthen,59602,Germany,51.49274,8.43655999999999
2557,Riedlingen,88499,Germany,48.15,9.45
2558,Glückstadt,25348,Germany,53.788403,9.423933
2559,Lichtenau,33165,Germany,51.61648,8.89581999999996
2560,Lichtenau,91586,Germany,49.2833,10.7
2561,Lichtenau,77839,Germany,48.7333,8.01667
2562,Lichtenau,97840,Germany,49.95,9.45
2563,Lichtenau,09244,Germany,50.9083,12.9917
2564,Lichtenau,08318,Germany,50.5333,12.5333
2565,Langenzenn,90579,Germany,49.5,10.8
2566,Eisenberg,07607,Germany,50.95,11.8333
2567,Eisenberg,67304,Germany,49.5764,8.05972
2568,Eisenberg,87637,Germany,47.6,10.6
2569,Schleusingen,98553,Germany,50.5275,10.7629
2570,Felsberg,34587,Germany,51.1333,9.41667
2571,Kenzingen,79341,Germany,48.2,7.76667
2572,Olbernhau,09526,Germany,50.6667,13.3333
2573,Bad Iburg,49186,Germany,52.15479,8.04529000000002
2574,Tangerhütte,39517,Germany,52.34104,11.85533
2575,Barmstedt,25355,Germany,53.783780787891,9.80737869782444
2576,Bad Staffelstein,96231,Germany,50.1,10.9833
2577,Flöha,09557,Germany,50.8561,13.0741
2578,Büdelsdorf,24782,Germany,54.31408,9.66324
2579,Gommern,39245,Germany,52.04664,11.8285100000001
2580,Nossen,01683,Germany,51.1116,13.3109
2581,Grevesmühlen,23936,Germany,53.8422,11.04943
2582,Burgstädt,09217,Germany,50.9167,12.8167
2583,Braunsbedra,06242,Germany,51.2947941990923,11.8530899047851
2584,Bad Wildbad,75323,Germany,48.75,8.55
2585,Tangermünde,39590,Germany,52.54993,11.9706
2586,Nieder-Olm,55268,Germany,49.9142,8.21333
2587,Demmin,17109,Germany,53.90592,13.04979
2588,Bad Orb,63619,Germany,50.2279,9.3478
2589,Querfurt,06268,Germany,51.3930382282626,11.6534820739746
2590,Lollar,35457,Germany,50.65,8.7
2591,Wildberg,72218,Germany,48.62511,8.74518
2592,Wildberg,16845,Germany,52.82585,12.40418
2593,Wildberg,83364,Germany,47.843977,12.734224
2594,Burgau,89331,Germany,48.4333,10.4
2595,Aulendorf,88326,Germany,47.95,9.63333
2596,Werlte,49757,Germany,52.8165962534177,7.61418091003418
2597,Nideggen,52385,Germany,50.7,6.48333
2598,Süßen,73079,Germany,48.6833,9.76667
2599,Niebüll,25899,Germany,54.8241884491,8.8613271188
2600,Bleicherode,99752,Germany,51.45293,10.5196599999999
2601,Bogen,94327,Germany,48.9167,12.6833
2602,Rehburg-Loccum,31547,Germany,52.4508,9.20787
2603,Blumberg,78176,Germany,47.8333,8.53333
2604,Blumberg,16306,Germany,53.14884,14.21521
2605,Blumberg,16356,Germany,52.64937,13.72258
2606,Münchberg,95213,Germany,50.2,11.7833
2607,Schotten,63679,Germany,50.5,9.13333
2608,Beilngries,92339,Germany,49.0353,11.4733
2609,Wahlstedt,23812,Germany,53.95291,10.21456
2610,Friedrichsthal,66299,Germany,49.3167,7.1
2611,Friedrichsthal,99735,Germany,51.46823,10.74558
2612,Niddatal,61194,Germany,50.2833,8.83333
2613,Rüdesheim am Rhein,65385,Germany,49.9833,7.91667
2614,Aichtal,72631,Germany,48.6333,9.26667
2615,Meuselwitz,04610,Germany,51.0546,12.3563
2616,Meuselwitz,04680,Germany,51.1333,12.8167
2617,Heubach,73540,Germany,48.7927,9.9337
2618,Bad König,64732,Germany,49.7431,9.00861
2619,Mengen,88512,Germany,48.05,9.33333
2620,Pasewalk,17309,Germany,53.47235,13.97754
2621,Heilsbronn,91560,Germany,49.3333,10.8
2622,Gudensberg,34281,Germany,51.1833,9.36667
2623,Bad Ems,56130,Germany,50.3333,7.71667
2624,Trebbin,14959,Germany,52.23669,13.1302
2625,Schlitz,36110,Germany,50.6667,9.56667
2626,Bad Liebenzell,75378,Germany,48.7667,8.73333
2627,Klötze,38486,Germany,52.56471,11.13311
2628,Bad Breisig,53498,Germany,50.4833,7.23333
2629,Bockenem,31167,Germany,52.00976,10.13298
2630,Großröhrsdorf,01900,Germany,51.16536,14.06299
2631,Altlandsberg,15345,Germany,52.53801,13.81836
2632,Brandis,04821,Germany,51.3180269028845,12.5845623943307
2633,Fürstenau,49584,Germany,52.51811,7.67391999999995
2634,Fürstenau,01778,Germany,50.75663,13.7907299999999
2635,Bleckede,21354,Germany,53.28701,10.7323
2636,Visselhövede,27374,Germany,52.9866701,9.58362
2637,Laubach,35321,Germany,50.55,8.98333
2638,Laubach,56759,Germany,50.25,7.06667
2639,Osthofen,67574,Germany,49.7078,8.32889
2640,Ohrdruf,99885,Germany,50.8167,10.7833
2641,Wilkau-Haßlau,08112,Germany,50.6667,12.5167
2642,Mittenwalde,15749,Germany,52.26626,13.53329
2643,Dassel,37586,Germany,51.80087,9.68829000000005
2644,Bad Gandersheim,37581,Germany,51.870662,10.024588
2645,Kemberg,06901,Germany,51.81049,12.77711
2646,Luckau,15926,Germany,51.89088,13.61268
2647,Luckau,29487,Germany,52.92427,11.04552
2648,Hemau,93155,Germany,49.0533,11.7822
2649,Runkel,65594,Germany,50.4,8.16667
2650,Wertingen,86637,Germany,48.5333,10.6333
2651,Bad Bevensen,29549,Germany,53.07956,10.58218
2652,Höhr-Grenzhausen,56203,Germany,50.4333,7.66667
2653,Miltenberg,63897,Germany,49.7039,9.26444
2654,Ichenhausen,89335,Germany,48.3667,10.3167
2655,Rehau,95111,Germany,50.25,12.0333
2656,Obernkirchen,31683,Germany,52.2665,9.11775
2657,Heiligenhafen,23774,Germany,54.37243,10.97918
2658,Grimmen,18507,Germany,54.09094,13.01477
2659,Sebnitz,01855,Germany,50.94301,14.24472
2660,Zwenkau,04442,Germany,51.2175,12.324167
2661,Lügde,32676,Germany,51.96102,9.24870999999996
2662,Bad Liebenwerda,04924,Germany,51.5123,13.35296
2663,Tecklenburg,49545,Germany,52.22019,7.81206999999995
2664,Nittenau,93149,Germany,49.1992,12.2725
2665,Wunsiedel,95632,Germany,50.0333,12.0167
2666,Weißenthurm,56575,Germany,50.4167,7.45
2667,Kyritz,16866,Germany,52.97835,12.24995
2668,Zörbig,06780,Germany,51.62816,12.1197099999999
2669,Niesky,02906,Germany,51.3165390632738,14.7015449523926
2670,Freystadt,92342,Germany,49.2006,11.3294
2671,Elsfleth,26931,Germany,53.23785,8.45695999999998
2672,Sassnitz,18546,Germany,54.49743,13.58208
2673,Brand-Erbisdorf,09618,Germany,50.8667,13.3333
2674,Rain,86641,Germany,48.6833,10.9
2675,Rain,94369,Germany,48.9,12.4667
2676,Mendig,56743,Germany,50.35,7.28333
2677,Kandel,76870,Germany,49.0892,8.18417
2678,Borgholzhausen,33829,Germany,52.10125,8.30070000000001
2679,Ochsenhausen,88416,Germany,48.0667,9.98333
2680,Zwiesel,94227,Germany,49.0167,13.2333
2681,Elze,31008,Germany,52.12122,9.73824000000002
2682,Berching,92334,Germany,49.1064,11.4404
2683,Plön,24306,Germany,54.1401533602515,10.4899364556551
2684,Waldheim,04736,Germany,51.0667,13.0167
2685,Torgelow,17358,Germany,53.6751,14.0388
2686,Torgelow,17192,Germany,53.5056752356192,12.8741554077149
2687,Bad Schussenried,88427,Germany,48.006,9.65828
2688,Furth im Wald,93437,Germany,49.3097,12.84
2689,Breckerfeld,58339,Germany,51.2605773442002,7.46800037567141
2690,Ortenberg,63683,Germany,50.35,9.05
2691,Ortenberg,77799,Germany,48.45,7.96667
2692,Bad Lauchstädt,06246,Germany,51.3860318642443,11.8671661376953
2693,Hemmoor,21745,Germany,53.69002,9.15252
2694,Ballenstedt,06493,Germany,51.60828,11.11485
2695,Neuötting,84524,Germany,48.2333,12.7
2696,Bersenbrück,49593,Germany,52.5521397775771,7.94440215881355
2697,Vallendar,56179,Germany,50.4,7.61667
2698,Florstadt,61197,Germany,50.3167,8.86667
2699,Hallstadt,96103,Germany,49.9333,10.8833
2700,Volkach,97332,Germany,49.8667,10.2333
2701,Naunhof,04683,Germany,51.2784681382148,12.5917602539063
2702,Rauenberg,69231,Germany,49.2697,8.70417
2703,Waldenbuch,71111,Germany,48.6333,9.13333
2704,Barth,18356,Germany,54.38122,12.78087
2705,Borgentreich,34434,Germany,51.57062,9.23831999999993
2706,Doberlug-Kirchhain,03253,Germany,51.5983205923862,13.4892711639404
2707,Nierstein,55283,Germany,49.8753,8.34667
2708,Tirschenreuth,95643,Germany,49.8825,12.3331
2709,Penig,09322,Germany,50.9333,12.7167
2710,Kappeln,24376,Germany,54.63036,9.93159
2711,Kappeln,67744,Germany,49.6,7.71667
2712,Meßkirch,88605,Germany,47.9833,9.11667
2713,Barntrup,32683,Germany,51.99051,9.11617000000001
2714,Mansfeld,06343,Germany,51.59797,11.45904
2715,Bad Sooden-Allendorf,37242,Germany,51.270548154497,9.97341655548098
2716,Lützen,06686,Germany,51.2161354919955,12.1838149841309
2717,Hainichen,09661,Germany,51.0,13.0667
2718,Hainichen,07778,Germany,50.9833,11.5833
2719,Staufenberg,35460,Germany,50.6667,8.71667
2720,Großbottwar,71723,Germany,49.0025,9.2925
2721,Kuppenheim,76456,Germany,48.8333,8.25
2722,Viechtach,94234,Germany,49.0792,12.8847
2723,Helmbrechts,95233,Germany,50.2333,11.7
2724,Neuenbürg,75305,Germany,48.8333,8.58333
2725,Kandern,79400,Germany,47.7167,7.66667
2726,Teterow,17166,Germany,53.6824,12.56654
2727,Schieder-Schwalenberg,32816,Germany,51.89829,9.16908000000001
2728,Wissen,57537,Germany,50.8,7.68333
2729,Premnitz,14727,Germany,52.53478,12.3474699999999
2730,Möckmühl,74219,Germany,49.325,9.35778
2731,Bönnigheim,74357,Germany,49.0406,9.09278
2732,Leisnig,04703,Germany,51.1,12.9667
2733,Arnstein,97450,Germany,49.978,9.9638
2734,Arnstein,56379,Germany,50.3333,7.83333
2735,Wörrstadt,55286,Germany,49.8486,8.12417
2736,Herrieden,91567,Germany,49.2333,10.5167
2737,Weida,07570,Germany,50.7667,12.0667
2738,Knittlingen,75438,Germany,49.0275,8.75389
2739,Grafenau,94475,Germany,48.8577,13.3974
2740,Grafenau,94481,Germany,48.8577,13.3974
2741,Grafenau,71120,Germany,48.717,8.8979
2742,Kellinghusen,25548,Germany,53.923233,9.681892
2743,Willebadessen,34439,Germany,51.62488,9.02957000000004
2744,Bad Herrenalb,76332,Germany,48.8,8.43333
2745,Bad Lausick,04651,Germany,51.1,12.6333
2746,Dornstetten,72280,Germany,48.45,8.5
2747,Könnern,06420,Germany,51.63168,11.8376900000001
2748,Kirchberg,08107,Germany,50.6167,12.5333
2749,Kirchberg,71737,Germany,48.95,9.33333
2750,Kirchberg,84434,Germany,48.4,12.05
2751,Kirchberg,55481,Germany,49.9667,7.35
2752,Kirchberg,88486,Germany,48.1333,10.0833
2753,Kirchberg,74592,Germany,49.2014,9.98139
2754,Bad Schmiedeberg,06905,Germany,51.7251,12.69277
2755,Daun,54550,Germany,50.2,6.83333
2756,Ramstein-Miesenbach,66877,Germany,49.45,7.55
2757,Hermsdorf,07629,Germany,50.85,11.9
2758,Hermsdorf,15748,Germany,52.10905,13.7650599999999
2759,Hermsdorf,01776,Germany,50.76541,13.62506
2760,Hermsdorf,01945,Germany,51.4511232647991,13.9355315979004
2761,Baiersdorf,91083,Germany,49.66,11.0303
2762,Neresheim,73450,Germany,48.75,10.35
2763,Teuchern,06682,Germany,51.1167,12.0667
2764,Medebach,59964,Germany,51.2,8.71667
2765,Bützow,18246,Germany,53.95419,11.89563
2766,Ransbach-Baumbach,56235,Germany,50.4667,7.71667
2767,Schweich,54338,Germany,49.8,6.78333
2768,Lößnitz,08294,Germany,50.6167,12.7167
2769,Kirchheimbolanden,67292,Germany,49.6725,8.01889
2770,Oberkochen,73447,Germany,48.7839,10.1055
2771,Rheinsberg,16831,Germany,53.09669,12.8971300000001
2772,Hüfingen,78183,Germany,47.9167,8.48333
2773,Klingenthal,08248,Germany,50.3667,12.4667
2774,Altenberg,01773,Germany,50.7642027700597,13.7577736083986
2775,Elsterwerda,04910,Germany,51.49101,13.50815
2776,Bad Düben,04849,Germany,51.594443525229,12.5893004074096
2777,Treuen,08233,Germany,50.55,12.3
2778,Kremmen,16766,Germany,52.76215,13.03128
2779,Gerolstein,54568,Germany,50.2167,6.66667
2780,Bad Liebenstein,36448,Germany,50.8167,10.3667
2781,Bad Sulza,99518,Germany,51.0718,11.5856
2782,Teublitz,93158,Germany,49.2231,12.0883
2783,Sontra,36205,Germany,51.0667,9.93333
2784,Löffingen,79843,Germany,47.8833,8.35
2785,Groitzsch,04539,Germany,51.15,12.2833
2786,Breuberg,64747,Germany,49.8,9.06667
2787,Naila,95119,Germany,50.3167,11.7
2788,Hardegsen,37181,Germany,51.65279,9.82824000000005
2789,Allstedt,06542,Germany,51.4335675443198,11.3330425079346
2790,Oppenheim,55276,Germany,49.8372,8.34972
2791,Vohenstrauß,92648,Germany,49.6294,12.3342
2792,Gundelsheim,74831,Germany,49.2844,9.16194
2793,Gundelsheim,96163,Germany,49.9333,10.9167
2794,Saarburg,54439,Germany,49.5667,6.36667
2795,Weikersheim,97990,Germany,49.4806,9.905
2796,Treuenbrietzen,14929,Germany,52.07528,12.80856
2797,Münnerstadt,97702,Germany,50.25,10.1833
2798,Eisfeld,98673,Germany,50.4667,10.85
2799,Otterndorf,21762,Germany,53.77811,8.94164
2800,Parsberg,92331,Germany,49.1608,11.7206
2801,Renchen,77871,Germany,48.5833,8.01667
2802,Leipheim,89340,Germany,48.4333,10.2
2803,Bad Berka,99438,Germany,50.9333,11.35
2804,Laufen,83410,Germany,47.95,12.9333
2805,Roßwein,04741,Germany,51.0833,13.15
2806,Ebern,96106,Germany,50.0833,10.8
2807,Elzach,79215,Germany,48.2,8.03333
2808,Pulsnitz,01896,Germany,51.18342,14.01572
2809,Bad Sachsa,37441,Germany,51.5968435140671,10.5559258306885
2810,Meldorf,25704,Germany,54.11262,9.0532
2811,Esens,26427,Germany,53.6574,7.71785
2812,Bad Wimpfen,74206,Germany,49.2272,9.15972
2813,Malchin,17139,Germany,53.76891,12.83336
2814,Radeburg,01471,Germany,51.2131855840929,13.7233858306885
2815,Königsee,07426,Germany,50.65,11.1667
2816,Markneukirchen,08258,Germany,50.3167,12.3167
2817,Scheßlitz,96110,Germany,49.9767,11.0339
2818,Dettelbach,97337,Germany,49.8,10.1833
2819,Zwingenberg,64673,Germany,49.7264,8.61861
2820,Zwingenberg,69439,Germany,49.4192,9.04056
2821,Freyung,94078,Germany,48.8,13.55
2822,Gedern,63688,Germany,50.4333,9.2
2823,Friedrichroda,99894,Germany,50.8619,10.6333
2824,Bernkastel-Kues,54470,Germany,49.9167,6.98333
2825,Wriezen,16269,Germany,52.72005,14.13328
2826,Greding,91171,Germany,49.0483,11.3614
2827,Eibenstock,08309,Germany,50.5167,12.6
2828,Birkenfeld,55765,Germany,49.6667,7.2
2829,Birkenfeld,97834,Germany,49.8586,9.69556
2830,Birkenfeld,75217,Germany,48.8667,8.63333
2831,Müncheberg,15374,Germany,52.56591,14.18531
2832,Immenhausen,34376,Germany,51.42814,9.47735
2833,Neustadt-Glewe,19306,Germany,53.37474,11.59163
2834,Moringen,37186,Germany,51.69903,9.8691
2835,Ilshofen,74532,Germany,49.17,9.91889
2836,Polch,56751,Germany,50.2667,7.28333
2837,Geiselhöring,94333,Germany,48.8333,12.3833
2838,Ebermannstadt,91320,Germany,49.7822,11.1811
2839,Nortorf,24589,Germany,54.1930774566587,9.84013468170718
2840,Neukirchen,34626,Germany,50.8667,9.33333
2841,Neukirchen,09221,Germany,50.7833,12.8667
2842,Neukirchen,94362,Germany,48.9833,12.7667
2843,Neukirchen,93453,Germany,49.2667,12.9667
2844,Neukirchen,08459,Germany,50.8,12.3667
2845,Neukirchen,92259,Germany,49.5333,11.6333
2846,Neukirchen,09629,Germany,51.0,13.3667
2847,Neukirchen,25927,Germany,54.8663281105,8.73749847567
2848,Neukirchen,23779,Germany,54.32357,11.01893
2849,Neukirchen,94154,Germany,48.6833,13.3833
2850,Neukirchen,39615,Germany,52.98386,11.67768
2851,Gröditz,01609,Germany,51.3691113511446,13.392618560791
2852,Schelklingen,89601,Germany,48.3667,9.73333
2853,Gerbstedt,06347,Germany,51.62426,11.68672
2854,Gau-Algesheim,55435,Germany,49.9656,8.02944
2855,Gerolzhofen,97447,Germany,49.9,10.35
2856,Dietenheim,89165,Germany,48.2167,10.0667
2857,Horstmar,48612,Germany,52.0811374329495,7.30774360839837
2858,Dingelstädt,37351,Germany,51.3426017014092,10.2566947937012
2859,Hecklingen,39444,Germany,51.84734,11.53491
2860,Hermeskeil,54411,Germany,49.65,6.95
2861,Hartha,04746,Germany,51.1,12.9667
2862,Jerichow,39319,Germany,52.46736,12.07546
2863,Geithain,04643,Germany,51.05,12.7167
2864,Waldeck,34513,Germany,51.2,9.06667
2865,Waldeck,76857,Germany,49.15,7.93333
2866,Volkmarsen,34471,Germany,51.40746,9.11826999999994
2867,Böhlen,04564,Germany,51.2,12.3833
2868,Böhlen,98701,Germany,50.6,11.05
2869,Böhlen,01594,Germany,51.263160836931,13.3930047988891
2870,Kahla,07768,Germany,50.7833,11.5167
2871,Kahla,04928,Germany,51.4677426509562,13.6213348571778
2872,Rodalben,66976,Germany,49.2333,7.63333
2873,Römhild,98630,Germany,50.373539798946,10.552614795915
2874,Römhild,98631,Germany,50.373539798946,10.552614795915
2875,Glashütte,01768,Germany,50.85184,13.7750599999999
2876,Glashütte,92690,Germany,49.7667,11.9333
2877,Glashütte,14827,Germany,52.05584,12.38315
2878,Buttstädt,99628,Germany,51.1417,11.4583
2879,Boxberg,97944,Germany,49.4814,9.64028
2880,Boxberg,02943,Germany,51.4035875763178,14.5776004974365
2881,Boxberg,54552,Germany,50.1833,6.95
2882,Edenkoben,67480,Germany,49.2917,8.12028
2883,Uffenheim,97215,Germany,49.5667,10.2667
2884,Neuenstein,74632,Germany,49.2883,9.56278
2885,Neuenstein,36286,Germany,50.9333,9.55
2886,Waldsassen,95652,Germany,50.005,12.3028
2887,Herdorf,57562,Germany,50.7667,7.95
2888,Waldmünchen,93449,Germany,49.3786,12.7042
2889,Maulbronn,75433,Germany,49.0008,8.80778
2890,Osterburken,74706,Germany,49.4306,9.42389
2891,Blankenhain,99444,Germany,50.85,11.35
2892,Vilseck,92249,Germany,49.61,11.8019
2893,Artern,06556,Germany,51.36827,11.22142
2894,Bad Brückenau,97769,Germany,50.3,9.8
2895,Annaburg,06925,Germany,51.69516,12.99744
2896,Zierenberg,34289,Germany,51.367940961204,9.30118100524896
2897,Malchow,17213,Germany,53.47906,12.51016
2898,Pegau,04523,Germany,51.15,12.2333
2899,Rodenberg,31552,Germany,52.3023,9.31588
2900,Bad Sobernheim,55566,Germany,49.7833,7.65
2901,Grafenwöhr,92655,Germany,49.7189,11.9067
2902,Laage,18299,Germany,53.91232,12.1953599999999
2903,Burgkunstadt,96224,Germany,50.1333,11.25
2904,Rosenfeld,72348,Germany,48.2833,8.71667
2905,Heitersheim,79423,Germany,47.8833,7.66667
2906,Friedland,17098,Germany,53.67119,13.5550499999999
2907,Friedland,09634,Germany,50.9667,13.2833
2908,Friedland,37133,Germany,51.42027,9.91304000000002
2909,Arnstein,06456,Germany,51.7271,11.51404
2910,Güglingen,74363,Germany,49.0697,8.99444
2911,Bad Rodach,96476,Germany,50.3333,10.7833
2912,Havelberg,39539,Germany,52.82772,12.07855
2913,Thannhausen,86470,Germany,48.2833,10.4667
2914,Neumarkt-Sankt Veit,84494,Germany,48.312654,12.506073
2915,Wittenburg,19243,Germany,53.46441,11.10842
2916,Geisingen,78187,Germany,47.9167,8.63333
2917,Gammertingen,72501,Germany,48.25,9.21667
2918,Trochtelfingen,72818,Germany,48.3,9.25
2919,Großalmerode,37247,Germany,51.25835,9.78517999999997
2920,Rodewisch,08228,Germany,50.5333,12.4167
2921,Rötha,04571,Germany,51.2,12.4
2922,Neuffen,72639,Germany,48.55,9.36667
2923,Kölleda,99625,Germany,51.2167,11.3
2924,Nabburg,92507,Germany,49.4536,12.1786
2925,Beilstein,71717,Germany,49.0394,9.315
2926,Beilstein,56814,Germany,50.2,7.2
2927,Alpirsbach,72275,Germany,48.3333,8.41667
2928,Hachenburg,57627,Germany,50.65,7.83333
2929,Lübz,19386,Germany,53.50029,12.0096599999999
2930,Wassertrüdingen,91717,Germany,49.05,10.6
2931,Windsbach,91575,Germany,49.25,10.8167
2932,Dornhan,72175,Germany,48.35,8.5
2933,Riedenburg,93339,Germany,48.9667,11.6833
2934,Biesenthal,16359,Germany,52.76142,13.6478099999999
2935,Bad Blankenburg,07422,Germany,50.6833,11.1667
2936,Nieheim,33039,Germany,51.80575,9.11682999999994
2937,Marne,25709,Germany,53.9511274906169,9.00880578749451
2938,Spangenberg,34286,Germany,51.1167,9.66667
2939,Meersburg,88709,Germany,47.7,9.26667
2940,Schlüsselfeld,96132,Germany,49.7667,10.6333
2941,Haiterbach,72221,Germany,48.5333,8.65
2942,Bad Hönningen,53557,Germany,50.5167,7.31667
2943,Norderney,26548,Germany,53.7072,7.14695
2944,Bräunlingen,78199,Germany,47.9333,8.45
2945,Geislingen,72351,Germany,48.2833,8.81667
2946,Geislingen,73312,Germany,48.6242,9.8274
2947,Gransee,16775,Germany,53.00562,13.15121
2948,Treffurt,99830,Germany,51.1363698991576,10.2337291534424
2949,Schrozberg,74575,Germany,49.3453,9.97944
2950,Oberlungwitz,09353,Germany,50.7833,12.7167
2951,Tittmoning,84529,Germany,48.063158,12.766593
2952,Dierdorf,56269,Germany,50.55,7.66667
2953,Neubulach,75387,Germany,48.65,8.7
2954,Greußen,99718,Germany,51.2298430150599,10.9707710266114
2955,Herrnhut,02747,Germany,51.02761,14.75638
2956,Wemding,86650,Germany,48.8667,10.7167
2957,Münzenberg,35516,Germany,50.45,8.78333
2958,Westerburg,56457,Germany,50.5667,7.98333
2959,Hausach,77756,Germany,48.2833,8.16667
2960,Grebenstein,34393,Germany,51.44711,9.40971999999999
2961,Leun,35638,Germany,50.55,8.36667
2962,Kaltennordheim,36452,Germany,50.6333,10.1667
2963,Wolfach,77709,Germany,48.3167,8.21667
2964,Waibstadt,74915,Germany,49.2981,8.91917
2965,Braunlage,38700,Germany,51.72513,10.61041
2966,Leutershausen,91578,Germany,49.3,10.4167
2967,Bredstedt,25821,Germany,54.5935829601572,8.99120628833772
2968,Rochlitz,09306,Germany,51.05,12.8
2969,Stadtoldendorf,37627,Germany,51.8666,9.57041000000004
2970,Kusel,66869,Germany,49.55,7.36667
2971,Traben-Trarbach,56841,Germany,49.95,7.11667
2972,Kemnath,95478,Germany,49.8689,11.895
2973,Schöppenstedt,38170,Germany,52.17488,10.7621799999999
2974,Hirschau,92242,Germany,49.545,11.9508
2975,Hirschau,83362,Germany,47.871453,12.866903
2976,Bodenwerder,37619,Germany,51.96307,9.57236
2977,Stolpen,01833,Germany,51.04894,14.07902
2978,Großschirma,09603,Germany,50.9667,13.2833
2979,Wirges,56422,Germany,50.4667,7.8
2980,Mellrichstadt,97638,Germany,50.4333,10.3167
2981,Grabow,19300,Germany,53.26244,11.81313
2982,Grabow,16909,Germany,53.05835,12.43637
2983,Grabow,16945,Germany,53.31755,12.14571
2984,Grabow,17209,Germany,53.4449393888079,12.5571239471435
2985,Grabow,14823,Germany,52.07319833123,12.6944639205933
2986,Grabow,14778,Germany,52.51273,12.64399
2987,Abenberg,91183,Germany,49.25,10.9667
2988,Schwarzheide,01987,Germany,51.4823378820003,13.8672149841309
2989,Heimsheim,71296,Germany,48.8,8.85
2990,Hagenbach,76767,Germany,49.0261,8.2375
2991,Niedenstein,34305,Germany,51.2344353058268,9.31176692192071
2992,Prüm,54595,Germany,50.2333,6.41667
2993,Wasungen,98634,Germany,50.6,10.2333
2994,Neudenau,74861,Germany,49.2936,9.27028
2995,Tharandt,01737,Germany,50.9865689686463,13.5776351745606
2996,Gadebusch,19205,Germany,53.75891,11.25135
2997,Stühlingen,79780,Germany,47.7333,8.43333
2998,Velburg,92355,Germany,49.2333,11.6833
2999,Ellrich,99755,Germany,51.58665,10.6628499999999
3000,Munderkingen,89597,Germany,48.2167,9.63333
3001,Otterberg,67697,Germany,49.5,7.76667
3002,Eltmann,97483,Germany,49.9667,10.6667
3003,Seelow,15306,Germany,52.5150783488059,14.3140141693116
3004,Ruhla,99842,Germany,50.8833,10.3667
3005,Monheim,86653,Germany,48.8333,10.8333
3006,Monheim,40789,Germany,51.1,6.89167
3007,Mahlberg,77972,Germany,48.2833,7.81667
3008,Burg Stargard,17094,Germany,53.45782,13.28886
3009,Rockenhausen,67806,Germany,49.6333,7.73333
3010,Pfreimd,92536,Germany,49.5006,12.1983
3011,Lütjenburg,24321,Germany,54.3204513980808,10.6709281380653
3012,Külsheim,97900,Germany,49.6697,9.5225
3013,Forchtenberg,74670,Germany,49.2883,9.56278
3014,Pottenstein,91278,Germany,49.7722,11.4092
3015,Waldmohr,66914,Germany,49.3833,7.33333
3016,Cochem,56812,Germany,50.1333,7.15
3017,Diemelstadt,34474,Germany,51.47501,9.00898000000007
3018,Altentreptow,17087,Germany,53.7321185563838,13.243018777771
3019,Kitzscher,04567,Germany,51.1667,12.5667
3020,Adelsheim,74740,Germany,49.4036,9.39333
3021,Freren,49832,Germany,52.49884,7.48971000000006
3022,Spalt,91174,Germany,49.1667,10.9167
3023,Lindenfels,64678,Germany,49.685,8.78306
3024,Schwaan,18258,Germany,53.96341,12.0252399999999
3025,Creußen,95473,Germany,49.8333,11.6833
3026,Erbendorf,92677,Germany,49.8403,12.0447
3027,Erbendorf,92681,Germany,49.8403,12.0447
3028,Borkum,26757,Germany,53.5858,6.66748
3029,Naumburg,34311,Germany,51.24818,9.16863000000001
3030,Naumburg,06618,Germany,51.05,11.7833
3031,Emmelshausen,56281,Germany,50.15,7.55
3032,Arzberg,95659,Germany,50.0667,12.2
3033,Arzberg,04886,Germany,51.5284677846543,13.1257039840698
3034,Unkel,53572,Germany,50.6,7.25
3035,Vacha,36404,Germany,50.8,10.0667
3036,Thum,09419,Germany,50.6833,12.9667
3037,Hollfeld,96142,Germany,49.9386,11.2925
3038,Amöneburg,35287,Germany,50.8,8.9
3039,Ronneburg,07580,Germany,50.8,12.2
3040,Ronneburg,63549,Germany,50.2278,9.05556
3041,Windischeschenbach,92670,Germany,49.7997,12.1589
3042,Oberviechtach,92526,Germany,49.4667,12.4167
3043,Tönning,25832,Germany,54.3180909829608,8.93713844163407
3044,Marienmünster,37696,Germany,51.8163773142675,9.16658779327395
3045,Freinsheim,67251,Germany,49.5139,8.21
3046,Niederstetten,97996,Germany,49.4,9.91944
3047,Trendelburg,34388,Germany,51.57391,9.42026999999996
3048,Oppenau,77728,Germany,48.47345,8.164299
3049,Kröpelin,18236,Germany,54.00832,11.79963
3050,Todtnau,79674,Germany,47.8333,7.95
3051,Lommatzsch,01623,Germany,51.1116,13.3109
3052,Lauchheim,73466,Germany,48.8667,10.25
3053,Iphofen,97346,Germany,49.6833,10.2833
3054,Niederstotzingen,89168,Germany,48.55,10.2333
3055,Crivitz,19089,Germany,53.5676,11.7538500000001
3056,Schömberg,72355,Germany,48.2167,8.75
3057,Schömberg,75328,Germany,48.7833,8.65
3058,Weismain,96260,Germany,50.0833,11.2333
3059,Scheinfeld,91443,Germany,49.6667,10.4667
3060,Eggesin,17367,Germany,53.6780130300838,14.0822700317383
3061,Tengen,78250,Germany,47.8167,8.66667
3062,Groß-Bieberau,64401,Germany,49.8006,8.83
3063,Lübtheen,19249,Germany,53.30072,11.0832399999999
3064,Schönberg,23923,Germany,53.8174,10.92883
3065,Schönberg,16835,Germany,52.90066,12.98838
3066,Schönberg,24217,Germany,54.4089926501879,10.3452036738397
3067,Schönberg,84573,Germany,48.3333,12.4333
3068,Schönberg,08539,Germany,50.55,12.05
3069,Schönberg,94513,Germany,48.8333,13.3333
3070,Schönberg,22929,Germany,53.61075,10.51186
3071,Wilthen,02681,Germany,51.07636,14.42562
3072,Marlow,18337,Germany,54.1769474531384,12.5438551428223
3073,Herbstein,36358,Germany,50.55,9.35
3074,Krautheim,74238,Germany,49.3864,9.63389
3075,Krautheim,99439,Germany,51.05,11.2167
3076,Müllrose,15299,Germany,52.1497630050779,14.4163251693726
3077,Heideck,91180,Germany,49.1167,11.1167
3078,Creglingen,97993,Germany,49.4667,10.0333
3079,Königsbrück,01936,Germany,51.35554,14.06758
3080,Vellberg,74541,Germany,49.0861,9.88056
3081,Nassau,56377,Germany,50.3167,7.8
3082,Ehrenfriedersdorf,09427,Germany,50.65,12.95
3083,Dahn,66994,Germany,49.15,7.78333
3084,Putbus,18581,Germany,54.315887,13.42442
3085,Augustusburg,09573,Germany,50.8,13.1667
3086,Hallenberg,59969,Germany,51.0833,8.61667
3087,Hartenstein,08118,Germany,50.6683,12.6714
3088,Hartenstein,91235,Germany,49.6167,11.5167
3089,Baumholder,55774,Germany,49.6167,7.33333
3090,Rennerod,56477,Germany,50.65,8.06667
3091,Liebenwalde,16559,Germany,52.87163,13.40158
3092,Schönau,69250,Germany,49.4356,8.80917
3093,Schönau,66996,Germany,49.1667,7.81667
3094,Schönau,79677,Germany,47.8,7.9
3095,Schönau,83471,Germany,47.6,12.9667
3096,Schönau,84337,Germany,48.4833,12.85
3097,Schönau,97659,Germany,50.3833,10.1
3098,Bad Buchau,88422,Germany,48.0667,9.61667
3099,Rauschenberg,35282,Germany,50.8833,8.91667
3100,Dransfeld,37127,Germany,51.45866,9.72702000000004
3101,Rabenau,01734,Germany,50.96391,13.64316
3102,Rabenau,35466,Germany,50.6833,8.86667
3103,Gerabronn,74582,Germany,49.2511,9.92139
3104,Dargun,17159,Germany,53.901911,12.85675
3105,Nastätten,56355,Germany,50.1667,7.83333
3106,Selbitz,95152,Germany,50.3167,11.75
3107,Gefrees,95480,Germany,50.1,11.75
3108,Gefrees,95482,Germany,50.1,11.75
3109,Heimbach,52396,Germany,50.6333,6.48333
3110,Heimbach,55779,Germany,49.5833,7.21667
3111,Hornberg,78132,Germany,48.2167,8.23333
3112,Woldegk,17348,Germany,53.4787532391702,13.4309141693116
3113,Waldkappel,37284,Germany,51.14585,9.8768
3114,Loitz,17121,Germany,54.0000756749505,13.1832900846557
3115,Gräfenberg,91322,Germany,49.65,11.25
3116,Waldershof,95679,Germany,49.9833,12.0667
3117,Daaden,57567,Germany,50.7333,7.96667
3118,Dahlen,04774,Germany,51.3640741621165,12.9962663650513
3119,Dahlen,14793,Germany,52.24516,12.31013
3120,Dahlen,39579,Germany,52.50601,11.85559
3121,Schnaittenbach,92253,Germany,49.55,12.0167
3122,Wanfried,37281,Germany,51.1833,10.1667
3123,Penzlin,17217,Germany,53.53432,13.06787
3124,Geringswalde,09326,Germany,51.0833,12.9167
3125,Neckarbischofsheim,74924,Germany,49.2953,8.96333
3126,Brück,14822,Germany,52.11413,12.82087
3127,Lunzenau,09328,Germany,50.95,12.7667
3128,Dassow,23942,Germany,53.90075,10.9746299999999
3129,Niedernhall,74676,Germany,49.2914,9.62167
3130,Sternberg,19406,Germany,53.6389,11.91905
3131,Güsten,39439,Germany,51.78057,11.5995800000001
3132,Neukloster,23992,Germany,53.86367,11.61439
3133,Marktbreit,97340,Germany,49.6167,10.15
3134,Ellingen,91792,Germany,49.0667,10.9667
3135,Neubukow,18233,Germany,54.03283,11.57417
3136,Amorbach,63916,Germany,49.6442,9.22028
3137,Baunach,96148,Germany,49.9833,10.85
3138,Neckarsteinach,69239,Germany,49.4086,8.83861
3139,Waldenburg,08396,Germany,50.8833,12.5
3140,Waldenburg,74638,Germany,49.1875,9.64222
3141,Tessin,18195,Germany,54.03514,12.5987700000001
3142,Tessin,19412,Germany,53.71757,11.7510600000001
3143,Seßlach,96145,Germany,50.1833,10.85
3144,Pappenheim,91788,Germany,48.9333,10.9667
3145,St. Blasien,79837,Germany,47.7333,8.06667
3146,Hoya,27318,Germany,52.8065,9.13957
3147,Mirow,17252,Germany,53.27331,12.8168900000001
3148,Wolkenstein,09429,Germany,50.65,13.0833
3149,Regis-Breitingen,04565,Germany,51.0833,12.45
3150,Netzschkau,08491,Germany,50.5833,12.25
3151,Elsterberg,07985,Germany,50.6,12.1667
3152,Johanngeorgenstadt,08349,Germany,50.4333,12.7333
3153,Schiltach,77761,Germany,48.2833,8.35
3154,Kindelbrück,99638,Germany,51.229914069533,11.1301242645263
3155,Deidesheim,67146,Germany,49.4092,8.18778
3156,Vöhrenbach,78147,Germany,48.05,8.3
3157,Steinach,96523,Germany,50.4333,11.1667
3158,Steinach,77790,Germany,48.3,8.05
3159,Steinach,94377,Germany,48.95,12.6167
3160,Tegernsee,83684,Germany,47.7167,11.7667
3161,Speicher,54662,Germany,49.95,6.7
3162,Grünsfeld,97947,Germany,49.6083,9.74389
3163,Strehla,01616,Germany,51.3525730412832,13.2258327301025
3164,Triptis,07819,Germany,50.7667,11.7833
3165,Seifhennersdorf,02782,Germany,50.93603,14.6061500000001
3166,Bad Elster,08645,Germany,50.2833,12.2333
3167,Weißensee,99631,Germany,51.2255968070865,11.0230026245117
3168,Rehna,19217,Germany,53.72932,11.06597
3169,Bad Karlshafen,34385,Germany,51.6438341210703,9.45622250447286
3170,Wildenfels,08134,Germany,50.6576,12.5829
3171,Lucka,04613,Germany,51.0951,12.3353
3172,Gröningen,39397,Germany,51.96766,11.1202000000001
3173,Eschershausen,37632,Germany,51.9296,9.63922000000002
3174,Burgbernheim,91593,Germany,49.45,10.3167
3175,Wesselburen,25764,Germany,54.21255,8.98353
3176,Tanna,07922,Germany,50.5,11.85
3177,Goldkronach,95497,Germany,50.0167,11.6833
3178,Münstermaifeld,56294,Germany,50.25,7.36667
3179,Gößnitz,04639,Germany,50.895,12.356389
3180,Bad Schandau,01814,Germany,50.9411,14.12853
3181,Bad Köstritz,07586,Germany,50.9333,12.0167
3182,Joachimsthal,16247,Germany,52.97708,13.7439899999999
3183,Owen,73277,Germany,48.5833,9.45
3184,Ulmen,56766,Germany,50.1667,6.98333
3185,Löwenstein,74245,Germany,49.0994,9.38139
3186,Geyer,09468,Germany,50.6,12.95
3187,Oberriexingen,71739,Germany,48.9333,9.03333
3188,Rötz,92444,Germany,49.35,12.5333
3189,Ludwigsstadt,96337,Germany,50.4833,11.4
3190,Kranichfeld,99448,Germany,50.8167,11.2333
3191,Schalkau,96528,Germany,50.4167,10.9833
3192,Hohnstein,01848,Germany,50.97958,14.1141700000001
3193,Neusalza-Spremberg,02742,Germany,51.02508,14.56115
3194,Hillesheim,54576,Germany,50.3,6.66667
3195,Hillesheim,67586,Germany,49.7764,8.25611
3196,Warin,19417,Germany,53.78582,11.57614
3197,Egeln,39435,Germany,51.94922,11.5574300000001
3198,Bad Teinach-Zavelstein,75385,Germany,48.7,8.68333
3199,Kirtorf,36320,Germany,50.7667,9.1
3200,Sonnewalde,03249,Germany,51.6888340936726,13.6472534179687
3201,Lychen,17279,Germany,53.22754,13.26583
3202,Lauscha,98724,Germany,50.5167,11.15
3203,Schönwald,95173,Germany,50.2,12.1
3204,Schönwald,78141,Germany,48.1,8.2
3205,Lebus,15326,Germany,52.4213,14.3875
3206,Stadtsteinach,95346,Germany,50.1667,11.5
3207,Prichsenstadt,97357,Germany,49.8167,10.35
3208,Eibelstadt,97246,Germany,49.7333,10.0
3209,Wolframs-Eschenbach,91639,Germany,49.2333,10.7333
3210,Kirchenlamitz,95153,Germany,50.15,11.95
3211,Kirchenlamitz,95158,Germany,50.15,11.95
3212,Weißenstadt,95163,Germany,50.1,11.8667
3213,Klütz,23948,Germany,53.91561,11.30632
3214,Wesenberg,17255,Germany,53.20742,12.99518
3215,Wesenberg,23858,Germany,53.8334997564433,10.5332127445221
3216,Merkendorf,91732,Germany,49.2,10.7
3217,Merkendorf,07950,Germany,50.6833,12.0
3218,Bärnau,95671,Germany,49.8167,12.4333
3219,Waischenfeld,91344,Germany,49.85,11.35
3220,Bürgel,07616,Germany,50.9833,11.8333
3221,Adenau,53518,Germany,50.3833,6.9
3222,Rhens,56330,Germany,50.3,7.45
3223,Rhens,56321,Germany,50.2833,7.61667
3224,Dömitz,19303,Germany,53.23502,11.13973
3225,Liebenau,34396,Germany,51.49783196324,9.28286705291748
3226,Liebenau,31618,Germany,52.6063866410104,9.08711796295165
3227,Münchenbernsdorf,07589,Germany,50.8,11.9167
3228,Wurzbach,07343,Germany,50.4667,11.5333
3229,Marktleuthen,95168,Germany,50.1333,12.0
3230,Ravenstein,74747,Germany,49.3939,9.5325
3231,Braubach,56338,Germany,50.2833,7.66667
3232,Ulrichstein,35327,Germany,50.5833,9.2
3233,Gützkow,17506,Germany,53.9615496649272,13.386733227539
3234,Jarmen,17126,Germany,53.90865,13.30574
3235,Gnoien,17179,Germany,53.94062,12.77757
3236,Frankenau,35110,Germany,51.1,8.93333
3237,Schillingsfürst,91583,Germany,49.2833,10.2667
3238,Oberwesel,55430,Germany,50.1333,7.71667
3239,Meisenheim,55590,Germany,49.7167,7.66667
3240,Themar,98660,Germany,50.4667,10.6
3241,Elterlein,09481,Germany,50.5333,12.9167
3242,Sulzburg,79295,Germany,47.85,7.71667
3243,Garding,25836,Germany,54.36090446984,8.76124655051221
3244,Frauenstein,09623,Germany,50.80193,13.53678
3245,Romrod,36329,Germany,50.7167,9.21667
3246,Ebeleben,99713,Germany,51.2866820008331,10.7338149841308
3247,Bad Bibra,06647,Germany,51.2167537623061,11.4831497962952
3248,Putlitz,16949,Germany,53.24614,12.04267
3249,Tribsees,18465,Germany,54.0908,12.7605599999999
3250,Schkölen,07619,Germany,51.0,11.7833
3251,Friedrichstadt,25840,Germany,54.3750907340393,9.0913538370846
3252,Wallenfels,96346,Germany,50.2667,11.4667
3253,Lauterstein,73111,Germany,48.7,9.88333
3254,Jöhstadt,09477,Germany,50.5167,13.1
3255,Bad Wilsnack,19336,Germany,52.8913,11.9831
3256,Friesack,14662,Germany,52.67408,12.63903
3257,Rastenberg,99636,Germany,51.1833,11.4167
3258,Betzenstein,91282,Germany,49.6833,11.4167
3259,Golßen,15938,Germany,51.93747,13.59539
3260,Scheer,72516,Germany,48.0667,9.28333
3261,Gefell,07926,Germany,50.4333,11.85
3262,Gefell,96524,Germany,50.35,11.2167
3263,Wegeleben,38828,Germany,51.88284,11.17088
3264,Bad Tennstedt,99955,Germany,51.15,10.75
3265,Osterfeld,06721,Germany,51.0833,11.9833
3266,Dommitzsch,04880,Germany,51.61717,12.8230599999999
3267,Schwanebeck,14806,Germany,52.22085,12.59674
3268,Schwanebeck,16341,Germany,52.64857,13.52551
3269,Schlieben,04936,Germany,51.70818,13.3196
3270,Schönsee,92539,Germany,49.5167,12.55
3271,Krempe,25361,Germany,53.808782,9.477172
3272,Grebenau,36323,Germany,50.75,9.46667
3273,Schlettau,09487,Germany,50.5667,12.95
3274,Pleystein,92714,Germany,49.6455,12.4097
3275,Aach,78267,Germany,47.8511,8.85
3276,Eckartsberga,06648,Germany,51.1167,11.4833
3277,Mainbernheim,97350,Germany,49.71,10.2167
3278,Fladungen,97650,Germany,50.5167,10.15
3279,Ostritz,02899,Germany,51.0621690438272,14.8836921691894
3280,Hayingen,72534,Germany,48.2667,9.48333
3281,Rosenthal,35119,Germany,50.9667,8.88333
3282,Rosenthal,15936,Germany,51.8846,13.37919
3283,Rosenthal,07338,Germany,50.5833,11.5667
3284,Veringenstadt,72519,Germany,48.1833,9.21667
3285,Oderberg,16248,Germany,52.84009,13.93726
3286,Oderberg,83374,Germany,47.9667,12.6
3287,Hirschberg,07927,Germany,50.4,11.8167
3288,Hirschberg,69493,Germany,49.5014,8.661
3289,Hirschberg,65558,Germany,50.35,7.95
3290,Gebesee,99189,Germany,51.1167,11.0
3291,Ortrand,01990,Germany,51.3831928647458,13.7329566772462
3292,Wiesensteig,73349,Germany,48.55,9.63333
3293,Magdala,99441,Germany,50.9167,11.4833
3294,Sachsenhagen,31553,Germany,52.39342,9.28323999999998
3295,Plaue,99338,Germany,50.75,10.8667
3296,Lauterecken,67742,Germany,49.65,7.53333
3297,Marktsteft,97342,Germany,49.69952,10.137076
3298,Teuschnitz,96358,Germany,50.4167,11.4167
3299,Langenburg,74595,Germany,49.2544,9.84583
3300,Rieneck,97794,Germany,50.1,9.65
3301,Schauenstein,95197,Germany,50.2667,11.75
3302,Gräfenthal,98743,Germany,50.5333,11.3
3303,Wolfstein,67752,Germany,49.5667,7.61667
3304,Bacharach,55422,Germany,50.0667,7.76667
3305,Widdern,74259,Germany,49.3194,9.42194
3306,Hettingen,72513,Germany,48.2167,9.23333
3307,Velden,84149,Germany,48.3667,12.25
3308,Penkun,17328,Germany,53.29209,14.27711
3309,Bad Sülze,18334,Germany,54.12268,12.50668
3310,Neukalen,17154,Germany,53.82014,12.78979
3311,Usedom,17406,Germany,53.95668,13.91926
3312,Sayda,09619,Germany,50.7742994449119,13.4158393859864
3313,Röttingen,97285,Germany,49.4944,9.93667
3314,Ornbau,91737,Germany,49.1667,10.65
3315,Lehesten,07349,Germany,50.4667,11.45
3316,Rhinow,14728,Germany,52.74852,12.38297
3317,Oberhof,98559,Germany,50.7167,10.7333
3318,Oberhof,83700,Germany,47.6833333,11.75
3319,Oberhof,72160,Germany,48.4333,8.68333
3320,Stadt Wehlen,01829,Germany,50.95659,14.03179
3321,Stadtprozelten,97909,Germany,49.7881,9.41361
3322,Lassan,17440,Germany,54.0000756749505,13.6904298782349
3323,Hohenleuben,07958,Germany,50.7167,12.05
3324,Aub,97239,Germany,49.55,10.0667
3325,Hornbach,66500,Germany,49.1833,7.4
3326,Manderscheid,54531,Germany,50.1,6.75
3327,Manderscheid,54649,Germany,50.0667,6.36667
3328,Franzburg,18461,Germany,54.14787,12.8957399999999
3329,Lieberose,15868,Germany,51.99296,14.35839
3330,Schwarzenborn,34639,Germany,50.9167,9.45
3331,Schwarzenborn,54533,Germany,50.0833,6.93333
3332,Liebstadt,01825,Germany,50.86102,13.85209
3333,Schraplau,06279,Germany,51.42884,11.57293
3334,Obermoschel,67823,Germany,49.7333,7.76667
3335,Kupferberg,95362,Germany,50.1333,11.5833
3336,Lichtenberg,95192,Germany,50.3833,11.6667
3337,Lichtenberg,09638,Germany,50.83637,13.42197
3338,Lichtenberg,17259,Germany,53.3391,13.4188
3339,Lichtenberg,91807,Germany,48.9,11.0
3340,Lichtenberg,16818,Germany,52.92812,12.74622
3341,Rothenfels,97851,Germany,49.8906,9.59139
3342,Kyllburg,54655,Germany,50.0333,6.58333
3343,Kaub,56349,Germany,50.0833,7.76667
3344,Ziegenrück,07924,Germany,50.6,11.7667
3345,Schnackenburg,29493,Germany,53.0377386056206,11.5618076507568
3346,Neumark,08496,Germany,50.6667,12.35
3347,Ummerstadt,98663,Germany,50.3,10.6333
3348,Arnis,24399,Germany,54.63036,9.93159
3349,Frankfurt am Main,65931,Germany,50.1167,8.68333
3350,Frankfurt am Main,65929,Germany,50.1,8.55
3351,Frankfurt am Main,60549,Germany,50.1167,8.68333
3352,Frankfurt am Main,60529,Germany,50.1167,8.68333
3353,Frankfurt am Main,65936,Germany,50.1167,8.68333
3354,Frankfurt am Main,65934,Germany,50.1167,8.68333
3355,Frankfurt am Main,65933,Germany,50.1,8.6
3356,Frankfurt am Main,60488,Germany,50.1167,8.68333
3357,Frankfurt am Main,60489,Germany,50.1167,8.68333
3358,Frankfurt am Main,60439,Germany,50.1167,8.68333
3359,Frankfurt am Main,60528,Germany,50.1167,8.68333
3360,Frankfurt am Main,60486,Germany,50.1167,8.68333
3361,Frankfurt am Main,60326,Germany,50.1,8.6
3362,Frankfurt am Main,60438,Germany,50.1167,8.68333
3363,Frankfurt am Main,60487,Germany,50.1167,8.68333
3364,Frankfurt am Main,60325,Germany,50.1167,8.68333
3365,Frankfurt am Main,60308,Germany,50.1167,8.68333
3366,Frankfurt am Main,60596,Germany,50.1167,8.68333
3367,Frankfurt am Main,60322,Germany,50.1167,8.68333
3368,Frankfurt am Main,60306,Germany,50.1167,8.68333
3369,Frankfurt am Main,60310,Germany,50.1167,8.68333
3370,Frankfurt am Main,60594,Germany,50.1167,8.68333
3371,Frankfurt am Main,60316,Germany,50.1167,8.68333
3372,Frankfurt am Main,60327,Germany,50.1167,8.68333
3373,Frankfurt am Main,60437,Germany,50.1167,8.68333
3374,Frankfurt am Main,60431,Germany,50.1167,8.68333
3375,Frankfurt am Main,60433,Germany,50.1167,8.68333
3376,Frankfurt am Main,60323,Germany,50.1167,8.68333
3377,Frankfurt am Main,60598,Germany,50.1167,8.68333
3378,Frankfurt am Main,60329,Germany,50.1167,8.68333
3379,Frankfurt am Main,60320,Germany,50.1167,8.68333
3380,Frankfurt am Main,60311,Germany,50.1167,8.68333
3381,Frankfurt am Main,60313,Germany,50.1167,8.68333
3382,Frankfurt am Main,60435,Germany,50.1167,8.68333
3383,Frankfurt am Main,60318,Germany,50.1167,8.68333
3384,Frankfurt am Main,60599,Germany,50.1167,8.68333
3385,Frankfurt am Main,60389,Germany,50.1167,8.68333
3386,Frankfurt am Main,60314,Germany,50.1167,8.68333
3387,Frankfurt am Main,60385,Germany,50.1167,8.68333
3388,Frankfurt am Main,60386,Germany,50.1167,8.68333
3389,Frankfurt am Main,60388,Germany,50.1167,8.68333
3390,Halle (Saale),06001,Germany,51.4804145230098,11.9688556269837
3391,Halle (Saale),06002,Germany,51.4804145230098,11.9688556269837
3392,Halle (Saale),06003,Germany,51.4804145230098,11.9688556269837
3393,Halle (Saale),06004,Germany,51.4804145230098,11.9688556269837
3394,Halle (Saale),06005,Germany,51.4804145230098,11.9688556269837
3395,Halle (Saale),06006,Germany,51.4804145230098,11.9688556269837
3396,Halle (Saale),06007,Germany,51.4804145230098,11.9688556269837
3397,Halle (Saale),06008,Germany,51.4804145230098,11.9688556269837
3398,Halle (Saale),06009,Germany,51.4804145230098,11.9688556269837
3399,Halle (Saale),06010,Germany,51.4804145230098,11.9688556269837
3400,Halle (Saale),06011,Germany,51.4804145230098,11.9688556269837
3401,Halle (Saale),06012,Germany,51.4804145230098,11.9688556269837
3402,Halle (Saale),06013,Germany,51.4804145230098,11.9688556269837
3403,Halle (Saale),06015,Germany,51.4804145230098,11.9688556269837
3404,Halle (Saale),06016,Germany,51.4804145230098,11.9688556269837
3405,Halle (Saale),06017,Germany,51.4804145230098,11.9688556269837
3406,Halle (Saale),06018,Germany,51.4804145230098,11.9688556269837
3407,Halle (Saale),06019,Germany,51.4804145230098,11.9688556269837
3408,Halle (Saale),06021,Germany,51.4804145230098,11.9688556269837
3409,Halle (Saale),06033,Germany,51.4804145230098,11.9688556269837
3410,Halle (Saale),06035,Germany,51.4804145230098,11.9688556269837
3411,Halle (Saale),06036,Germany,51.4804145230098,11.9688556269837
3412,Halle (Saale),06038,Germany,51.4804145230098,11.9688556269837
3413,Halle (Saale),06039,Germany,51.4804145230098,11.9688556269837
3414,Halle (Saale),06040,Germany,51.4804145230098,11.9688556269837
3415,Halle (Saale),06041,Germany,51.4804145230098,11.9688556269837
3416,Halle (Saale),06042,Germany,51.4804145230098,11.9688556269837
3417,Halle (Saale),06043,Germany,51.4804145230098,11.9688556269837
3418,Halle (Saale),06044,Germany,51.4804145230098,11.9688556269837
3419,Halle (Saale),06045,Germany,51.4804145230098,11.9688556269837
3420,Halle (Saale),06046,Germany,51.4804145230098,11.9688556269837
3421,Halle (Saale),06047,Germany,51.4804145230098,11.9688556269837
3422,Halle (Saale),06048,Germany,51.4804145230098,11.9688556269837
3423,Halle (Saale),06052,Germany,51.4804145230098,11.9688556269837
3424,Halle (Saale),06053,Germany,51.4804145230098,11.9688556269837
3425,Halle (Saale),06054,Germany,51.4804145230098,11.9688556269837
3426,Halle (Saale),06055,Germany,51.4804145230098,11.9688556269837
3427,Halle (Saale),06056,Germany,51.4804145230098,11.9688556269837
3428,Halle (Saale),06057,Germany,51.4804145230098,11.9688556269837
3429,Halle (Saale),06106,Germany,51.4804145230098,11.9688556269837
3430,Halle (Saale),06108,Germany,51.4804145230098,11.9688556269837
3431,Halle (Saale),06110,Germany,51.4804145230098,11.9688556269837
3432,Halle (Saale),06112,Germany,51.4804145230098,11.9688556269837
3433,Halle (Saale),06114,Germany,51.4804145230098,11.9688556269837
3434,Halle (Saale),06116,Germany,51.4804145230098,11.9688556269837
3435,Halle (Saale),06118,Germany,51.4804145230098,11.9688556269837
3436,Halle (Saale),06120,Germany,51.50317,11.8628200000001
3437,Halle (Saale),06122,Germany,51.4804145230098,11.9688556269837
3438,Halle (Saale),06124,Germany,51.4804145230098,11.9688556269837
3439,Halle (Saale),06126,Germany,51.4804145230098,11.9688556269837
3440,Halle (Saale),06128,Germany,51.4804145230098,11.9688556269837
3441,Halle (Saale),06130,Germany,51.4804145230098,11.9688556269837
3442,Halle (Saale),06132,Germany,51.4804145230098,11.9688556269837
3443,Freiburg im Breisgau,79117,Germany,48.0,7.85
3444,Freiburg im Breisgau,79108,Germany,48.0,7.85
3445,Freiburg im Breisgau,79098,Germany,48.0,7.85
3446,Freiburg im Breisgau,79112,Germany,48.0,7.85
3447,Freiburg im Breisgau,79100,Germany,48.0,7.85
3448,Freiburg im Breisgau,79102,Germany,48.0,7.85
3449,Freiburg im Breisgau,79104,Germany,48.0,7.85
3450,Freiburg im Breisgau,79106,Germany,48.0,7.85
3451,Freiburg im Breisgau,79110,Germany,48.0,7.85
3452,Freiburg im Breisgau,79111,Germany,48.0,7.85
3453,Freiburg im Breisgau,79114,Germany,48.0,7.85
3454,Freiburg im Breisgau,79115,Germany,48.0,7.85
3455,Lübeck,23501,Germany,53.86956,10.68713
3456,Lübeck,23502,Germany,53.86956,10.68713
3457,Lübeck,23503,Germany,53.86956,10.68713
3458,Lübeck,23504,Germany,53.86956,10.68713
3459,Lübeck,23505,Germany,53.86956,10.68713
3460,Lübeck,23506,Germany,53.86956,10.68713
3461,Lübeck,23507,Germany,53.86956,10.68713
3462,Lübeck,23508,Germany,53.86956,10.68713
3463,Lübeck,23509,Germany,53.86956,10.68713
3464,Lübeck,23510,Germany,53.86956,10.68713
3465,Lübeck,23511,Germany,53.86956,10.68713
3466,Lübeck,23516,Germany,53.86956,10.68713
3467,Lübeck,23517,Germany,53.86956,10.68713
3468,Lübeck,23519,Germany,53.86956,10.68713
3469,Lübeck,23521,Germany,53.86956,10.68713
3470,Lübeck,23523,Germany,53.86956,10.68713
3471,Lübeck,23524,Germany,53.86956,10.68713
3472,Lübeck,23525,Germany,53.86956,10.68713
3473,Lübeck,23544,Germany,53.86956,10.68713
3474,Lübeck,23545,Germany,53.86956,10.68713
3475,Lübeck,23546,Germany,53.86956,10.68713
3476,Lübeck,23552,Germany,53.86956,10.68713
3477,Lübeck,23554,Germany,53.86956,10.68713
3478,Lübeck,23556,Germany,53.86956,10.68713
3479,Lübeck,23558,Germany,53.86956,10.68713
3480,Lübeck,23560,Germany,53.86956,10.68713
3481,Lübeck,23562,Germany,53.86956,10.68713
3482,Lübeck,23564,Germany,53.86956,10.68713
3483,Lübeck,23566,Germany,53.86956,10.68713
3484,Lübeck,23568,Germany,53.86956,10.68713
3485,Lübeck,23569,Germany,53.86956,10.68713
3486,Lübeck,23570,Germany,53.86956,10.68713
3487,Ludwigshafen am Rhein,67069,Germany,49.4811,8.43528
3488,Ludwigshafen am Rhein,67059,Germany,49.4811,8.43528
3489,Ludwigshafen am Rhein,67063,Germany,49.4811,8.43528
3490,Ludwigshafen am Rhein,67067,Germany,49.4811,8.43528
3491,Ludwigshafen am Rhein,67061,Germany,49.4811,8.43528
3492,Ludwigshafen am Rhein,67065,Germany,49.4811,8.43528
3493,Ludwigshafen am Rhein,67071,Germany,49.4811,8.43528
3494,Mülheim an der Ruhr,45468,Germany,51.4312,6.88050999999996
3495,Mülheim an der Ruhr,45470,Germany,51.4312,6.88050999999996
3496,Mülheim an der Ruhr,45472,Germany,51.4312,6.88050999999996
3497,Mülheim an der Ruhr,45473,Germany,51.4312,6.88050999999996
3498,Mülheim an der Ruhr,45475,Germany,51.4312,6.88050999999996
3499,Mülheim an der Ruhr,45476,Germany,51.4312,6.88050999999996
3500,Mülheim an der Ruhr,45478,Germany,51.4312,6.88050999999996
3501,Mülheim an der Ruhr,45479,Germany,51.4312,6.88050999999996
3502,Mülheim an der Ruhr,45481,Germany,51.4312,6.88050999999996
3503,Oldenburg (Oldenburg),26121,Germany,53.15035,8.21063000000004
3504,Oldenburg (Oldenburg),26122,Germany,53.15035,8.21063000000004
3505,Oldenburg (Oldenburg),26123,Germany,53.15035,8.21063000000004
3506,Oldenburg (Oldenburg),26125,Germany,53.15035,8.21063000000004
3507,Oldenburg (Oldenburg),26127,Germany,53.15035,8.21063000000004
3508,Oldenburg (Oldenburg),26129,Germany,53.15035,8.21063000000004
3509,Oldenburg (Oldenburg),26131,Germany,53.15035,8.21063000000004
3510,Oldenburg (Oldenburg),26133,Germany,53.15035,8.21063000000004
3511,Oldenburg (Oldenburg),26135,Germany,53.15035,8.21063000000004
3512,Offenbach am Main,63065,Germany,50.1,8.76667
3513,Offenbach am Main,63067,Germany,50.1,8.76667
3514,Offenbach am Main,63069,Germany,50.1,8.76667
3515,Offenbach am Main,63071,Germany,50.1,8.76667
3516,Offenbach am Main,63073,Germany,50.1,8.76667
3517,Offenbach am Main,63075,Germany,50.1,8.76667
3518,Erlangen,91052,Germany,49.5977,11.0039
3519,Erlangen,91054,Germany,49.5977,11.0039
3520,Erlangen,91056,Germany,49.5977,11.0039
3521,Erlangen,91058,Germany,49.5977,11.0039
